X,Y,OBJECTID,LATITUDE,LONGITUDE,NAME,STATION_TYPE,STATION_ID,STATION_STATUS,LAST_REPORTED,NUM_DOCKS_AVAILABLE,NUM_DOCKS_DISABLED,NUM_BIKES_AVAILABLE,NUM_EBIKES_AVAILABLE,NUM_BIKES_DISABLED,IS_INSTALLED,IS_RETURNING,IS_RENTING,HAS_KIOSK,IOS,ANDROID,ELECTRIC_BIKE_SURCHARGE_WAIVER,EIGHTD_HAS_KEY_DISPENSER,CAPACITY,RENTAL_METHODS,REGION_ID,GIS_LAST_MOD_DTTM,GIS_ID,REGION_NAME
-76.9955022837563,38.9346077954385,28467887,38.9346,-76.9955,John McCormack Dr & Michigan Ave NE,classic,30,active,2021/11/01 10:44:43+00,3,0,8,0,0,Yes,Yes,Yes,Yes,https://dc.lft.to/lastmile_qr_scan,https://dc.lft.to/lastmile_qr_scan,No,No,11,"CREDITCARD,KEY",42,2021/11/01 11:17:48+00,,"Washington, DC"
-77.019029290048,38.9030477877252,28467888,38.90304,-77.019027,5th & K St NW,classic,31,active,2021/11/01 10:48:31+00,16,0,0,0,1,Yes,Yes,Yes,Yes,https://dc.lft.to/lastmile_qr_scan,https://dc.lft.to/lastmile_qr_scan,No,No,19,"CREDITCARD,KEY",42,2021/11/01 11:17:48+00,,"Washington, DC"
-76.9769022755757,38.889607786517,28467889,38.8896,-76.9769,19th & East Capitol St SE,classic,32,active,2021/11/01 10:00:49+00,7,0,7,1,1,Yes,Yes,Yes,Yes,https://dc.lft.to/lastmile_qr_scan,https://dc.lft.to/lastmile_qr_scan,No,No,15,"CREDITCARD,KEY",42,2021/11/01 11:17:48+00,,"Washington, DC"
-77.0315022951693,38.9308077932707,28467890,38.9308,-77.0315,Park Rd & Holmead Pl NW,classic,33,active,2021/11/01 10:42:38+00,18,0,1,0,0,Yes,Yes,Yes,Yes,https://dc.lft.to/lastmile_qr_scan,https://dc.lft.to/lastmile_qr_scan,No,No,19,"CREDITCARD,KEY",42,2021/11/01 11:17:48+00,,"Washington, DC"
-76.9691862712486,38.8616707817042,28467891,38.861663,-76.969184,Good Hope & Naylor Rd SE,classic,34,active,2021/10/31 04:59:34+00,19,0,0,0,0,Yes,Yes,Yes,Yes,https://dc.lft.to/lastmile_qr_scan,https://dc.lft.to/lastmile_qr_scan,No,No,19,"CREDITCARD,KEY",42,2021/11/01 11:17:48+00,,"Washington, DC"
-77.0579813042288,38.934274792859,28467892,38.934267,-77.057979,Connecticut Ave & Newark St NW / Cleveland Park,classic,35,active,2021/11/01 11:04:50+00,9,0,1,1,0,Yes,Yes,Yes,Yes,https://dc.lft.to/lastmile_qr_scan,https://dc.lft.to/lastmile_qr_scan,No,No,11,"CREDITCARD,KEY",42,2021/11/01 11:17:48+00,,"Washington, DC"
-76.9607022704313,38.8780077851004,28467893,38.878,-76.9607,Randle Circle & Minnesota Ave SE,classic,36,active,2021/11/01 09:39:01+00,3,0,7,0,1,Yes,Yes,Yes,Yes,https://dc.lft.to/lastmile_qr_scan,https://dc.lft.to/lastmile_qr_scan,No,No,11,"CREDITCARD,KEY",42,2021/11/01 11:17:48+00,,"Washington, DC"
-76.9474482670777,38.8970707895964,28467894,38.897063,-76.947446,Minnesota Ave Metro/DOES,classic,37,active,2021/11/01 10:33:00+00,9,0,6,0,0,Yes,Yes,Yes,Yes,https://dc.lft.to/lastmile_qr_scan,https://dc.lft.to/lastmile_qr_scan,No,No,15,"CREDITCARD,KEY",42,2021/11/01 11:17:48+00,,"Washington, DC"
-76.9418792657378,38.9013927903953,28467895,38.901385,-76.941877,Nannie Helen Burroughs & Minnesota Ave NE,classic,38,active,2021/11/01 04:55:25+00,1,0,10,0,0,Yes,Yes,Yes,Yes,https://dc.lft.to/lastmile_qr_scan,https://dc.lft.to/lastmile_qr_scan,No,No,11,"CREDITCARD,KEY",42,2021/11/01 11:17:48+00,,"Washington, DC"
-76.9880412779697,38.8673807817059,28467896,38.867373,-76.988039,Good Hope Rd & MLK Ave SE,classic,40,active,2021/11/01 08:41:58+00,4,0,7,0,0,Yes,Yes,Yes,Yes,https://dc.lft.to/lastmile_qr_scan,https://dc.lft.to/lastmile_qr_scan,No,No,11,"CREDITCARD,KEY",42,2021/11/01 11:17:48+00,,"Washington, DC"
-77.0436022963008,38.895207785953,28467897,38.8952,-77.0436,19th & E Street NW,classic,41,active,2021/11/01 09:45:15+00,6,0,5,0,0,Yes,Yes,Yes,Yes,https://dc.lft.to/lastmile_qr_scan,https://dc.lft.to/lastmile_qr_scan,No,No,11,"CREDITCARD,KEY",42,2021/11/01 11:17:48+00,,"Washington, DC"
-77.0006502849956,38.9190847923507,28467898,38.919077,-77.000648,4th & W St NE,classic,42,active,2021/11/01 11:06:30+00,12,0,3,0,0,Yes,Yes,Yes,Yes,https://dc.lft.to/lastmile_qr_scan,https://dc.lft.to/lastmile_qr_scan,No,No,15,"CREDITCARD,KEY",42,2021/11/01 11:17:48+00,,"Washington, DC"
-77.0259022931643,38.9172077910495,28467899,38.9172,-77.0259,10th & U St NW,classic,43,active,2021/11/01 10:16:40+00,14,0,1,0,0,Yes,Yes,Yes,Yes,https://dc.lft.to/lastmile_qr_scan,https://dc.lft.to/lastmile_qr_scan,No,No,15,"CREDITCARD,KEY",42,2021/11/01 11:17:48+00,,"Washington, DC"
-77.0222022921044,38.9249077923453,28467900,38.9249,-77.0222,Georgia Ave and Fairmont St NW,classic,44,active,2021/11/01 11:02:44+00,10,0,1,1,0,Yes,Yes,Yes,Yes,https://dc.lft.to/lastmile_qr_scan,https://dc.lft.to/lastmile_qr_scan,No,No,11,"CREDITCARD,KEY",42,2021/11/01 11:17:48+00,,"Washington, DC"
-77.005702284184,38.8743077829029,28467901,38.8743,-77.0057,1st & N St SE,classic,45,active,2021/11/01 10:44:27+00,25,0,13,1,1,Yes,Yes,Yes,Yes,https://dc.lft.to/lastmile_qr_scan,https://dc.lft.to/lastmile_qr_scan,No,No,39,"CREDITCARD,KEY",42,2021/11/01 11:17:48+00,,"Washington, DC"
-77.0446022983091,38.9154077898826,28467902,38.9154,-77.0446,20th St & Florida Ave NW,classic,46,active,2021/11/01 11:00:06+00,13,0,2,0,0,Yes,Yes,Yes,Yes,https://dc.lft.to/lastmile_qr_scan,https://dc.lft.to/lastmile_qr_scan,No,No,15,"CREDITCARD,KEY",42,2021/11/01 11:17:48+00,,"Washington, DC"
-77.0222022908545,38.9155077900928,28467903,38.9155,-77.0222,7th & T St NW,classic,47,active,2021/11/01 10:15:10+00,14,0,0,0,1,Yes,Yes,Yes,Yes,https://dc.lft.to/lastmile_qr_scan,https://dc.lft.to/lastmile_qr_scan,No,No,15,"CREDITCARD,KEY",42,2021/11/01 11:17:48+00,,"Washington, DC"
-77.0534142977735,38.8543887766858,28467904,38.854381,-77.053412,Eads St & 22nd St S,classic,48,active,2021/11/01 09:54:50+00,3,0,11,3,1,Yes,Yes,Yes,Yes,https://dc.lft.to/lastmile_qr_scan,https://dc.lft.to/lastmile_qr_scan,No,No,15,"CREDITCARD,KEY",41,2021/11/01 11:17:48+00,,"Arlington, VA"
-77.0037022828834,38.876307783066,28467905,38.8763,-77.0037,M St & New Jersey Ave SE,classic,49,active,2021/11/01 10:46:23+00,7,0,8,1,2,Yes,Yes,Yes,Yes,https://dc.lft.to/lastmile_qr_scan,https://dc.lft.to/lastmile_qr_scan,No,No,17,"CREDITCARD,KEY",42,2021/11/01 11:17:48+00,,"Washington, DC"
-77.0444022976075,38.9101077881762,28467906,38.9101,-77.0444,Massachusetts Ave & Dupont Circle NW,classic,51,active,2021/11/01 11:13:23+00,2,0,41,0,2,Yes,Yes,Yes,Yes,https://dc.lft.to/lastmile_qr_scan,https://dc.lft.to/lastmile_qr_scan,No,No,45,"CREDITCARD,KEY",42,2021/11/01 11:17:48+00,,"Washington, DC"
-77.0054852852958,38.9057047895082,28467907,38.905697,-77.005483,1st & M St NE,classic,52,active,2021/11/01 11:10:44+00,4,0,11,0,0,Yes,Yes,Yes,Yes,https://dc.lft.to/lastmile_qr_scan,https://dc.lft.to/lastmile_qr_scan,No,No,15,"CREDITCARD,KEY",42,2021/11/01 11:17:48+00,,"Washington, DC"
-77.0473202986222,38.9057187878528,28467908,38.905711,-77.047318,New Hampshire Ave & Ward Pl NW,classic,53,active,2021/11/01 11:15:43+00,5,0,14,0,0,Yes,Yes,Yes,Yes,https://dc.lft.to/lastmile_qr_scan,https://dc.lft.to/lastmile_qr_scan,No,No,19,"CREDITCARD,KEY",42,2021/11/01 11:17:48+00,,"Washington, DC"
-77.0386322952254,38.9027677877434,28467909,38.90276,-77.03863,17th & K St NW,classic,54,active,2021/11/01 11:09:18+00,6,0,16,0,1,Yes,Yes,Yes,Yes,https://dc.lft.to/lastmile_qr_scan,https://dc.lft.to/lastmile_qr_scan,No,No,23,"CREDITCARD,KEY",42,2021/11/01 11:17:48+00,,"Washington, DC"
-77.0152912877122,38.8994157874736,28467910,38.899408,-77.015289,3rd & H St NW,classic,55,active,2021/11/01 10:56:53+00,10,0,5,0,0,Yes,Yes,Yes,Yes,https://dc.lft.to/lastmile_qr_scan,https://dc.lft.to/lastmile_qr_scan,No,No,15,"CREDITCARD,KEY",42,2021/11/01 11:17:48+00,,"Washington, DC"
-77.0023022837883,38.8851077855465,28467911,38.8851,-77.0023,3rd & D St SE,classic,56,active,2021/11/01 10:51:27+00,10,0,1,0,0,Yes,Yes,Yes,Yes,https://dc.lft.to/lastmile_qr_scan,https://dc.lft.to/lastmile_qr_scan,No,No,11,"CREDITCARD,KEY",42,2021/11/01 11:17:48+00,,"Washington, DC"
-76.9862022781927,38.8803077848106,28467912,38.8803,-76.9862,Potomac & Pennsylvania Ave SE,classic,57,active,2021/11/01 11:00:36+00,11,0,3,1,1,Yes,Yes,Yes,Yes,https://dc.lft.to/lastmile_qr_scan,https://dc.lft.to/lastmile_qr_scan,No,No,15,"CREDITCARD,KEY",42,2021/11/01 11:17:48+00,,"Washington, DC"
-76.987909278635,38.8829227851608,28467913,38.882915,-76.987907,13th & E St SE,classic,58,active,2021/11/01 11:12:40+00,5,0,9,0,1,Yes,Yes,Yes,Yes,https://dc.lft.to/lastmile_qr_scan,https://dc.lft.to/lastmile_qr_scan,No,No,15,"CREDITCARD,KEY",42,2021/11/01 11:17:48+00,,"Washington, DC"
-77.0387022958547,38.9121077892895,28467914,38.9121,-77.0387,17th & Corcoran St NW,classic,59,active,2021/11/01 11:14:37+00,15,0,3,0,1,Yes,Yes,Yes,Yes,https://dc.lft.to/lastmile_qr_scan,https://dc.lft.to/lastmile_qr_scan,No,No,19,"CREDITCARD,KEY",42,2021/11/01 11:17:48+00,,"Washington, DC"
-77.0638983064667,38.9445587943649,28467915,38.944551,-77.063896,Van Ness Metro / UDC,classic,60,active,2021/11/01 09:55:37+00,14,0,1,0,0,Yes,Yes,Yes,Yes,https://dc.lft.to/lastmile_qr_scan,https://dc.lft.to/lastmile_qr_scan,No,No,15,"CREDITCARD,KEY",42,2021/11/01 11:17:48+00,,"Washington, DC"
-77.0135022882186,38.9126077906828,28467916,38.9126,-77.0135,Florida Ave & R St NW,classic,61,active,2021/11/01 10:08:00+00,14,0,0,0,1,Yes,Yes,Yes,Yes,https://dc.lft.to/lastmile_qr_scan,https://dc.lft.to/lastmile_qr_scan,No,No,15,"CREDITCARD,KEY",42,2021/11/01 11:17:48+00,,"Washington, DC"
-76.995302281281,38.8792077841484,28467917,38.8792,-76.9953,8th & Eye St SE / Barracks Row,classic,62,active,2021/11/01 10:25:12+00,4,0,6,0,1,Yes,Yes,Yes,Yes,https://dc.lft.to/lastmile_qr_scan,https://dc.lft.to/lastmile_qr_scan,No,No,11,"CREDITCARD,KEY",42,2021/11/01 11:17:48+00,,"Washington, DC"
-77.0871733129286,38.9387437925591,28467918,38.938736,-77.087171,Ward Circle / American University,classic,63,active,2021/11/01 09:28:46+00,13,0,1,0,1,Yes,Yes,Yes,Yes,https://dc.lft.to/lastmile_qr_scan,https://dc.lft.to/lastmile_qr_scan,No,No,15,"CREDITCARD,KEY",42,2021/11/01 11:17:48+00,,"Washington, DC"
-77.0727573078429,38.9348887926769,28467919,38.934881,-77.072755,Wisconsin Ave & Newark St NW,classic,64,active,2021/11/01 09:34:09+00,18,0,1,0,0,Yes,Yes,Yes,Yes,https://dc.lft.to/lastmile_qr_scan,https://dc.lft.to/lastmile_qr_scan,No,No,19,"CREDITCARD,KEY",42,2021/11/01 11:17:48+00,,"Washington, DC"
-77.0328202971405,38.9477817965734,28467920,38.947774,-77.032818,14th St Heights / 14th & Crittenden St NW,classic,65,active,2021/11/01 10:22:12+00,8,0,3,1,0,Yes,Yes,Yes,Yes,https://dc.lft.to/lastmile_qr_scan,https://dc.lft.to/lastmile_qr_scan,No,No,11,"CREDITCARD,KEY",42,2021/11/01 11:17:48+00,,"Washington, DC"
-76.978402274395,38.8657917821163,28467921,38.865784,-76.9784,Anacostia Library,classic,66,active,2021/11/01 04:19:56+00,9,0,2,0,0,Yes,Yes,Yes,Yes,https://dc.lft.to/lastmile_qr_scan,https://dc.lft.to/lastmile_qr_scan,No,No,11,"CREDITCARD,KEY",42,2021/11/01 11:17:48+00,,"Washington, DC"
-76.9710172729981,38.8730647836373,28467922,38.873057,-76.971015,Pennsylvania & Minnesota Ave SE,classic,67,active,2021/11/01 04:24:56+00,8,0,3,0,0,Yes,Yes,Yes,Yes,https://dc.lft.to/lastmile_qr_scan,https://dc.lft.to/lastmile_qr_scan,No,No,11,"CREDITCARD,KEY",42,2021/11/01 11:17:48+00,,"Washington, DC"
-76.9968082815343,38.8869597854846,28467923,38.886952,-76.996806,Eastern Market / 7th & North Carolina Ave SE,classic,68,active,2021/11/01 11:02:06+00,8,0,6,0,1,Yes,Yes,Yes,Yes,https://dc.lft.to/lastmile_qr_scan,https://dc.lft.to/lastmile_qr_scan,No,No,15,"CREDITCARD,KEY",42,2021/11/01 11:17:48+00,,"Washington, DC"
-77.0316882931334,38.899639787387,28467924,38.899632,-77.031686,14th St & New York Ave NW,classic,69,active,2021/11/01 11:13:31+00,1,0,22,0,0,Yes,Yes,Yes,Yes,https://dc.lft.to/lastmile_qr_scan,https://dc.lft.to/lastmile_qr_scan,No,No,23,"CREDITCARD,KEY",42,2021/11/01 11:17:48+00,,"Washington, DC"
-76.9479762675126,38.8940077886195,28467925,38.894,-76.947974,Benning Branch Library,classic,70,active,2021/11/01 08:40:07+00,7,0,3,1,1,Yes,Yes,Yes,Yes,https://dc.lft.to/lastmile_qr_scan,https://dc.lft.to/lastmile_qr_scan,No,No,11,"CREDITCARD,KEY",42,2021/11/01 11:17:48+00,,"Washington, DC"
-77.0282442918189,38.8862847846868,28467926,38.886277,-77.028242,USDA / 12th & C St SW,classic,71,active,2021/11/01 10:11:59+00,35,0,4,0,0,Yes,Yes,Yes,Yes,https://dc.lft.to/lastmile_qr_scan,https://dc.lft.to/lastmile_qr_scan,No,No,39,"CREDITCARD,KEY",42,2021/11/01 11:17:48+00,,"Washington, DC"
-77.0591443024242,38.9023217868395,28467927,38.902314,-77.059142,Georgetown Harbor / 30th St NW,classic,72,active,2021/11/01 11:10:19+00,3,0,16,0,0,Yes,Yes,Yes,Yes,https://dc.lft.to/lastmile_qr_scan,https://dc.lft.to/lastmile_qr_scan,No,No,19,"CREDITCARD,KEY",42,2021/11/01 11:17:48+00,,"Washington, DC"
-76.9910182824122,38.9336757954994,28467928,38.933668,-76.991016,12th & Newton St NE,classic,73,active,2021/10/31 13:34:47+00,11,0,0,0,0,Yes,Yes,Yes,Yes,https://dc.lft.to/lastmile_qr_scan,https://dc.lft.to/lastmile_qr_scan,No,No,11,"CREDITCARD,KEY",42,2021/11/01 11:17:48+00,,"Washington, DC"
-77.0465892978385,38.894926785096,28467929,38.894919,-77.046587,US Dept of State / Virginia Ave & 21st St NW,classic,74,active,2021/11/01 11:10:20+00,2,0,11,1,1,Yes,Yes,Yes,Yes,https://dc.lft.to/lastmile_qr_scan,https://dc.lft.to/lastmile_qr_scan,No,No,15,"CREDITCARD,KEY",42,2021/11/01 11:17:48+00,,"Washington, DC"
-77.022243289435,38.886273784424,28467930,38.886266,-77.022241,L'Enfant Plaza / 7th & C St SW,classic,75,active,2021/11/01 10:56:19+00,6,0,9,0,0,Yes,Yes,Yes,Yes,https://dc.lft.to/lastmile_qr_scan,https://dc.lft.to/lastmile_qr_scan,No,No,15,"CREDITCARD,KEY",42,2021/11/01 11:17:48+00,,"Washington, DC"
-77.0260152916546,38.8930357857616,28467931,38.893028,-77.026013,10th St & Constitution Ave NW,classic,76,active,2021/11/01 10:56:28+00,3,0,26,0,1,Yes,Yes,Yes,Yes,https://dc.lft.to/lastmile_qr_scan,https://dc.lft.to/lastmile_qr_scan,No,No,31,"CREDITCARD,KEY",42,2021/11/01 11:17:48+00,,"Washington, DC"
-77.0555723008236,38.8973007859184,28467932,38.897293,-77.05557,Kennedy Center,classic,77,active,2021/11/01 10:42:33+00,10,0,9,0,0,Yes,Yes,Yes,Yes,https://dc.lft.to/lastmile_qr_scan,https://dc.lft.to/lastmile_qr_scan,No,No,19,"CREDITCARD,KEY",42,2021/11/01 11:17:48+00,,"Washington, DC"
-76.9952362815061,38.8841027853526,28467933,38.884095,-76.995234,Eastern Market Metro / Pennsylvania Ave & 8th St SE,classic,78,active,2021/11/01 11:15:08+00,12,0,7,0,0,Yes,Yes,Yes,Yes,https://dc.lft.to/lastmile_qr_scan,https://dc.lft.to/lastmile_qr_scan,No,No,19,"CREDITCARD,KEY",42,2021/11/01 11:17:48+00,,"Washington, DC"
-77.0417812971495,38.9050747877066,28467934,38.905067,-77.041779,18th & M St NW,classic,79,active,2021/11/01 11:16:43+00,3,0,23,0,1,Yes,Yes,Yes,Yes,https://dc.lft.to/lastmile_qr_scan,https://dc.lft.to/lastmile_qr_scan,No,No,27,"CREDITCARD,KEY",42,2021/11/01 11:17:48+00,,"Washington, DC"
-77.0793843111769,38.947614794478,28467935,38.947607,-77.079382,Tenleytown / Wisconsin Ave & Albemarle St NW,classic,80,active,2021/11/01 09:17:18+00,14,0,1,0,0,Yes,Yes,Yes,Yes,https://dc.lft.to/lastmile_qr_scan,https://dc.lft.to/lastmile_qr_scan,No,No,15,"CREDITCARD,KEY",42,2021/11/01 11:17:48+00,,"Washington, DC"
-76.9882522799806,38.9004347886716,28467936,38.900427,-76.98825,13th & H St NE,classic,81,active,2021/11/01 11:10:38+00,20,0,7,0,0,Yes,Yes,Yes,Yes,https://dc.lft.to/lastmile_qr_scan,https://dc.lft.to/lastmile_qr_scan,No,No,27,"CREDITCARD,KEY",42,2021/11/01 11:17:48+00,,"Washington, DC"
-77.0193492894624,38.8972297865742,28467937,38.897222,-77.019347,5th & F St NW,classic,82,active,2021/11/01 10:57:35+00,14,0,17,0,0,Yes,Yes,Yes,Yes,https://dc.lft.to/lastmile_qr_scan,https://dc.lft.to/lastmile_qr_scan,No,No,31,"CREDITCARD,KEY",42,2021/11/01 11:17:48+00,,"Washington, DC"
-77.0333562943199,38.8990397867887,28467938,38.899032,-77.033354,New York Ave & 15th St NW,classic,83,active,2021/11/01 11:14:42+00,4,0,14,1,1,Yes,Yes,Yes,Yes,https://dc.lft.to/lastmile_qr_scan,https://dc.lft.to/lastmile_qr_scan,No,No,19,"CREDITCARD,KEY",42,2021/11/01 11:17:48+00,,"Washington, DC"
-77.0222722909774,38.9057447883907,28467939,38.905737,-77.02227,Convention Center / 7th & M St NW,classic,84,active,2021/11/01 09:47:02+00,20,0,3,0,0,Yes,Yes,Yes,Yes,https://dc.lft.to/lastmile_qr_scan,https://dc.lft.to/lastmile_qr_scan,No,No,23,"CREDITCARD,KEY",42,2021/11/01 11:17:48+00,,"Washington, DC"
-77.0159722896162,38.9176297911223,28467940,38.917622,-77.01597,3rd & Elm St NW,classic,249,active,2021/11/01 10:47:15+00,12,0,3,0,0,Yes,Yes,Yes,Yes,https://dc.lft.to/lastmile_qr_scan,https://dc.lft.to/lastmile_qr_scan,No,No,15,"CREDITCARD,KEY",42,2021/11/01 11:17:48+00,,"Washington, DC"
-77.0047482860609,38.918162791453,28467941,38.918155,-77.004746,Rhode Island Ave & V St NE,classic,250,active,2021/11/01 09:14:40+00,6,0,11,0,1,Yes,Yes,Yes,Yes,https://dc.lft.to/lastmile_qr_scan,https://dc.lft.to/lastmile_qr_scan,No,No,19,"CREDITCARD,KEY",42,2021/11/01 11:17:48+00,,"Washington, DC"
-77.0139192874844,38.8922827862616,28467942,38.892275,-77.013917,Constitution Ave & 2nd St NW/DOL,classic,251,active,2021/11/01 11:15:42+00,5,0,20,1,2,Yes,Yes,Yes,Yes,https://dc.lft.to/lastmile_qr_scan,https://dc.lft.to/lastmile_qr_scan,No,No,27,"CREDITCARD,KEY",42,2021/11/01 11:17:48+00,,"Washington, DC"
-77.0137712870355,38.8869857853623,28467943,38.886978,-77.013769,Washington & Independence Ave SW/HHS,classic,252,active,2021/11/01 11:13:04+00,10,0,21,1,0,Yes,Yes,Yes,Yes,https://dc.lft.to/lastmile_qr_scan,https://dc.lft.to/lastmile_qr_scan,No,No,31,"CREDITCARD,KEY",42,2021/11/01 11:17:48+00,,"Washington, DC"
-77.0257642909132,38.8873197842694,28467944,38.887312,-77.025762,Independence Ave & L'Enfant Plaza SW/DOE,classic,253,active,2021/11/01 10:25:49+00,7,0,7,0,1,Yes,Yes,Yes,Yes,https://dc.lft.to/lastmile_qr_scan,https://dc.lft.to/lastmile_qr_scan,No,No,15,"CREDITCARD,KEY",42,2021/11/01 11:17:48+00,,"Washington, DC"
-76.9971962838899,38.9275047940807,28467945,38.927497,-76.997194,Hamlin & 7th St NE,classic,254,active,2021/11/01 09:27:07+00,11,0,4,1,0,Yes,Yes,Yes,Yes,https://dc.lft.to/lastmile_qr_scan,https://dc.lft.to/lastmile_qr_scan,No,No,15,"CREDITCARD,KEY",42,2021/11/01 11:17:48+00,,"Washington, DC"
-77.0866013085013,38.8624857773508,28467946,38.862478,-77.086599,Columbia Pike & S Walter Reed Dr,classic,255,active,2021/11/01 11:04:45+00,11,0,1,1,0,Yes,Yes,Yes,Yes,https://dc.lft.to/lastmile_qr_scan,https://dc.lft.to/lastmile_qr_scan,No,No,12,"CREDITCARD,KEY",41,2021/11/01 11:17:48+00,,"Arlington, VA"
-77.111532315547,38.8563267752033,28467947,38.856319,-77.11153,Arlington Mill Cmty Center / Columbia Pike & S Dinwiddie St,classic,256,active,2021/11/01 11:05:35+00,9,0,4,0,1,Yes,Yes,Yes,Yes,https://dc.lft.to/lastmile_qr_scan,https://dc.lft.to/lastmile_qr_scan,No,No,15,"CREDITCARD,KEY",41,2021/11/01 11:17:48+00,,"Arlington, VA"
-77.1079083159126,38.8718297786107,28467948,38.871822,-77.107906,Pershing Dr & N George Mason Dr,classic,257,active,2021/11/01 08:10:00+00,7,0,4,1,0,Yes,Yes,Yes,Yes,https://dc.lft.to/lastmile_qr_scan,https://dc.lft.to/lastmile_qr_scan,No,No,11,"CREDITCARD,KEY",41,2021/11/01 11:17:48+00,,"Arlington, VA"
-77.0230842956748,38.9854118043059,28467949,38.985404,-77.023082,Fenton St & New York Ave ,classic,258,active,2021/11/01 04:50:06+00,15,0,0,0,0,Yes,Yes,Yes,Yes,https://dc.lft.to/lastmile_qr_scan,https://dc.lft.to/lastmile_qr_scan,No,No,15,"CREDITCARD,KEY",44,2021/11/01 11:17:48+00,,"Montgomery County, MD (South)"
-77.0974283187157,38.9811108007184,28467950,38.981103,-77.097426,Bethesda Ave & Arlington Rd,classic,259,active,2021/11/01 11:15:59+00,1,0,18,1,0,Yes,Yes,Yes,Yes,https://dc.lft.to/lastmile_qr_scan,https://dc.lft.to/lastmile_qr_scan,No,No,19,"CREDITCARD,KEY",44,2021/11/01 11:17:48+00,,"Montgomery County, MD (South)"
-77.0922123174111,38.9838458018867,28467951,38.983838,-77.09221,Montgomery Ave & Waverly St ,classic,260,active,2021/11/01 10:56:44+00,4,0,7,0,0,Yes,Yes,Yes,Yes,https://dc.lft.to/lastmile_qr_scan,https://dc.lft.to/lastmile_qr_scan,No,No,11,"CREDITCARD,KEY",44,2021/11/01 11:17:48+00,,"Montgomery County, MD (South)"
-77.1926743560733,39.0963198206334,28467952,39.096312,-77.192672,Fallsgrove Blvd & Fallsgrove Dr,classic,261,active,2021/11/01 04:50:08+00,8,0,11,0,0,Yes,Yes,Yes,Yes,https://dc.lft.to/lastmile_qr_scan,https://dc.lft.to/lastmile_qr_scan,No,No,19,"CREDITCARD,KEY",43,2021/11/01 11:17:48+00,,"Montgomery County, MD (North)"
-77.2025033586868,39.0937908197856,28467953,39.093783,-77.202501,Traville Gateway Dr & Gudelsky Dr,classic,262,active,2021/11/01 04:50:09+00,17,0,2,0,0,Yes,Yes,Yes,Yes,https://dc.lft.to/lastmile_qr_scan,https://dc.lft.to/lastmile_qr_scan,No,No,19,"CREDITCARD,KEY",43,2021/11/01 11:17:48+00,,"Montgomery County, MD (North)"
-77.09654131927,38.9885698025265,28467954,38.988562,-77.096539,Norfolk Ave & Fairmont St,classic,263,active,2021/11/01 04:50:07+00,7,0,4,0,0,Yes,Yes,Yes,Yes,https://dc.lft.to/lastmile_qr_scan,https://dc.lft.to/lastmile_qr_scan,No,No,11,"CREDITCARD,KEY",44,2021/11/01 11:17:48+00,,"Montgomery County, MD (South)"
-77.1512933418352,39.0841328192818,28467955,39.084125,-77.151291,E Montgomery Ave & Maryland Ave,classic,264,active,2021/11/01 04:50:08+00,12,0,3,0,0,Yes,Yes,Yes,Yes,https://dc.lft.to/lastmile_qr_scan,https://dc.lft.to/lastmile_qr_scan,No,No,15,"CREDITCARD,KEY",43,2021/11/01 11:17:48+00,,"Montgomery County, MD (North)"
-77.0980313193571,38.9895478026163,28467956,38.98954,-77.098029,Cordell & Norfolk Ave,classic,265,active,2021/11/01 10:36:46+00,7,0,4,1,0,Yes,Yes,Yes,Yes,https://dc.lft.to/lastmile_qr_scan,https://dc.lft.to/lastmile_qr_scan,No,No,11,"CREDITCARD,KEY",44,2021/11/01 11:17:48+00,,"Montgomery County, MD (South)"
-77.1452153402236,39.0947798223777,28467957,39.094772,-77.145213,Frederick Ave & Horners Ln,classic,266,active,2021/11/01 04:50:08+00,6,0,3,0,0,Yes,Yes,Yes,Yes,https://dc.lft.to/lastmile_qr_scan,https://dc.lft.to/lastmile_qr_scan,No,No,9,"CREDITCARD,KEY",43,2021/11/01 11:17:48+00,,"Montgomery County, MD (North)"
-77.0113382918454,38.9812878040633,28467958,38.98128,-77.011336,Philadelphia & Maple Ave,classic,267,active,2021/11/01 09:16:13+00,6,0,9,1,0,Yes,Yes,Yes,Yes,https://dc.lft.to/lastmile_qr_scan,https://dc.lft.to/lastmile_qr_scan,No,No,15,"CREDITCARD,KEY",44,2021/11/01 11:17:48+00,,"Montgomery County, MD (South)"
-77.0063132900481,38.9836348051957,28467959,38.983627,-77.006311,Maple & Ritchie Ave,classic,268,active,2021/11/01 10:41:37+00,9,0,9,0,0,Yes,Yes,Yes,Yes,https://dc.lft.to/lastmile_qr_scan,https://dc.lft.to/lastmile_qr_scan,No,No,19,"CREDITCARD,KEY",44,2021/11/01 11:17:48+00,,"Montgomery County, MD (South)"
-77.0291262980271,38.9952638064576,28467960,38.995256,-77.029124,Silver Spring Metro / Colesville Rd & Wayne Ave,classic,269,active,2021/11/01 09:15:51+00,18,0,1,0,0,Yes,Yes,Yes,Yes,https://dc.lft.to/lastmile_qr_scan,https://dc.lft.to/lastmile_qr_scan,No,No,19,"CREDITCARD,KEY",44,2021/11/01 11:17:48+00,,"Montgomery County, MD (South)"
-77.095369318579,38.9835328010623,28467961,38.983525,-77.095367,Montgomery & East Ln,classic,270,active,2021/11/01 04:50:10+00,6,0,5,0,0,Yes,Yes,Yes,Yes,https://dc.lft.to/lastmile_qr_scan,https://dc.lft.to/lastmile_qr_scan,No,No,11,"CREDITCARD,KEY",44,2021/11/01 11:17:49+00,,"Montgomery County, MD (South)"
-77.0860003141936,38.9617707972384,28467962,38.961763,-77.085998,Friendship Hts Metro / Wisconsin Ave & Wisconsin Cir,classic,271,active,2021/11/01 07:28:55+00,17,0,2,2,0,Yes,Yes,Yes,Yes,https://dc.lft.to/lastmile_qr_scan,https://dc.lft.to/lastmile_qr_scan,No,No,19,"CREDITCARD,KEY",44,2021/11/01 11:17:49+00,,"Montgomery County, MD (South)"
-77.0318892946171,38.9210817910704,28467963,38.921074,-77.031887,14th & Belmont St NW,classic,272,active,2021/11/01 11:13:42+00,13,0,2,1,0,Yes,Yes,Yes,Yes,https://dc.lft.to/lastmile_qr_scan,https://dc.lft.to/lastmile_qr_scan,No,No,15,"CREDITCARD,KEY",42,2021/11/01 11:17:49+00,,"Washington, DC"
-77.0024022826835,38.8750177828356,28467964,38.87501,-77.0024,3rd & Tingey St SE,classic,273,active,2021/11/01 10:37:46+00,8,0,10,0,1,Yes,Yes,Yes,Yes,https://dc.lft.to/lastmile_qr_scan,https://dc.lft.to/lastmile_qr_scan,No,No,19,"CREDITCARD,KEY",42,2021/11/01 11:17:49+00,,"Washington, DC"
-77.0256742923899,38.9203947911821,28467965,38.920387,-77.025672,10th & Florida Ave NW,classic,274,active,2021/11/01 10:37:53+00,16,0,1,0,2,Yes,Yes,Yes,Yes,https://dc.lft.to/lastmile_qr_scan,https://dc.lft.to/lastmile_qr_scan,No,No,19,"CREDITCARD,KEY",42,2021/11/01 11:17:49+00,,"Washington, DC"
-76.9944702809597,38.8767447840282,28467966,38.876737,-76.994468,Potomac Ave & 8th St SE,classic,275,active,2021/11/01 11:16:06+00,10,0,5,0,0,Yes,Yes,Yes,Yes,https://dc.lft.to/lastmile_qr_scan,https://dc.lft.to/lastmile_qr_scan,No,No,15,"CREDITCARD,KEY",42,2021/11/01 11:17:49+00,,"Washington, DC"
-77.1880163538753,39.099383820859,28467967,39.099376,-77.188014,Fallsgrove Dr & W Montgomery Ave,classic,277,active,2021/11/01 04:50:10+00,9,0,6,0,0,Yes,Yes,Yes,Yes,https://dc.lft.to/lastmile_qr_scan,https://dc.lft.to/lastmile_qr_scan,No,No,15,"CREDITCARD,KEY",43,2021/11/01 11:17:49+00,,"Montgomery County, MD (North)"
-77.1491643418602,39.0836808192077,28467968,39.083673,-77.149162,Monroe St & Monroe Pl,classic,278,active,2021/11/01 04:55:27+00,13,0,2,0,0,Yes,Yes,Yes,Yes,https://dc.lft.to/lastmile_qr_scan,https://dc.lft.to/lastmile_qr_scan,No,No,15,"CREDITCARD,KEY",43,2021/11/01 11:17:49+00,,"Montgomery County, MD (North)"
-77.1574123460477,39.1235208271809,28467969,39.123513,-77.15741,Needwood Rd & Eagles Head Ct,classic,279,active,2021/11/01 04:50:09+00,8,0,7,0,0,Yes,Yes,Yes,Yes,https://dc.lft.to/lastmile_qr_scan,https://dc.lft.to/lastmile_qr_scan,No,No,15,"CREDITCARD,KEY",43,2021/11/01 11:17:49+00,,"Montgomery County, MD (North)"
-77.0293522985174,38.9902568054366,28467970,38.990249,-77.02935,East West Hwy & Blair Mill Rd,classic,280,active,2021/11/01 09:16:40+00,13,0,2,0,0,Yes,Yes,Yes,Yes,https://dc.lft.to/lastmile_qr_scan,https://dc.lft.to/lastmile_qr_scan,No,No,15,"CREDITCARD,KEY",44,2021/11/01 11:17:49+00,,"Montgomery County, MD (South)"
-77.0919933169556,38.9824638015252,28467971,38.982456,-77.091991,47th & Elm St,classic,282,active,2021/10/31 17:04:59+00,4,0,11,0,0,Yes,Yes,Yes,Yes,https://dc.lft.to/lastmile_qr_scan,https://dc.lft.to/lastmile_qr_scan,No,No,15,"CREDITCARD,KEY",44,2021/11/01 11:17:49+00,,"Montgomery County, MD (South)"
-77.0445653052408,39.025394811472,28467972,39.025387,-77.044563,Dennis Ave & Amherst Ave,classic,283,active,2021/11/01 04:50:11+00,12,0,3,0,0,Yes,Yes,Yes,Yes,https://dc.lft.to/lastmile_qr_scan,https://dc.lft.to/lastmile_qr_scan,No,No,15,"CREDITCARD,KEY",44,2021/11/01 11:17:49+00,,"Montgomery County, MD (South)"
-77.1590503452399,39.0956688212746,28467973,39.095661,-77.159048,Montgomery College / W Campus Dr & Mannakee St,classic,284,active,2021/11/01 04:55:27+00,13,0,8,1,0,Yes,Yes,Yes,Yes,https://dc.lft.to/lastmile_qr_scan,https://dc.lft.to/lastmile_qr_scan,No,No,21,"CREDITCARD,KEY",43,2021/11/01 11:17:49+00,,"Montgomery County, MD (North)"
-77.0238562964659,38.9897318052474,28467974,38.989724,-77.023854,Fenton St & Gist Ave,classic,285,active,2021/11/01 09:02:14+00,11,0,0,0,0,Yes,Yes,Yes,Yes,https://dc.lft.to/lastmile_qr_scan,https://dc.lft.to/lastmile_qr_scan,No,No,11,"CREDITCARD,KEY",44,2021/11/01 11:17:49+00,,"Montgomery County, MD (South)"
-77.0112122921839,38.9750078027019,28467975,38.975,-77.01121,Carroll & Westmoreland Ave,classic,286,active,2021/11/01 07:51:56+00,12,0,3,0,0,Yes,Yes,Yes,Yes,https://dc.lft.to/lastmile_qr_scan,https://dc.lft.to/lastmile_qr_scan,No,No,15,"CREDITCARD,KEY",44,2021/11/01 11:17:49+00,,"Montgomery County, MD (South)"
-77.0064742908754,38.9779408034894,28467976,38.977933,-77.006472,Carroll & Ethan Allen Ave,classic,287,active,2021/10/31 12:35:27+00,13,0,2,0,0,Yes,Yes,Yes,Yes,https://dc.lft.to/lastmile_qr_scan,https://dc.lft.to/lastmile_qr_scan,No,No,15,"CREDITCARD,KEY",44,2021/11/01 11:17:49+00,,"Montgomery County, MD (South)"
-77.1001063204367,38.9923828027124,28467977,38.992375,-77.100104,Battery Ln & Trolley Trail,classic,288,active,2021/11/01 10:53:43+00,2,0,13,0,0,Yes,Yes,Yes,Yes,https://dc.lft.to/lastmile_qr_scan,https://dc.lft.to/lastmile_qr_scan,No,No,15,"CREDITCARD,KEY",44,2021/11/01 11:17:49+00,,"Montgomery County, MD (South)"
-77.100241320855,38.9906468029937,28467978,38.990639,-77.100239,Norfolk & Rugby Ave,classic,289,active,2021/11/01 09:24:18+00,8,0,3,0,0,Yes,Yes,Yes,Yes,https://dc.lft.to/lastmile_qr_scan,https://dc.lft.to/lastmile_qr_scan,No,No,11,"CREDITCARD,KEY",44,2021/11/01 11:17:49+00,,"Montgomery County, MD (South)"
-77.0945913172592,38.9771008005153,28467979,38.977093,-77.094589,Offutt Ln & Chevy Chase Dr,classic,290,active,2021/11/01 04:55:25+00,7,0,4,0,0,Yes,Yes,Yes,Yes,https://dc.lft.to/lastmile_qr_scan,https://dc.lft.to/lastmile_qr_scan,No,No,11,"CREDITCARD,KEY",44,2021/11/01 11:17:49+00,,"Montgomery County, MD (South)"
-77.1413803383657,39.0763388180297,28467980,39.076331,-77.141378,Fleet St & Ritchie Pkwy,classic,293,active,2021/11/01 04:55:26+00,13,0,2,0,0,Yes,Yes,Yes,Yes,https://dc.lft.to/lastmile_qr_scan,https://dc.lft.to/lastmile_qr_scan,No,No,15,"CREDITCARD,KEY",43,2021/11/01 11:17:49+00,,"Montgomery County, MD (North)"
-77.1770933509004,39.102219822345,28467981,39.102212,-77.177091,Piccard & W Gude Dr,classic,294,active,2021/11/01 04:50:12+00,8,0,11,0,0,Yes,Yes,Yes,Yes,https://dc.lft.to/lastmile_qr_scan,https://dc.lft.to/lastmile_qr_scan,No,No,19,"CREDITCARD,KEY",43,2021/11/01 11:17:49+00,,"Montgomery County, MD (North)"
-77.0303732989948,38.9940428058168,28467982,38.994035,-77.030371,Silver Spring Transit Center - Top Level,classic,295,active,2021/11/01 09:07:09+00,11,0,4,0,0,Yes,Yes,Yes,Yes,https://dc.lft.to/lastmile_qr_scan,https://dc.lft.to/lastmile_qr_scan,No,No,15,"CREDITCARD,KEY",44,2021/11/01 11:17:49+00,,"Montgomery County, MD (South)"
-77.0315572992821,38.9993958068187,28467983,38.999388,-77.031555,Georgia Ave & Spring St,classic,296,active,2021/11/01 06:26:46+00,5,0,6,2,0,Yes,Yes,Yes,Yes,https://dc.lft.to/lastmile_qr_scan,https://dc.lft.to/lastmile_qr_scan,No,No,11,"CREDITCARD,KEY",44,2021/11/01 11:17:49+00,,"Montgomery County, MD (South)"
-77.0256102979639,38.9970408069041,28467984,38.997033,-77.025608,Fenton St & Ellsworth Dr ,classic,297,active,2021/11/01 04:50:12+00,13,0,2,1,0,Yes,Yes,Yes,Yes,https://dc.lft.to/lastmile_qr_scan,https://dc.lft.to/lastmile_qr_scan,No,No,15,"CREDITCARD,KEY",44,2021/11/01 11:17:49+00,,"Montgomery County, MD (South)"
-77.1714893506692,39.1146958251327,28467985,39.114688,-77.171487,King Farm Blvd & Pleasant Dr,classic,298,active,2021/11/01 04:50:10+00,16,0,2,1,0,Yes,Yes,Yes,Yes,https://dc.lft.to/lastmile_qr_scan,https://dc.lft.to/lastmile_qr_scan,No,No,18,"CREDITCARD,KEY",43,2021/11/01 11:17:49+00,,"Montgomery County, MD (North)"
-77.1826713535147,39.1103218235396,28467986,39.110314,-77.182669,King Farm Blvd & Piccard Dr,classic,299,active,2021/11/01 04:50:13+00,11,0,4,1,0,Yes,Yes,Yes,Yes,https://dc.lft.to/lastmile_qr_scan,https://dc.lft.to/lastmile_qr_scan,No,No,15,"CREDITCARD,KEY",43,2021/11/01 11:17:49+00,,"Montgomery County, MD (North)"
-77.0500483011134,38.9235907911436,28467987,38.923583,-77.050046,Calvert St & Woodley Pl NW,classic,301,active,2021/11/01 10:04:30+00,19,0,0,0,0,Yes,Yes,Yes,Yes,https://dc.lft.to/lastmile_qr_scan,https://dc.lft.to/lastmile_qr_scan,No,No,19,"CREDITCARD,KEY",42,2021/11/01 11:17:49+00,,"Washington, DC"
-77.0153622888814,38.9073407892391,28467988,38.907333,-77.01536,New Jersey Ave & N St NW/Dunbar HS,classic,302,active,2021/11/01 11:14:54+00,17,0,2,0,0,Yes,Yes,Yes,Yes,https://dc.lft.to/lastmile_qr_scan,https://dc.lft.to/lastmile_qr_scan,No,No,19,"CREDITCARD,KEY",42,2021/11/01 11:17:49+00,,"Washington, DC"
-76.9318642623142,38.8985437900346,28467989,38.898536,-76.931862,Nannie Helen Burroughs Ave & 49th St NE,classic,303,active,2021/11/01 09:59:06+00,8,0,3,0,0,Yes,Yes,Yes,Yes,https://dc.lft.to/lastmile_qr_scan,https://dc.lft.to/lastmile_qr_scan,No,No,11,"CREDITCARD,KEY",42,2021/11/01 11:17:49+00,,"Washington, DC"
-76.9331012629167,38.9084807920939,28467990,38.908473,-76.933099,Deanwood Rec Center,classic,304,active,2021/11/01 10:22:39+00,14,0,1,0,0,Yes,Yes,Yes,Yes,https://dc.lft.to/lastmile_qr_scan,https://dc.lft.to/lastmile_qr_scan,No,No,15,"CREDITCARD,KEY",42,2021/11/01 11:17:49+00,,"Washington, DC"
-77.0302322918005,38.8784407828617,28467991,38.878433,-77.03023,Hains Point/Buckeye & Ohio Dr SW,classic,305,active,2021/11/01 10:27:12+00,9,0,8,1,0,Yes,Yes,Yes,Yes,https://dc.lft.to/lastmile_qr_scan,https://dc.lft.to/lastmile_qr_scan,No,No,17,"CREDITCARD,KEY",42,2021/11/01 11:17:49+00,,"Washington, DC"
-77.0892353091793,38.8737627794969,28467992,38.873755,-77.089233,Arlington Blvd & Fillmore St,classic,306,active,2021/11/01 10:15:38+00,7,0,4,0,0,Yes,Yes,Yes,Yes,https://dc.lft.to/lastmile_qr_scan,https://dc.lft.to/lastmile_qr_scan,No,No,11,"CREDITCARD,KEY",41,2021/11/01 11:17:49+00,,"Arlington, VA"
-77.054282298317,38.8627607789497,28467993,38.862753,-77.05428,Eads St & 12th St S,classic,307,active,2021/11/01 10:17:23+00,6,0,10,1,1,Yes,Yes,Yes,Yes,https://dc.lft.to/lastmile_qr_scan,https://dc.lft.to/lastmile_qr_scan,No,No,17,"CREDITCARD,KEY",41,2021/11/01 11:17:49+00,,"Arlington, VA"
-77.1096493237185,38.999641804123,28467994,38.999634,-77.109647,Old Georgetown Rd & Southwick St,classic,308,active,2021/11/01 08:00:17+00,15,0,4,0,0,Yes,Yes,Yes,Yes,https://dc.lft.to/lastmile_qr_scan,https://dc.lft.to/lastmile_qr_scan,No,No,19,"CREDITCARD,KEY",44,2021/11/01 11:17:49+00,,"Montgomery County, MD (South)"
-77.0886613143788,38.9611577974539,28467995,38.96115,-77.088659,Friendship Blvd & Willard Ave,classic,309,active,2021/11/01 08:35:06+00,18,0,1,1,0,Yes,Yes,Yes,Yes,https://dc.lft.to/lastmile_qr_scan,https://dc.lft.to/lastmile_qr_scan,No,No,19,"CREDITCARD,KEY",44,2021/11/01 11:17:49+00,,"Montgomery County, MD (South)"
-77.0089132863458,38.8997107875051,28467996,38.899703,-77.008911,North Capitol St & G Pl NE,classic,310,active,2021/11/01 11:16:09+00,1,0,17,0,1,Yes,Yes,Yes,Yes,https://dc.lft.to/lastmile_qr_scan,https://dc.lft.to/lastmile_qr_scan,No,No,19,"CREDITCARD,KEY",42,2021/11/01 11:17:49+00,,"Washington, DC"
-77.0934803087887,38.8378537722552,28467997,38.837846,-77.093478,31st St & S Woodrow St,classic,311,active,2021/11/01 09:02:30+00,8,0,3,1,0,Yes,Yes,Yes,Yes,https://dc.lft.to/lastmile_qr_scan,https://dc.lft.to/lastmile_qr_scan,No,No,11,"CREDITCARD,KEY",41,2021/11/01 11:17:49+00,,"Arlington, VA"
-77.0821063074072,38.8732267799819,28467998,38.873219,-77.082104,Washington Blvd & Walter Reed Dr ,classic,312,active,2021/11/01 04:55:28+00,13,0,2,0,0,Yes,Yes,Yes,Yes,https://dc.lft.to/lastmile_qr_scan,https://dc.lft.to/lastmile_qr_scan,No,No,15,"CREDITCARD,KEY",41,2021/11/01 11:17:49+00,,"Arlington, VA"
-77.0955983114202,38.8694257787968,28467999,38.869418,-77.095596,TJ Cmty Ctr / 2nd St & S Old Glebe Rd,classic,313,active,2021/11/01 08:01:53+00,7,1,7,2,0,Yes,Yes,Yes,Yes,https://dc.lft.to/lastmile_qr_scan,https://dc.lft.to/lastmile_qr_scan,No,No,15,"CREDITCARD,KEY",41,2021/11/01 11:17:49+00,,"Arlington, VA"
-77.0619793048357,38.9411467943489,28468000,38.941139,-77.061977,Connecticut Ave & Tilden St NW,classic,314,active,2021/11/01 11:16:01+00,13,0,0,0,0,Yes,Yes,Yes,Yes,https://dc.lft.to/lastmile_qr_scan,https://dc.lft.to/lastmile_qr_scan,No,No,15,"CREDITCARD,KEY",42,2021/11/01 11:17:49+00,,"Washington, DC"
-77.1964443572319,39.103098821507,28468001,39.103091,-77.196442,Medical Center Dr & Key West Ave,classic,315,active,2021/11/01 04:55:29+00,9,0,6,0,0,Yes,Yes,Yes,Yes,https://dc.lft.to/lastmile_qr_scan,https://dc.lft.to/lastmile_qr_scan,No,No,15,"CREDITCARD,KEY",43,2021/11/01 11:17:49+00,,"Montgomery County, MD (North)"
-77.1966383573135,39.097643820713,28468002,39.097636,-77.196636,Shady Grove Hospital,classic,316,active,2021/11/01 04:50:13+00,19,0,0,0,0,Yes,Yes,Yes,Yes,https://dc.lft.to/lastmile_qr_scan,https://dc.lft.to/lastmile_qr_scan,No,No,19,"CREDITCARD,KEY",43,2021/11/01 11:17:49+00,,"Montgomery County, MD (North)"
-77.0238962963837,38.9974528069879,28468003,38.997445,-77.023894,Veterans Pl & Pershing Dr ,classic,317,active,2021/11/01 09:31:33+00,9,0,2,0,0,Yes,Yes,Yes,Yes,https://dc.lft.to/lastmile_qr_scan,https://dc.lft.to/lastmile_qr_scan,No,No,11,"CREDITCARD,KEY",44,2021/11/01 11:17:49+00,,"Montgomery County, MD (South)"
-77.1458053404842,39.0854018202288,28468004,39.085394,-77.145803,Rockville Metro East,classic,318,active,2021/11/01 04:50:14+00,12,0,1,0,0,Yes,Yes,Yes,Yes,https://dc.lft.to/lastmile_qr_scan,https://dc.lft.to/lastmile_qr_scan,No,No,13,"CREDITCARD,KEY",43,2021/11/01 11:17:49+00,,"Montgomery County, MD (North)"
-77.0121102868696,38.9003657877293,28468005,38.900358,-77.012108,1st & H St NW,classic,319,active,2021/11/01 10:44:55+00,2,0,11,0,2,Yes,Yes,Yes,Yes,https://dc.lft.to/lastmile_qr_scan,https://dc.lft.to/lastmile_qr_scan,No,No,15,"CREDITCARD,KEY",42,2021/11/01 11:17:49+00,,"Washington, DC"
-77.0027232878401,38.9523767989949,28468006,38.952369,-77.002721,Fort Totten Metro,classic,320,active,2021/11/01 10:56:37+00,11,0,8,3,0,Yes,Yes,Yes,Yes,https://dc.lft.to/lastmile_qr_scan,https://dc.lft.to/lastmile_qr_scan,No,No,19,"CREDITCARD,KEY",42,2021/11/01 11:17:49+00,,"Washington, DC"
-77.0168572929329,38.9752268025906,28468007,38.975219,-77.016855,Takoma Metro,classic,321,active,2021/11/01 11:02:17+00,16,0,2,0,0,Yes,Yes,Yes,Yes,https://dc.lft.to/lastmile_qr_scan,https://dc.lft.to/lastmile_qr_scan,No,No,19,"CREDITCARD,KEY",42,2021/11/01 11:17:49+00,,"Washington, DC"
-76.9958782832959,38.920689792949,28468008,38.920682,-76.995876,Rhode Island Ave Metro,classic,322,active,2021/11/01 08:55:57+00,14,0,5,1,0,Yes,Yes,Yes,Yes,https://dc.lft.to/lastmile_qr_scan,https://dc.lft.to/lastmile_qr_scan,No,No,19,"CREDITCARD,KEY",42,2021/11/01 11:17:49+00,,"Washington, DC"
-77.076133305416,38.8664787788533,28468009,38.866471,-77.076131,Rolfe St & 9th St S,classic,323,active,2021/11/01 09:47:03+00,7,0,3,0,1,Yes,Yes,Yes,Yes,https://dc.lft.to/lastmile_qr_scan,https://dc.lft.to/lastmile_qr_scan,No,No,11,"CREDITCARD,KEY",41,2021/11/01 11:17:49+00,,"Arlington, VA"
-77.0886613077262,38.8406617732626,28468010,38.840654,-77.088659,S Randolph St & Campbell Ave,classic,324,active,2021/11/01 11:05:28+00,5,0,10,0,0,Yes,Yes,Yes,Yes,https://dc.lft.to/lastmile_qr_scan,https://dc.lft.to/lastmile_qr_scan,No,No,15,"CREDITCARD,KEY",41,2021/11/01 11:17:49+00,,"Arlington, VA"
-77.1660953488085,39.1197728261321,28468011,39.119765,-77.166093,Shady Grove Metro West,classic,325,active,2021/11/01 04:55:29+00,16,0,2,0,0,Yes,Yes,Yes,Yes,https://dc.lft.to/lastmile_qr_scan,https://dc.lft.to/lastmile_qr_scan,No,No,19,"CREDITCARD,KEY",43,2021/11/01 11:17:49+00,,"Montgomery County, MD (North)"
-77.1033833197398,38.9649997978461,28468012,38.964992,-77.103381,River Rd & Landy Ln,classic,326,active,2021/11/01 04:55:26+00,6,0,13,0,0,Yes,Yes,Yes,Yes,https://dc.lft.to/lastmile_qr_scan,https://dc.lft.to/lastmile_qr_scan,No,No,19,"CREDITCARD,KEY",44,2021/11/01 11:17:49+00,,"Montgomery County, MD (South)"
-77.0945393185147,38.9846988016201,28468013,38.984691,-77.094537,Bethesda Metro / Wisconsin Ave & Old Georgetown Rd,classic,328,active,2021/11/01 09:28:19+00,11,0,1,0,0,Yes,Yes,Yes,Yes,https://dc.lft.to/lastmile_qr_scan,https://dc.lft.to/lastmile_qr_scan,No,No,12,"CREDITCARD,KEY",44,2021/11/01 11:17:49+00,,"Montgomery County, MD (South)"
-77.0713033047245,38.8899277834803,28468014,38.88992,-77.071301,Iwo Jima Memorial / Meade & 14th St N,classic,329,active,2021/11/01 10:21:24+00,2,0,17,0,0,Yes,Yes,Yes,Yes,https://dc.lft.to/lastmile_qr_scan,https://dc.lft.to/lastmile_qr_scan,No,No,19,"CREDITCARD,KEY",41,2021/11/01 11:17:49+00,,"Arlington, VA"
-77.0675313042281,38.9037397864269,28468015,38.903732,-77.067529,34th & Water St NW,classic,330,active,2021/11/01 11:13:54+00,0,0,17,0,1,Yes,Yes,Yes,Yes,https://dc.lft.to/lastmile_qr_scan,https://dc.lft.to/lastmile_qr_scan,No,No,19,"CREDITCARD,KEY",42,2021/11/01 11:17:49+00,,"Washington, DC"
-77.06086829696,38.8043857663611,28468016,38.804378,-77.060866,Duke St & John Carlyle St,classic,331,active,2021/11/01 10:43:46+00,5,0,10,0,0,Yes,Yes,Yes,Yes,https://dc.lft.to/lastmile_qr_scan,https://dc.lft.to/lastmile_qr_scan,No,No,15,"CREDITCARD,KEY",40,2021/11/01 11:17:49+00,,"Alexandria, VA"
-77.0916923120275,38.894948783455,28468017,38.894941,-77.09169,Langston Blvd & N Cleveland St,classic,332,active,2021/11/01 02:59:25+00,10,0,5,1,0,Yes,Yes,Yes,Yes,https://dc.lft.to/lastmile_qr_scan,https://dc.lft.to/lastmile_qr_scan,No,No,15,"CREDITCARD,KEY",41,2021/11/01 11:17:49+00,,"Arlington, VA"
-77.1045053139358,38.8694497783224,28468018,38.869442,-77.104503,Arlington Blvd & S George Mason Dr,classic,333,active,2021/11/01 04:55:30+00,13,0,2,0,0,Yes,Yes,Yes,Yes,https://dc.lft.to/lastmile_qr_scan,https://dc.lft.to/lastmile_qr_scan,No,No,15,"CREDITCARD,KEY",41,2021/11/01 11:17:49+00,,"Arlington, VA"
-77.0262372914661,38.8982507864451,28468019,38.898243,-77.026235,10th & G St NW,classic,334,active,2021/11/01 11:05:55+00,19,0,3,0,1,Yes,Yes,Yes,Yes,https://dc.lft.to/lastmile_qr_scan,https://dc.lft.to/lastmile_qr_scan,No,No,23,"CREDITCARD,KEY",42,2021/11/01 11:17:49+00,,"Washington, DC"
-77.080853308935,38.8976197843983,28468020,38.897612,-77.080851,Langston Blvd & N Scott St,classic,335,active,2021/11/01 10:58:56+00,7,0,8,0,0,Yes,Yes,Yes,Yes,https://dc.lft.to/lastmile_qr_scan,https://dc.lft.to/lastmile_qr_scan,No,No,15,"CREDITCARD,KEY",41,2021/11/01 11:17:49+00,,"Arlington, VA"
-77.0510862991414,38.9017627867751,28468021,38.901755,-77.051084,New Hampshire Ave & 24th St NW,classic,336,active,2021/11/01 11:06:41+00,3,0,16,1,0,Yes,Yes,Yes,Yes,https://dc.lft.to/lastmile_qr_scan,https://dc.lft.to/lastmile_qr_scan,No,No,19,"CREDITCARD,KEY",42,2021/11/01 11:17:49+00,,"Washington, DC"
-77.0689542987277,38.801118765369,28468022,38.801111,-77.068952,Eisenhower Ave & Mill Race Ln,classic,337,active,2021/11/01 10:49:30+00,10,0,5,0,0,Yes,Yes,Yes,Yes,https://dc.lft.to/lastmile_qr_scan,https://dc.lft.to/lastmile_qr_scan,No,No,15,"CREDITCARD,KEY",40,2021/11/01 11:17:49+00,,"Alexandria, VA"
-77.0474962936408,38.8217577708753,28468023,38.82175,-77.047494,Potomac Greens Dr & Slaters Ln,classic,338,active,2021/11/01 09:02:56+00,7,0,4,0,0,Yes,Yes,Yes,Yes,https://dc.lft.to/lastmile_qr_scan,https://dc.lft.to/lastmile_qr_scan,No,No,11,"CREDITCARD,KEY",40,2021/11/01 11:17:49+00,,"Alexandria, VA"
-77.0635642970188,38.8026847659359,28468024,38.802677,-77.063562,Ballenger Ave & Dulaney St,classic,339,active,2021/11/01 10:57:33+00,16,0,3,0,0,Yes,Yes,Yes,Yes,https://dc.lft.to/lastmile_qr_scan,https://dc.lft.to/lastmile_qr_scan,No,No,19,"CREDITCARD,KEY",40,2021/11/01 11:17:49+00,,"Alexandria, VA"
-77.0576212963335,38.8200717702207,28468025,38.820064,-77.057619,Mount Vernon Ave & E Nelson Ave,classic,340,active,2021/10/31 18:15:12+00,7,0,4,0,0,Yes,Yes,Yes,Yes,https://dc.lft.to/lastmile_qr_scan,https://dc.lft.to/lastmile_qr_scan,No,No,11,"CREDITCARD,KEY",40,2021/11/01 11:17:49+00,,"Alexandria, VA"
-77.0585432975678,38.8259577707543,28468026,38.82595,-77.058541,Mount Vernon Ave & E Del Ray Ave,classic,341,active,2021/10/31 16:03:43+00,0,0,15,0,0,Yes,Yes,Yes,Yes,https://dc.lft.to/lastmile_qr_scan,https://dc.lft.to/lastmile_qr_scan,No,No,15,"CREDITCARD,KEY",40,2021/11/01 11:17:49+00,,"Alexandria, VA"
-77.0530982951753,38.8209397698561,28468027,38.820932,-77.053096,Monroe Ave & Leslie Ave,classic,342,active,2021/11/01 05:09:54+00,13,0,2,0,0,Yes,Yes,Yes,Yes,https://dc.lft.to/lastmile_qr_scan,https://dc.lft.to/lastmile_qr_scan,No,No,15,"CREDITCARD,KEY",40,2021/11/01 11:17:49+00,,"Alexandria, VA"
-77.0598232978558,38.8330847728056,28468028,38.833077,-77.059821,Mount Vernon Ave & Kennedy St,classic,343,active,2021/11/01 10:47:32+00,9,0,6,0,0,Yes,Yes,Yes,Yes,https://dc.lft.to/lastmile_qr_scan,https://dc.lft.to/lastmile_qr_scan,No,No,15,"CREDITCARD,KEY",40,2021/11/01 11:17:49+00,,"Alexandria, VA"
-77.0848033094167,38.8906197835215,28468029,38.890612,-77.084801,Court House Metro / 15th St & N Uhle St,classic,344,active,2021/11/01 09:23:45+00,6,0,15,0,0,Yes,Yes,Yes,Yes,https://dc.lft.to/lastmile_qr_scan,https://dc.lft.to/lastmile_qr_scan,No,No,21,"CREDITCARD,KEY",41,2021/11/01 11:17:49+00,,"Arlington, VA"
-77.0000372883543,38.986750805719,28468030,38.986743,-77.000035,WAU / Flower Ave & Division St,classic,345,active,2021/11/01 10:31:35+00,14,0,1,1,0,Yes,Yes,Yes,Yes,https://dc.lft.to/lastmile_qr_scan,https://dc.lft.to/lastmile_qr_scan,No,No,15,"CREDITCARD,KEY",44,2021/11/01 11:17:49+00,,"Montgomery County, MD (South)"
-77.0500322971842,38.8655607794074,28468031,38.865553,-77.05003,Long Bridge Park / Long Bridge Dr & 6th St S,classic,346,active,2021/10/31 20:33:32+00,7,0,8,1,0,Yes,Yes,Yes,Yes,https://dc.lft.to/lastmile_qr_scan,https://dc.lft.to/lastmile_qr_scan,No,No,15,"CREDITCARD,KEY",41,2021/11/01 11:17:49+00,,"Arlington, VA"
-77.0751373105038,38.9645517985332,28468032,38.964544,-77.075135,Connecticut Ave & McKinley St NW,classic,347,active,2021/10/31 14:53:29+00,17,0,2,0,0,Yes,Yes,Yes,Yes,https://dc.lft.to/lastmile_qr_scan,https://dc.lft.to/lastmile_qr_scan,No,No,19,"CREDITCARD,KEY",42,2021/11/01 11:17:49+00,,"Washington, DC"
-77.034920295151,38.903656787418,28468033,38.903649,-77.034918,15th & L St NW,classic,348,active,2021/11/01 10:38:00+00,9,0,14,0,0,Yes,Yes,Yes,Yes,https://dc.lft.to/lastmile_qr_scan,https://dc.lft.to/lastmile_qr_scan,No,No,23,"CREDITCARD,KEY",42,2021/11/01 11:17:49+00,,"Washington, DC"
-77.0397342960301,38.8982907864439,28468034,38.898283,-77.039732,17th & G St NW,classic,349,active,2021/11/01 10:46:38+00,0,0,30,2,1,Yes,Yes,Yes,Yes,https://dc.lft.to/lastmile_qr_scan,https://dc.lft.to/lastmile_qr_scan,No,No,31,"CREDITCARD,KEY",42,2021/11/01 11:17:49+00,,"Washington, DC"
-77.0345013000797,38.9976608064959,28468035,38.997653,-77.034499,Spring St & 2nd Ave,classic,350,active,2021/11/01 04:55:33+00,14,0,1,0,0,Yes,Yes,Yes,Yes,https://dc.lft.to/lastmile_qr_scan,https://dc.lft.to/lastmile_qr_scan,No,No,15,"CREDITCARD,KEY",44,2021/11/01 11:17:49+00,,"Montgomery County, MD (South)"
-77.0418362973781,38.9126557891339,28468036,38.912648,-77.041834,18th & R St NW,classic,351,active,2021/11/01 11:14:33+00,18,0,0,0,0,Yes,Yes,Yes,Yes,https://dc.lft.to/lastmile_qr_scan,https://dc.lft.to/lastmile_qr_scan,No,No,19,"CREDITCARD,KEY",42,2021/11/01 11:17:49+00,,"Washington, DC"
-77.0632773005423,38.8592617777863,28468037,38.859254,-77.063275,Joyce St & 16th St S,classic,352,active,2021/11/01 07:12:47+00,4,0,11,0,0,Yes,Yes,Yes,Yes,https://dc.lft.to/lastmile_qr_scan,https://dc.lft.to/lastmile_qr_scan,No,No,15,"CREDITCARD,KEY",41,2021/11/01 11:17:49+00,,"Arlington, VA"
-76.9970722836614,38.9079157900859,28468038,38.907908,-76.99707,Union Market,classic,353,active,2021/11/01 09:51:29+00,7,0,14,0,1,Yes,Yes,Yes,Yes,https://dc.lft.to/lastmile_qr_scan,https://dc.lft.to/lastmile_qr_scan,No,No,23,"CREDITCARD,KEY",42,2021/11/01 11:17:49+00,,"Washington, DC"
-77.1045643157055,38.896463783393,28468039,38.896456,-77.104562,Langston Blvd & N Monroe St,classic,354,active,2021/11/01 08:47:59+00,4,0,11,0,0,Yes,Yes,Yes,Yes,https://dc.lft.to/lastmile_qr_scan,https://dc.lft.to/lastmile_qr_scan,No,No,15,"CREDITCARD,KEY",41,2021/11/01 11:17:49+00,,"Arlington, VA"
-77.0783193081114,38.8989917851047,28468040,38.898984,-77.078317,21st St & N Pierce St,classic,355,active,2021/11/01 10:45:54+00,2,0,12,0,0,Yes,Yes,Yes,Yes,https://dc.lft.to/lastmile_qr_scan,https://dc.lft.to/lastmile_qr_scan,No,No,15,"CREDITCARD,KEY",41,2021/11/01 11:17:49+00,,"Arlington, VA"
-77.0971323132754,38.8953847834976,28468041,38.895377,-77.09713,Langston Blvd & N Kirkwood St,classic,356,active,2021/10/31 20:53:27+00,11,0,3,0,1,Yes,Yes,Yes,Yes,https://dc.lft.to/lastmile_qr_scan,https://dc.lft.to/lastmile_qr_scan,No,No,15,"CREDITCARD,KEY",41,2021/11/01 11:17:49+00,,"Arlington, VA"
-77.0433602985012,38.9278797924986,28468042,38.927872,-77.043358,Harvard St & Adams Mill Rd NW,classic,85,active,2021/11/01 11:08:28+00,6,0,9,0,0,Yes,Yes,Yes,Yes,https://dc.lft.to/lastmile_qr_scan,https://dc.lft.to/lastmile_qr_scan,No,No,15,"CREDITCARD,KEY",42,2021/11/01 11:17:49+00,,"Washington, DC"
-77.0424542970577,38.9037487874052,28468043,38.903741,-77.042452,18th & L St NW,classic,86,active,2021/11/01 10:22:23+00,6,0,13,0,0,Yes,Yes,Yes,Yes,https://dc.lft.to/lastmile_qr_scan,https://dc.lft.to/lastmile_qr_scan,No,No,19,"CREDITCARD,KEY",42,2021/11/01 11:17:49+00,,"Washington, DC"
-77.0626923034905,38.9037577867826,28468044,38.90375,-77.06269,C & O Canal & Wisconsin Ave NW,classic,87,active,2021/11/01 11:02:48+00,1,0,22,0,0,Yes,Yes,Yes,Yes,https://dc.lft.to/lastmile_qr_scan,https://dc.lft.to/lastmile_qr_scan,No,No,23,"CREDITCARD,KEY",42,2021/11/01 11:17:49+00,,"Washington, DC"
-77.0230562891102,38.8787017826249,28468045,38.878694,-77.023054,Maine Ave & 7th St SW,classic,88,active,2021/11/01 10:57:11+00,14,0,4,0,1,Yes,Yes,Yes,Yes,https://dc.lft.to/lastmile_qr_scan,https://dc.lft.to/lastmile_qr_scan,No,No,19,"CREDITCARD,KEY",42,2021/11/01 11:17:49+00,,"Washington, DC"
-76.9959182815362,38.8948487871191,28468046,38.894841,-76.995916,D St & Maryland Ave NE,classic,89,active,2021/11/01 10:41:05+00,17,0,5,0,1,Yes,Yes,Yes,Yes,https://dc.lft.to/lastmile_qr_scan,https://dc.lft.to/lastmile_qr_scan,No,No,23,"CREDITCARD,KEY",42,2021/11/01 11:17:49+00,,"Washington, DC"
-77.0682023063296,38.916449788688,28468047,38.916442,-77.0682,34th St & Wisconsin Ave NW,classic,90,active,2021/11/01 11:07:57+00,6,0,4,3,1,Yes,Yes,Yes,Yes,https://dc.lft.to/lastmile_qr_scan,https://dc.lft.to/lastmile_qr_scan,No,No,11,"CREDITCARD,KEY",42,2021/11/01 11:17:49+00,,"Washington, DC"
-77.0298242925535,38.9002907872086,28468048,38.900283,-77.029822,13th St & New York Ave NW,classic,91,active,2021/11/01 10:45:32+00,0,0,23,0,0,Yes,Yes,Yes,Yes,https://dc.lft.to/lastmile_qr_scan,https://dc.lft.to/lastmile_qr_scan,No,No,23,"CREDITCARD,KEY",42,2021/11/01 11:17:49+00,,"Washington, DC"
-77.0230882911528,38.8997077872838,28468049,38.8997,-77.023086,8th & H St NW,classic,92,active,2021/11/01 11:04:41+00,10,0,20,2,1,Yes,Yes,Yes,Yes,https://dc.lft.to/lastmile_qr_scan,https://dc.lft.to/lastmile_qr_scan,No,No,33,"CREDITCARD,KEY",42,2021/11/01 11:17:49+00,,"Washington, DC"
-76.9928912829599,38.9325217947146,28468050,38.932514,-76.992889,10th & Monroe St NE,classic,93,active,2021/11/01 11:15:05+00,9,0,6,2,0,Yes,Yes,Yes,Yes,https://dc.lft.to/lastmile_qr_scan,https://dc.lft.to/lastmile_qr_scan,No,No,15,"CREDITCARD,KEY",42,2021/11/01 11:17:49+00,,"Washington, DC"
-77.0049522859023,38.9109797903935,28468051,38.910972,-77.00495,Eckington Pl & Q St NE,classic,94,active,2021/11/01 11:14:37+00,21,0,1,0,1,Yes,Yes,Yes,Yes,https://dc.lft.to/lastmile_qr_scan,https://dc.lft.to/lastmile_qr_scan,No,No,23,"CREDITCARD,KEY",42,2021/11/01 11:17:49+00,,"Washington, DC"
-76.9983492826138,38.8999797886103,28468052,38.899972,-76.998347,6th & H St NE,classic,95,active,2021/11/01 11:16:15+00,10,0,12,0,1,Yes,Yes,Yes,Yes,https://dc.lft.to/lastmile_qr_scan,https://dc.lft.to/lastmile_qr_scan,No,No,23,"CREDITCARD,KEY",42,2021/11/01 11:17:49+00,,"Washington, DC"
-77.0019512839867,38.9004197882474,28468053,38.900412,-77.001949,3rd & H St NE,classic,96,active,2021/11/01 11:06:24+00,14,0,4,0,1,Yes,Yes,Yes,Yes,https://dc.lft.to/lastmile_qr_scan,https://dc.lft.to/lastmile_qr_scan,No,No,19,"CREDITCARD,KEY",42,2021/11/01 11:17:49+00,,"Washington, DC"
-76.9828742782782,38.9004207891,28468054,38.900413,-76.982872,Bladensburg Rd & Benning Rd NE,classic,97,active,2021/11/01 10:19:59+00,8,0,7,0,0,Yes,Yes,Yes,Yes,https://dc.lft.to/lastmile_qr_scan,https://dc.lft.to/lastmile_qr_scan,No,No,15,"CREDITCARD,KEY",42,2021/11/01 11:17:49+00,,"Washington, DC"
-77.0003512833591,38.8899627859636,28468055,38.889955,-77.000349,4th & East Capitol St NE,classic,98,active,2021/11/01 11:09:36+00,2,0,9,1,0,Yes,Yes,Yes,Yes,https://dc.lft.to/lastmile_qr_scan,https://dc.lft.to/lastmile_qr_scan,No,No,11,"CREDITCARD,KEY",42,2021/11/01 11:17:49+00,,"Washington, DC"
-76.9883572790824,38.8904687870827,28468056,38.890461,-76.988355,Lincoln Park / 13th & East Capitol St NE ,classic,99,active,2021/11/01 10:40:33+00,21,0,3,0,1,Yes,Yes,Yes,Yes,https://dc.lft.to/lastmile_qr_scan,https://dc.lft.to/lastmile_qr_scan,No,No,25,"CREDITCARD,KEY",42,2021/11/01 11:17:49+00,,"Washington, DC"
-76.959902269551,38.869207783748,28468057,38.8692,-76.9599,Branch & Pennsylvania Ave SE,classic,100,active,2021/11/01 11:16:54+00,2,0,7,0,2,Yes,Yes,Yes,Yes,https://dc.lft.to/lastmile_qr_scan,https://dc.lft.to/lastmile_qr_scan,No,No,11,"CREDITCARD,KEY",42,2021/11/01 11:17:49+00,,"Washington, DC"
-76.9876352792593,38.8948397876649,28468058,38.894832,-76.987633,13th & D St NE,classic,101,active,2021/11/01 09:50:50+00,16,0,15,0,0,Yes,Yes,Yes,Yes,https://dc.lft.to/lastmile_qr_scan,https://dc.lft.to/lastmile_qr_scan,No,No,31,"CREDITCARD,KEY",42,2021/11/01 11:17:49+00,,"Washington, DC"
-77.0382542965482,38.9155517895081,28468059,38.915544,-77.038252,New Hampshire Ave & T St NW,classic,102,active,2021/11/01 11:00:35+00,22,0,1,1,0,Yes,Yes,Yes,Yes,https://dc.lft.to/lastmile_qr_scan,https://dc.lft.to/lastmile_qr_scan,No,No,23,"CREDITCARD,KEY",42,2021/11/01 11:17:49+00,,"Washington, DC"
-77.0278712924521,38.8983717866907,28468060,38.898364,-77.027869,Metro Center / 12th & G St NW,classic,103,active,2021/11/01 10:58:41+00,29,0,10,0,0,Yes,Yes,Yes,Yes,https://dc.lft.to/lastmile_qr_scan,https://dc.lft.to/lastmile_qr_scan,No,No,39,"CREDITCARD,KEY",42,2021/11/01 11:17:49+00,,"Washington, DC"
-77.0316192926509,38.8945217860863,28468061,38.894514,-77.031617,14th & D St NW / Ronald Reagan Building,classic,104,active,2021/11/01 11:06:48+00,6,0,17,1,0,Yes,Yes,Yes,Yes,https://dc.lft.to/lastmile_qr_scan,https://dc.lft.to/lastmile_qr_scan,No,No,25,"CREDITCARD,KEY",42,2021/11/01 11:17:49+00,,"Washington, DC"
-77.0221932902817,38.8972907872541,28468062,38.897283,-77.022191,7th & F St NW / National Portrait Gallery,classic,105,active,2021/11/01 11:02:00+00,16,0,9,1,1,Yes,Yes,Yes,Yes,https://dc.lft.to/lastmile_qr_scan,https://dc.lft.to/lastmile_qr_scan,No,No,27,"CREDITCARD,KEY",42,2021/11/01 11:17:49+00,,"Washington, DC"
-77.038324295096,38.9020687875247,28468063,38.902061,-77.038322,17th & K St NW / Farragut Square,classic,106,active,2021/11/01 11:03:31+00,27,0,8,0,0,Yes,Yes,Yes,Yes,https://dc.lft.to/lastmile_qr_scan,https://dc.lft.to/lastmile_qr_scan,No,No,35,"CREDITCARD,KEY",42,2021/11/01 11:17:49+00,,"Washington, DC"
-77.0447822980092,38.9089127887526,28468064,38.908905,-77.04478,20th & O St NW / Dupont South,classic,107,active,2021/11/01 11:03:05+00,1,0,18,0,0,Yes,Yes,Yes,Yes,https://dc.lft.to/lastmile_qr_scan,https://dc.lft.to/lastmile_qr_scan,No,No,19,"CREDITCARD,KEY",42,2021/11/01 11:17:49+00,,"Washington, DC"
-77.0161082886591,38.8953517863699,28468065,38.895344,-77.016106,4th & D St NW / Judiciary Square,classic,108,active,2021/11/01 11:09:35+00,1,0,14,0,0,Yes,Yes,Yes,Yes,https://dc.lft.to/lastmile_qr_scan,https://dc.lft.to/lastmile_qr_scan,No,No,15,"CREDITCARD,KEY",42,2021/11/01 11:17:49+00,,"Washington, DC"
-77.0436022966707,38.8923077849277,28468066,38.8923,-77.0436,19th St & Constitution Ave NW,classic,109,active,2021/11/01 09:04:53+00,35,0,0,0,0,Yes,Yes,Yes,Yes,https://dc.lft.to/lastmile_qr_scan,https://dc.lft.to/lastmile_qr_scan,No,No,35,"CREDITCARD,KEY",42,2021/11/01 11:17:49+00,,"Washington, DC"
-77.0716543066448,38.9077477873169,28468067,38.90774,-77.071652,37th & O St NW / Georgetown University,classic,110,active,2021/11/01 11:12:40+00,2,0,21,0,0,Yes,Yes,Yes,Yes,https://dc.lft.to/lastmile_qr_scan,https://dc.lft.to/lastmile_qr_scan,No,No,23,"CREDITCARD,KEY",42,2021/11/01 11:17:49+00,,"Washington, DC"
-76.9913852803842,38.8999907882588,28468068,38.899983,-76.991383,11th & H St NE,classic,111,active,2021/11/01 10:47:15+00,16,0,2,0,0,Yes,Yes,Yes,Yes,https://dc.lft.to/lastmile_qr_scan,https://dc.lft.to/lastmile_qr_scan,No,No,19,"CREDITCARD,KEY",42,2021/11/01 11:17:49+00,,"Washington, DC"
-77.0534873000009,38.9038347873966,28468069,38.903827,-77.053485,25th St & Pennsylvania Ave NW,classic,112,active,2021/11/01 11:11:31+00,5,0,9,0,1,Yes,Yes,Yes,Yes,https://dc.lft.to/lastmile_qr_scan,https://dc.lft.to/lastmile_qr_scan,No,No,15,"CREDITCARD,KEY",42,2021/11/01 11:17:49+00,,"Washington, DC"
-77.004932285147,38.8969677877807,28468070,38.89696,-77.00493,Columbus Circle / Union Station,classic,113,active,2021/11/01 11:09:51+00,26,0,25,0,2,Yes,Yes,Yes,Yes,https://dc.lft.to/lastmile_qr_scan,https://dc.lft.to/lastmile_qr_scan,No,No,55,"CREDITCARD,KEY",42,2021/11/01 11:17:49+00,,"Washington, DC"
-77.0098902859791,38.8974537870179,28468071,38.897446,-77.009888,North Capitol St & F St NW,classic,114,active,2021/11/01 10:56:22+00,15,0,8,0,0,Yes,Yes,Yes,Yes,https://dc.lft.to/lastmile_qr_scan,https://dc.lft.to/lastmile_qr_scan,No,No,23,"CREDITCARD,KEY",42,2021/11/01 11:17:49+00,,"Washington, DC"
-77.0273152918472,38.9055867881141,28468072,38.905579,-77.027313,11th & M St NW,classic,115,active,2021/11/01 11:15:03+00,15,0,4,0,0,Yes,Yes,Yes,Yes,https://dc.lft.to/lastmile_qr_scan,https://dc.lft.to/lastmile_qr_scan,No,No,19,"CREDITCARD,KEY",42,2021/11/01 11:17:49+00,,"Washington, DC"
-77.0703363069672,38.9225887902635,28468073,38.922581,-77.070334,36th & Calvert St NW / Glover Park,classic,116,active,2021/11/01 09:14:34+00,15,0,0,0,0,Yes,Yes,Yes,Yes,https://dc.lft.to/lastmile_qr_scan,https://dc.lft.to/lastmile_qr_scan,No,No,15,"CREDITCARD,KEY",42,2021/11/01 11:17:49+00,,"Washington, DC"
-77.0322802940153,38.8984167869411,28468074,38.898409,-77.032278,14th & G St NW,classic,117,active,2021/11/01 11:03:05+00,13,0,9,1,0,Yes,Yes,Yes,Yes,https://dc.lft.to/lastmile_qr_scan,https://dc.lft.to/lastmile_qr_scan,No,No,23,"CREDITCARD,KEY",42,2021/11/01 11:17:49+00,,"Washington, DC"
-77.0505392954723,38.8440227754191,28468075,38.844015,-77.050537,Potomac Ave & 35th St S,classic,118,active,2021/11/01 10:19:09+00,12,0,3,0,0,Yes,Yes,Yes,Yes,https://dc.lft.to/lastmile_qr_scan,https://dc.lft.to/lastmile_qr_scan,No,No,15,"CREDITCARD,KEY",41,2021/11/01 11:17:49+00,,"Arlington, VA"
-77.0465722972573,38.8841277832105,28468076,38.88412,-77.04657,Ohio Dr & West Basin Dr SW / MLK & FDR Memorials,classic,124,active,2021/11/01 09:42:18+00,8,0,23,0,0,Yes,Yes,Yes,Yes,https://dc.lft.to/lastmile_qr_scan,https://dc.lft.to/lastmile_qr_scan,No,No,31,"CREDITCARD,KEY",42,2021/11/01 11:17:49+00,,"Washington, DC"
-77.026977291676,38.8978647869639,28468077,38.897857,-77.026975,11th & F St NW,classic,125,active,2021/11/01 10:22:25+00,7,0,7,0,0,Yes,Yes,Yes,Yes,https://dc.lft.to/lastmile_qr_scan,https://dc.lft.to/lastmile_qr_scan,No,No,15,"CREDITCARD,KEY",42,2021/11/01 11:17:49+00,,"Washington, DC"
-77.0498842992363,38.8961117851653,28468078,38.896104,-77.049882,23rd & E St NW ,classic,126,active,2021/11/01 09:37:41+00,6,0,13,1,0,Yes,Yes,Yes,Yes,https://dc.lft.to/lastmile_qr_scan,https://dc.lft.to/lastmile_qr_scan,No,No,19,"CREDITCARD,KEY",42,2021/11/01 11:17:49+00,,"Washington, DC"
-77.0709953059498,38.8973227852373,28468079,38.897315,-77.070993,Lynn St & 19th St North,classic,127,active,2021/11/01 10:41:23+00,12,0,15,0,0,Yes,Yes,Yes,Yes,https://dc.lft.to/lastmile_qr_scan,https://dc.lft.to/lastmile_qr_scan,No,No,27,"CREDITCARD,KEY",41,2021/11/01 11:17:49+00,,"Arlington, VA"
-77.0723073060526,38.8946077848598,28468080,38.8946,-77.072305,Wilson Blvd & Ft Myer Dr,classic,128,active,2021/11/01 10:09:01+00,8,0,11,0,0,Yes,Yes,Yes,Yes,https://dc.lft.to/lastmile_qr_scan,https://dc.lft.to/lastmile_qr_scan,No,No,19,"CREDITCARD,KEY",41,2021/11/01 11:17:49+00,,"Arlington, VA"
-77.0763913074657,38.8934457844079,28468081,38.893438,-77.076389,Clarendon Blvd & Pierce St,classic,129,active,2021/11/01 08:53:35+00,6,0,9,0,0,Yes,Yes,Yes,Yes,https://dc.lft.to/lastmile_qr_scan,https://dc.lft.to/lastmile_qr_scan,No,No,15,"CREDITCARD,KEY",41,2021/11/01 11:17:49+00,,"Arlington, VA"
-77.0846023096491,38.8917037831255,28468082,38.891696,-77.0846,Wilson Blvd & N Uhle St,classic,130,active,2021/11/01 07:23:36+00,3,0,12,0,0,Yes,Yes,Yes,Yes,https://dc.lft.to/lastmile_qr_scan,https://dc.lft.to/lastmile_qr_scan,No,No,15,"CREDITCARD,KEY",41,2021/11/01 11:17:49+00,,"Arlington, VA"
-77.0793773073936,38.8921717838514,28468083,38.892164,-77.079375,Rhodes St & 16th St N,classic,131,active,2021/11/01 09:09:13+00,1,0,11,0,0,Yes,Yes,Yes,Yes,https://dc.lft.to/lastmile_qr_scan,https://dc.lft.to/lastmile_qr_scan,No,No,12,"CREDITCARD,KEY",41,2021/11/01 11:17:49+00,,"Arlington, VA"
-76.9521052670608,38.865597783207,28468084,38.86559,-76.952103,Fairfax Village,classic,132,active,2021/11/01 09:00:02+00,8,0,5,2,2,Yes,Yes,Yes,Yes,https://dc.lft.to/lastmile_qr_scan,https://dc.lft.to/lastmile_qr_scan,No,No,15,"CREDITCARD,KEY",42,2021/11/01 11:17:49+00,,"Washington, DC"
-77.0465692976898,38.8924667851587,28468085,38.892459,-77.046567,21st St & Constitution Ave NW,classic,133,active,2021/11/01 10:44:47+00,0,0,14,1,1,Yes,Yes,Yes,Yes,https://dc.lft.to/lastmile_qr_scan,https://dc.lft.to/lastmile_qr_scan,No,No,15,"CREDITCARD,KEY",42,2021/11/01 11:17:49+00,,"Washington, DC"
-77.091864311734,38.8894037830399,28468086,38.889396,-77.091862,Wilson Blvd & N Edgewood St,classic,134,active,2021/11/01 07:44:16+00,15,0,0,0,0,Yes,Yes,Yes,Yes,https://dc.lft.to/lastmile_qr_scan,https://dc.lft.to/lastmile_qr_scan,No,No,15,"CREDITCARD,KEY",41,2021/11/01 11:17:49+00,,"Arlington, VA"
-77.0436822981598,38.9206767909007,28468087,38.920669,-77.04368,Columbia Rd & Belmont St NW,classic,135,active,2021/11/01 04:29:56+00,18,0,0,0,0,Yes,Yes,Yes,Yes,https://dc.lft.to/lastmile_qr_scan,https://dc.lft.to/lastmile_qr_scan,No,No,19,"CREDITCARD,KEY",42,2021/11/01 11:17:49+00,,"Washington, DC"
-77.0398042964231,38.906003787815,28468088,38.905996,-77.039802,Rhode Island & Connecticut Ave NW,classic,136,active,2021/11/01 11:06:45+00,3,0,20,0,0,Yes,Yes,Yes,Yes,https://dc.lft.to/lastmile_qr_scan,https://dc.lft.to/lastmile_qr_scan,No,No,23,"CREDITCARD,KEY",42,2021/11/01 11:17:49+00,,"Washington, DC"
-77.0325022943272,38.9059077879984,28468089,38.9059,-77.0325,Thomas Circle,classic,137,active,2021/11/01 11:16:34+00,8,0,25,0,0,Yes,Yes,Yes,Yes,https://dc.lft.to/lastmile_qr_scan,https://dc.lft.to/lastmile_qr_scan,No,No,33,"CREDITCARD,KEY",42,2021/11/01 11:17:49+00,,"Washington, DC"
-77.088902310076,38.8904077826658,28468090,38.8904,-77.0889,Wilson Blvd & N Franklin Rd,classic,138,active,2021/11/01 08:55:55+00,8,0,4,0,0,Yes,Yes,Yes,Yes,https://dc.lft.to/lastmile_qr_scan,https://dc.lft.to/lastmile_qr_scan,No,No,12,"CREDITCARD,KEY",41,2021/11/01 11:17:49+00,,"Arlington, VA"
-77.0930823112497,38.8881077826278,28468091,38.8881,-77.09308,Clarendon Blvd & N Fillmore St,classic,139,active,2021/11/01 11:08:15+00,5,0,8,1,2,Yes,Yes,Yes,Yes,https://dc.lft.to/lastmile_qr_scan,https://dc.lft.to/lastmile_qr_scan,No,No,15,"CREDITCARD,KEY",41,2021/11/01 11:17:49+00,,"Arlington, VA"
-77.0952593123919,38.8870177820847,28468092,38.88701,-77.095257,Clarendon Metro / Wilson Blvd & N Highland St,classic,140,active,2021/11/01 10:42:34+00,9,0,10,3,0,Yes,Yes,Yes,Yes,https://dc.lft.to/lastmile_qr_scan,https://dc.lft.to/lastmile_qr_scan,No,No,21,"CREDITCARD,KEY",41,2021/11/01 11:17:49+00,,"Arlington, VA"
-77.0415412960365,38.8996877864017,28468093,38.89968,-77.041539,18th St & Pennsylvania Ave NW,classic,141,active,2021/11/01 10:36:35+00,14,0,13,0,0,Yes,Yes,Yes,Yes,https://dc.lft.to/lastmile_qr_scan,https://dc.lft.to/lastmile_qr_scan,No,No,27,"CREDITCARD,KEY",42,2021/11/01 11:17:49+00,,"Washington, DC"
-77.0177032884794,38.8863797850666,28468094,38.886372,-77.017701,4th & C St SW,classic,142,active,2021/11/01 11:07:05+00,2,0,37,1,0,Yes,Yes,Yes,Yes,https://dc.lft.to/lastmile_qr_scan,https://dc.lft.to/lastmile_qr_scan,No,No,39,"CREDITCARD,KEY",42,2021/11/01 11:17:49+00,,"Washington, DC"
-77.0174472882507,38.8841277843572,28468095,38.88412,-77.017445,4th & E St SW,classic,143,active,2021/11/01 11:12:55+00,11,0,8,0,0,Yes,Yes,Yes,Yes,https://dc.lft.to/lastmile_qr_scan,https://dc.lft.to/lastmile_qr_scan,No,No,19,"CREDITCARD,KEY",42,2021/11/01 11:17:49+00,,"Washington, DC"
-77.0018302828677,38.8811927840088,28468096,38.881185,-77.001828,3rd & G St SE,classic,144,active,2021/11/01 10:06:51+00,18,0,1,0,0,Yes,Yes,Yes,Yes,https://dc.lft.to/lastmile_qr_scan,https://dc.lft.to/lastmile_qr_scan,No,No,19,"CREDITCARD,KEY",42,2021/11/01 11:17:49+00,,"Washington, DC"
-77.0221572907069,38.912726789722,28468097,38.912719,-77.022155,7th & R St NW / Shaw Library,classic,145,active,2021/11/01 11:11:12+00,4,0,11,1,0,Yes,Yes,Yes,Yes,https://dc.lft.to/lastmile_qr_scan,https://dc.lft.to/lastmile_qr_scan,No,No,15,"CREDITCARD,KEY",42,2021/11/01 11:17:49+00,,"Washington, DC"
-77.0251022944229,38.9418077958499,28468098,38.9418,-77.0251,9th & Upshur St NW,classic,146,active,2021/11/01 10:45:00+00,12,0,3,1,0,Yes,Yes,Yes,Yes,https://dc.lft.to/lastmile_qr_scan,https://dc.lft.to/lastmile_qr_scan,No,No,15,"CREDITCARD,KEY",42,2021/11/01 11:17:49+00,,"Washington, DC"
-77.0122912887127,38.9154247909643,28468099,38.915417,-77.012289,1st & Rhode Island Ave NW,classic,147,active,2021/11/01 10:17:28+00,15,0,0,0,0,Yes,Yes,Yes,Yes,https://dc.lft.to/lastmile_qr_scan,https://dc.lft.to/lastmile_qr_scan,No,No,15,"CREDITCARD,KEY",42,2021/11/01 11:17:49+00,,"Washington, DC"
-77.0237972932022,38.9281287930608,28468100,38.928121,-77.023795,Columbia Rd & Georgia Ave NW,classic,148,active,2021/11/01 10:44:07+00,22,0,1,1,0,Yes,Yes,Yes,Yes,https://dc.lft.to/lastmile_qr_scan,https://dc.lft.to/lastmile_qr_scan,No,No,23,"CREDITCARD,KEY",42,2021/11/01 11:17:49+00,,"Washington, DC"
-77.0406222975905,38.9177687906994,28468101,38.917761,-77.04062,California St & Florida Ave NW,classic,149,active,2021/11/01 10:43:49+00,17,0,1,0,0,Yes,Yes,Yes,Yes,https://dc.lft.to/lastmile_qr_scan,https://dc.lft.to/lastmile_qr_scan,No,No,19,"CREDITCARD,KEY",42,2021/11/01 11:17:49+00,,"Washington, DC"
-76.937232263507,38.8899427882048,28468102,38.889935,-76.93723,Benning Rd & East Capitol St NE / Benning Rd Metro,classic,150,active,2021/11/01 04:55:23+00,15,0,4,2,0,Yes,Yes,Yes,Yes,https://dc.lft.to/lastmile_qr_scan,https://dc.lft.to/lastmile_qr_scan,No,No,19,"CREDITCARD,KEY",42,2021/11/01 11:17:49+00,,"Washington, DC"
-77.0556013027986,38.9302897926535,28468103,38.930282,-77.055599,3000 Connecticut Ave NW / National Zoo,classic,151,active,2021/11/01 11:15:51+00,14,0,0,0,1,Yes,Yes,Yes,Yes,https://dc.lft.to/lastmile_qr_scan,https://dc.lft.to/lastmile_qr_scan,No,No,15,"CREDITCARD,KEY",42,2021/11/01 11:17:49+00,,"Washington, DC"
-76.960122271048,38.8965517893653,28468104,38.896544,-76.96012,Anacostia Ave & Benning Rd NE / River Terrace ,classic,152,active,2021/11/01 08:09:57+00,5,0,9,2,0,Yes,Yes,Yes,Yes,https://dc.lft.to/lastmile_qr_scan,https://dc.lft.to/lastmile_qr_scan,No,No,15,"CREDITCARD,KEY",42,2021/11/01 11:17:49+00,,"Washington, DC"
-77.0568893013328,38.905133786743,28468105,38.905126,-77.056887,M St & Pennsylvania Ave NW,classic,153,active,2021/11/01 11:14:11+00,1,0,17,0,1,Yes,Yes,Yes,Yes,https://dc.lft.to/lastmile_qr_scan,https://dc.lft.to/lastmile_qr_scan,No,No,19,"CREDITCARD,KEY",42,2021/11/01 11:17:49+00,,"Washington, DC"
-76.9835712774584,38.8873277860471,28468106,38.88732,-76.983569,15th St & Massachusetts Ave SE,classic,154,active,2021/11/01 11:04:28+00,11,0,4,0,0,Yes,Yes,Yes,Yes,https://dc.lft.to/lastmile_qr_scan,https://dc.lft.to/lastmile_qr_scan,No,No,15,"CREDITCARD,KEY",42,2021/11/01 11:17:49+00,,"Washington, DC"
-76.9878252766035,38.844718777214,28468107,38.844711,-76.987823,Congress Heights Metro,classic,155,active,2021/10/31 04:59:09+00,15,0,0,0,0,Yes,Yes,Yes,Yes,https://dc.lft.to/lastmile_qr_scan,https://dc.lft.to/lastmile_qr_scan,No,No,15,"CREDITCARD,KEY",42,2021/11/01 11:17:49+00,,"Washington, DC"
-77.1077373159159,38.8764007789978,28468108,38.876393,-77.107735,N Quincy St & Glebe Rd,classic,156,active,2021/11/01 07:41:28+00,11,0,0,0,0,Yes,Yes,Yes,Yes,https://dc.lft.to/lastmile_qr_scan,https://dc.lft.to/lastmile_qr_scan,No,No,11,"CREDITCARD,KEY",41,2021/11/01 11:17:49+00,,"Arlington, VA"
-77.1009913124915,38.8503447742688,28468109,38.850337,-77.100989,Barcroft Community Center,classic,157,active,2021/11/01 04:45:00+00,5,0,6,0,0,Yes,Yes,Yes,Yes,https://dc.lft.to/lastmile_qr_scan,https://dc.lft.to/lastmile_qr_scan,No,No,11,"CREDITCARD,KEY",41,2021/11/01 11:17:49+00,,"Arlington, VA"
-77.0865043099915,38.8969307842355,28468110,38.896923,-77.086502,N Veitch St & 20th St N,classic,158,active,2021/11/01 11:08:12+00,14,0,1,0,0,Yes,Yes,Yes,Yes,https://dc.lft.to/lastmile_qr_scan,https://dc.lft.to/lastmile_qr_scan,No,No,15,"CREDITCARD,KEY",41,2021/11/01 11:17:49+00,,"Arlington, VA"
-77.0262222920751,38.9024077876791,28468111,38.9024,-77.02622,10th & K St NW,classic,159,active,2021/11/01 11:05:56+00,10,0,13,1,0,Yes,Yes,Yes,Yes,https://dc.lft.to/lastmile_qr_scan,https://dc.lft.to/lastmile_qr_scan,No,No,23,"CREDITCARD,KEY",42,2021/11/01 11:17:49+00,,"Washington, DC"
-77.0977473129121,38.8858087818207,28468112,38.885801,-77.097745,Fairfax Dr & Wilson Blvd,classic,160,active,2021/11/01 08:49:03+00,9,0,2,0,0,Yes,Yes,Yes,Yes,https://dc.lft.to/lastmile_qr_scan,https://dc.lft.to/lastmile_qr_scan,No,No,11,"CREDITCARD,KEY",41,2021/11/01 11:17:49+00,,"Arlington, VA"
-77.0785723072766,38.8940007840597,28468113,38.893993,-77.07857,Wilson Blvd & N Quinn St,classic,161,active,2021/11/01 07:05:28+00,4,0,7,1,0,Yes,Yes,Yes,Yes,https://dc.lft.to/lastmile_qr_scan,https://dc.lft.to/lastmile_qr_scan,No,No,11,"CREDITCARD,KEY",41,2021/11/01 11:17:49+00,,"Arlington, VA"
-77.0057292843119,38.8788617840736,28468114,38.878854,-77.005727,1st & K St SE,classic,162,active,2021/11/01 11:12:52+00,12,0,3,0,0,Yes,Yes,Yes,Yes,https://dc.lft.to/lastmile_qr_scan,https://dc.lft.to/lastmile_qr_scan,No,No,15,"CREDITCARD,KEY",42,2021/11/01 11:17:49+00,,"Washington, DC"
-77.0772733088853,38.9226567900179,28468115,38.922649,-77.077271,39th & Calvert St NW / Stoddert,classic,163,active,2021/11/01 07:34:42+00,19,0,0,0,0,Yes,Yes,Yes,Yes,https://dc.lft.to/lastmile_qr_scan,https://dc.lft.to/lastmile_qr_scan,No,No,19,"CREDITCARD,KEY",42,2021/11/01 11:17:49+00,,"Washington, DC"
-77.0124592889084,38.9287507932412,28468116,38.928743,-77.012457,1st & Washington Hospital Center NW,classic,164,active,2021/11/01 11:16:05+00,15,0,0,0,0,Yes,Yes,Yes,Yes,https://dc.lft.to/lastmile_qr_scan,https://dc.lft.to/lastmile_qr_scan,No,No,15,"CREDITCARD,KEY",42,2021/11/01 11:17:49+00,,"Washington, DC"
-77.1031503141368,38.8827957811318,28468117,38.882788,-77.103148,Virginia Square Metro / Monroe St & 9th St N,classic,165,active,2021/11/01 09:12:27+00,14,0,5,0,0,Yes,Yes,Yes,Yes,https://dc.lft.to/lastmile_qr_scan,https://dc.lft.to/lastmile_qr_scan,No,No,19,"CREDITCARD,KEY",41,2021/11/01 11:17:49+00,,"Arlington, VA"
-77.1078323166916,38.8839777809873,28468118,38.88397,-77.10783,Central Library / Quincy St & 10th St N,classic,166,active,2021/11/01 09:03:40+00,6,0,4,1,1,Yes,Yes,Yes,Yes,https://dc.lft.to/lastmile_qr_scan,https://dc.lft.to/lastmile_qr_scan,No,No,11,"CREDITCARD,KEY",41,2021/11/01 11:17:49+00,,"Arlington, VA"
-77.0934873117469,38.8847417817777,28468119,38.884734,-77.093485,Washington Blvd & 10th St N,classic,167,active,2021/11/01 08:59:25+00,8,0,6,0,1,Yes,Yes,Yes,Yes,https://dc.lft.to/lastmile_qr_scan,https://dc.lft.to/lastmile_qr_scan,No,No,15,"CREDITCARD,KEY",41,2021/11/01 11:17:49+00,,"Arlington, VA"
-77.0324292927537,38.8885607848269,28468120,38.888553,-77.032427,Jefferson Dr & 14th St SW,classic,168,active,2021/11/01 10:46:41+00,14,0,5,0,4,Yes,Yes,Yes,Yes,https://dc.lft.to/lastmile_qr_scan,https://dc.lft.to/lastmile_qr_scan,No,No,23,"CREDITCARD,KEY",42,2021/11/01 11:17:49+00,,"Washington, DC"
-77.0286962916303,38.8887817850049,28468121,38.888774,-77.028694,Smithsonian-National Mall / Jefferson Dr & 12th St SW,classic,169,active,2021/11/01 11:07:53+00,30,0,2,0,3,Yes,Yes,Yes,Yes,https://dc.lft.to/lastmile_qr_scan,https://dc.lft.to/lastmile_qr_scan,No,No,35,"CREDITCARD,KEY",42,2021/11/01 11:17:49+00,,"Washington, DC"
-77.1207023195509,38.8788777798307,28468122,38.87887,-77.1207,George Mason Dr & Wilson Blvd,classic,170,active,2021/11/01 04:34:58+00,3,0,12,1,0,Yes,Yes,Yes,Yes,https://dc.lft.to/lastmile_qr_scan,https://dc.lft.to/lastmile_qr_scan,No,No,15,"CREDITCARD,KEY",41,2021/11/01 11:17:49+00,,"Arlington, VA"
-77.0199422889685,38.8945807864038,28468123,38.894573,-77.01994,6th St & Indiana Ave NW,classic,171,active,2021/11/01 11:12:13+00,12,0,7,0,0,Yes,Yes,Yes,Yes,https://dc.lft.to/lastmile_qr_scan,https://dc.lft.to/lastmile_qr_scan,No,No,19,"CREDITCARD,KEY",42,2021/11/01 11:17:49+00,,"Washington, DC"
-77.0860653099626,38.8932447835071,28468124,38.893237,-77.086063,N Veitch St & Key Blvd,classic,172,active,2021/11/01 08:51:39+00,10,0,0,0,1,Yes,Yes,Yes,Yes,https://dc.lft.to/lastmile_qr_scan,https://dc.lft.to/lastmile_qr_scan,No,No,11,"CREDITCARD,KEY",41,2021/11/01 11:17:49+00,,"Arlington, VA"
-77.0890083109319,38.8959377842234,28468125,38.89593,-77.089006,Langston Blvd & N Adams St,classic,173,active,2021/11/01 07:48:57+00,12,0,7,0,0,Yes,Yes,Yes,Yes,https://dc.lft.to/lastmile_qr_scan,https://dc.lft.to/lastmile_qr_scan,No,No,19,"CREDITCARD,KEY",41,2021/11/01 11:17:49+00,,"Arlington, VA"
-77.0809523077598,38.8905477833408,28468126,38.89054,-77.08095,15th St & N Scott St,classic,174,active,2021/11/01 08:45:10+00,3,0,8,0,0,Yes,Yes,Yes,Yes,https://dc.lft.to/lastmile_qr_scan,https://dc.lft.to/lastmile_qr_scan,No,No,11,"CREDITCARD,KEY",41,2021/11/01 11:17:49+00,,"Arlington, VA"
-77.0907943103868,38.8808177805614,28468127,38.88081,-77.090792,Washington Blvd & 7th St N,classic,175,active,2021/11/01 09:39:30+00,11,0,0,0,0,Yes,Yes,Yes,Yes,https://dc.lft.to/lastmile_qr_scan,https://dc.lft.to/lastmile_qr_scan,No,No,11,"CREDITCARD,KEY",41,2021/11/01 11:17:49+00,,"Arlington, VA"
-77.1117703173973,38.8810517798341,28468128,38.881044,-77.111768,Ballston Metro / Stuart St & 9th St N,classic,176,active,2021/11/01 10:06:12+00,9,0,14,0,0,Yes,Yes,Yes,Yes,https://dc.lft.to/lastmile_qr_scan,https://dc.lft.to/lastmile_qr_scan,No,No,23,"CREDITCARD,KEY",41,2021/11/01 11:17:49+00,,"Arlington, VA"
-77.1093683163688,38.8826367803511,28468129,38.882629,-77.109366,Fairfax Dr & N Randolph St,classic,177,active,2021/11/01 04:45:02+00,9,0,2,0,0,Yes,Yes,Yes,Yes,https://dc.lft.to/lastmile_qr_scan,https://dc.lft.to/lastmile_qr_scan,No,No,11,"CREDITCARD,KEY",41,2021/11/01 11:17:49+00,,"Arlington, VA"
-77.0374152934161,38.8798267824459,28468130,38.879819,-77.037413,Jefferson Memorial,classic,178,active,2021/11/01 10:12:16+00,14,0,7,0,2,Yes,Yes,Yes,Yes,https://dc.lft.to/lastmile_qr_scan,https://dc.lft.to/lastmile_qr_scan,No,No,23,"CREDITCARD,KEY",42,2021/11/01 11:17:49+00,,"Washington, DC"
-76.9852402767037,38.866618782038,28468131,38.866611,-76.985238,Good Hope Rd & 14th St SE,classic,179,active,2021/11/01 04:55:26+00,7,0,7,0,1,Yes,Yes,Yes,Yes,https://dc.lft.to/lastmile_qr_scan,https://dc.lft.to/lastmile_qr_scan,No,No,15,"CREDITCARD,KEY",42,2021/11/01 11:17:49+00,,"Washington, DC"
-77.1168193187618,38.8839287802823,28468132,38.883921,-77.116817,Glebe Rd & 11th St N,classic,180,active,2021/11/01 09:49:13+00,4,0,7,0,0,Yes,Yes,Yes,Yes,https://dc.lft.to/lastmile_qr_scan,https://dc.lft.to/lastmile_qr_scan,No,No,11,"CREDITCARD,KEY",41,2021/11/01 11:17:49+00,,"Arlington, VA"
-77.1078563162663,38.8800197798752,28468133,38.880012,-77.107854,Wilson Blvd & N Quincy St,classic,181,active,2021/11/01 10:08:49+00,8,0,7,1,0,Yes,Yes,Yes,Yes,https://dc.lft.to/lastmile_qr_scan,https://dc.lft.to/lastmile_qr_scan,No,No,15,"CREDITCARD,KEY",41,2021/11/01 11:17:49+00,,"Arlington, VA"
-77.101082314416,38.8846237812405,28468134,38.884616,-77.10108,GMU / Fairfax Dr & Kenmore St,classic,182,active,2021/11/01 09:23:25+00,10,0,1,0,0,Yes,Yes,Yes,Yes,https://dc.lft.to/lastmile_qr_scan,https://dc.lft.to/lastmile_qr_scan,No,No,11,"CREDITCARD,KEY",41,2021/11/01 11:17:49+00,,"Arlington, VA"
-76.9941022818194,38.9050977895929,28468135,38.90509,-76.9941,Gallaudet / 8th St & Florida Ave NE,classic,183,active,2021/11/01 10:50:19+00,14,0,5,1,0,Yes,Yes,Yes,Yes,https://dc.lft.to/lastmile_qr_scan,https://dc.lft.to/lastmile_qr_scan,No,No,19,"CREDITCARD,KEY",42,2021/11/01 11:17:49+00,,"Washington, DC"
-77.0447912976801,38.9035917873476,28468136,38.903584,-77.044789,20th & L St NW,classic,185,active,2021/11/01 10:56:08+00,2,0,16,0,1,Yes,Yes,Yes,Yes,https://dc.lft.to/lastmile_qr_scan,https://dc.lft.to/lastmile_qr_scan,No,No,19,"CREDITCARD,KEY",42,2021/11/01 11:17:49+00,,"Washington, DC"
-77.028402292269,38.903826787659,28468137,38.903819,-77.0284,12th & L St NW,classic,186,active,2021/11/01 11:07:21+00,18,0,1,0,0,Yes,Yes,Yes,Yes,https://dc.lft.to/lastmile_qr_scan,https://dc.lft.to/lastmile_qr_scan,No,No,19,"CREDITCARD,KEY",42,2021/11/01 11:17:49+00,,"Washington, DC"
-77.0465662981341,38.9015467871553,28468138,38.901539,-77.046564,21st St & Pennsylvania Ave NW,classic,187,active,2021/11/01 10:17:40+00,0,0,19,0,0,Yes,Yes,Yes,Yes,https://dc.lft.to/lastmile_qr_scan,https://dc.lft.to/lastmile_qr_scan,No,No,19,"CREDITCARD,KEY",42,2021/11/01 11:17:49+00,,"Washington, DC"
-77.0433722967649,38.9022117867285,28468139,38.902204,-77.04337,19th & K St NW,classic,188,active,2021/11/01 11:00:01+00,12,0,10,1,1,Yes,Yes,Yes,Yes,https://dc.lft.to/lastmile_qr_scan,https://dc.lft.to/lastmile_qr_scan,No,No,23,"CREDITCARD,KEY",42,2021/11/01 11:17:49+00,,"Washington, DC"
-77.0403652899703,38.8031317672634,28468140,38.803124,-77.040363,Prince St & Union St,classic,189,active,2021/11/01 11:12:49+00,5,0,14,2,0,Yes,Yes,Yes,Yes,https://dc.lft.to/lastmile_qr_scan,https://dc.lft.to/lastmile_qr_scan,No,No,19,"CREDITCARD,KEY",40,2021/11/01 11:17:49+00,,"Alexandria, VA"
-77.0433652907578,38.8047257669309,28468141,38.804718,-77.043363,Market Square / King St & Royal St,classic,190,active,2021/11/01 10:46:05+00,0,0,13,1,2,Yes,Yes,Yes,Yes,https://dc.lft.to/lastmile_qr_scan,https://dc.lft.to/lastmile_qr_scan,No,No,15,"CREDITCARD,KEY",40,2021/11/01 11:17:49+00,,"Alexandria, VA"
-77.0446352920662,38.8107487682338,28468142,38.810741,-77.044633,St Asaph & Pendleton St,classic,191,active,2021/11/01 09:58:41+00,0,0,15,0,0,Yes,Yes,Yes,Yes,https://dc.lft.to/lastmile_qr_scan,https://dc.lft.to/lastmile_qr_scan,No,No,15,"CREDITCARD,KEY",40,2021/11/01 11:17:49+00,,"Alexandria, VA"
-77.049885293762,38.8053247669313,28468143,38.805317,-77.049883,King St & Patrick St,classic,192,active,2021/11/01 10:06:59+00,4,0,11,0,0,Yes,Yes,Yes,Yes,https://dc.lft.to/lastmile_qr_scan,https://dc.lft.to/lastmile_qr_scan,No,No,15,"CREDITCARD,KEY",40,2021/11/01 11:17:49+00,,"Alexandria, VA"
-77.0335322944143,38.9020077874485,28468144,38.902,-77.03353,15th & K St NW,classic,193,active,2021/11/01 10:52:03+00,1,0,26,2,0,Yes,Yes,Yes,Yes,https://dc.lft.to/lastmile_qr_scan,https://dc.lft.to/lastmile_qr_scan,No,No,27,"CREDITCARD,KEY",42,2021/11/01 11:17:49+00,,"Washington, DC"
-77.0529322944343,38.805655766791,28468145,38.805648,-77.05293,Commerce St & Fayette St,classic,194,active,2021/11/01 07:23:09+00,0,0,15,0,0,Yes,Yes,Yes,Yes,https://dc.lft.to/lastmile_qr_scan,https://dc.lft.to/lastmile_qr_scan,No,No,15,"CREDITCARD,KEY",40,2021/11/01 11:17:49+00,,"Alexandria, VA"
-77.0502782934314,38.8114637688526,28468146,38.811456,-77.050276,Henry St & Pendleton St,classic,195,active,2021/11/01 08:21:08+00,13,0,4,1,0,Yes,Yes,Yes,Yes,https://dc.lft.to/lastmile_qr_scan,https://dc.lft.to/lastmile_qr_scan,No,No,17,"CREDITCARD,KEY",40,2021/11/01 11:17:49+00,,"Alexandria, VA"
-77.0528102951263,38.8145847691797,28468147,38.814577,-77.052808,Braddock Rd Metro,classic,196,active,2021/11/01 09:48:27+00,19,0,10,0,0,Yes,Yes,Yes,Yes,https://dc.lft.to/lastmile_qr_scan,https://dc.lft.to/lastmile_qr_scan,No,No,29,"CREDITCARD,KEY",40,2021/11/01 11:17:49+00,,"Alexandria, VA"
-77.0606292966738,38.80577076709,28468148,38.805763,-77.060627,King St Metro South,classic,197,active,2021/11/01 08:33:55+00,8,0,15,0,0,Yes,Yes,Yes,Yes,https://dc.lft.to/lastmile_qr_scan,https://dc.lft.to/lastmile_qr_scan,No,No,23,"CREDITCARD,KEY",40,2021/11/01 11:17:49+00,,"Alexandria, VA"
-77.0515223001038,38.9066077876522,28468149,38.9066,-77.05152,24th & N St NW,classic,198,active,2021/11/01 10:59:20+00,11,0,4,0,0,Yes,Yes,Yes,Yes,https://dc.lft.to/lastmile_qr_scan,https://dc.lft.to/lastmile_qr_scan,No,No,15,"CREDITCARD,KEY",42,2021/11/01 11:17:49+00,,"Washington, DC"
-77.0260662918465,38.8959217866369,28468150,38.895914,-77.026064,10th & E St NW,classic,199,active,2021/11/01 09:08:10+00,0,0,15,0,0,Yes,Yes,Yes,Yes,https://dc.lft.to/lastmile_qr_scan,https://dc.lft.to/lastmile_qr_scan,No,No,15,"CREDITCARD,KEY",42,2021/11/01 11:17:49+00,,"Washington, DC"
-77.0489132985319,38.9008877862861,28468151,38.90088,-77.048911,22nd & I St NW / Foggy Bottom,classic,200,active,2021/11/01 10:54:18+00,0,0,14,0,1,Yes,Yes,Yes,Yes,https://dc.lft.to/lastmile_qr_scan,https://dc.lft.to/lastmile_qr_scan,No,No,15,"CREDITCARD,KEY",42,2021/11/01 11:17:49+00,,"Washington, DC"
-77.113907317426,38.8836767803185,28468152,38.883669,-77.113905,Utah St & 11th St N,classic,201,active,2021/11/01 08:35:56+00,7,0,4,0,0,Yes,Yes,Yes,Yes,https://dc.lft.to/lastmile_qr_scan,https://dc.lft.to/lastmile_qr_scan,No,No,11,"CREDITCARD,KEY",41,2021/11/01 11:17:49+00,,"Arlington, VA"
-77.0877723095341,38.8849687821851,28468153,38.884961,-77.08777,Barton St & 10th St N,classic,202,active,2021/11/01 06:27:32+00,11,0,0,0,0,Yes,Yes,Yes,Yes,https://dc.lft.to/lastmile_qr_scan,https://dc.lft.to/lastmile_qr_scan,No,No,11,"CREDITCARD,KEY",41,2021/11/01 11:17:49+00,,"Arlington, VA"
-77.0772963073368,38.8893727827437,28468154,38.889365,-77.077294,Arlington Blvd & N Queen St,classic,203,active,2021/11/01 10:24:34+00,10,0,1,0,0,Yes,Yes,Yes,Yes,https://dc.lft.to/lastmile_qr_scan,https://dc.lft.to/lastmile_qr_scan,No,No,11,"CREDITCARD,KEY",41,2021/11/01 11:17:49+00,,"Arlington, VA"
-77.0494392982981,38.8882627842958,28468155,38.888255,-77.049437,Lincoln Memorial,classic,204,active,2021/11/01 10:54:47+00,20,0,3,0,2,Yes,Yes,Yes,Yes,https://dc.lft.to/lastmile_qr_scan,https://dc.lft.to/lastmile_qr_scan,No,No,25,"CREDITCARD,KEY",42,2021/11/01 11:17:49+00,,"Washington, DC"
-77.0451302972176,38.8947297854359,28468156,38.894722,-77.045128,20th St & Virginia Ave NW,classic,206,active,2021/11/01 09:46:34+00,0,0,15,0,0,Yes,Yes,Yes,Yes,https://dc.lft.to/lastmile_qr_scan,https://dc.lft.to/lastmile_qr_scan,No,No,15,"CREDITCARD,KEY",42,2021/11/01 11:17:49+00,,"Washington, DC"
-77.0186792890832,38.900937787868,28468157,38.90093,-77.018677,5th St & Massachusetts Ave NW,classic,207,active,2021/11/01 11:15:39+00,15,0,3,0,1,Yes,Yes,Yes,Yes,https://dc.lft.to/lastmile_qr_scan,https://dc.lft.to/lastmile_qr_scan,No,No,19,"CREDITCARD,KEY",42,2021/11/01 11:17:49+00,,"Washington, DC"
-77.0770803096884,38.9438447945802,28468158,38.943837,-77.077078,39th & Veazey St NW,classic,208,active,2021/11/01 09:15:17+00,15,0,0,0,0,Yes,Yes,Yes,Yes,https://dc.lft.to/lastmile_qr_scan,https://dc.lft.to/lastmile_qr_scan,No,No,15,"CREDITCARD,KEY",42,2021/11/01 11:17:49+00,,"Washington, DC"
-77.0824283122384,38.9548197963542,28468159,38.954812,-77.082426,Fessenden St & Wisconsin Ave NW,classic,209,active,2021/11/01 08:25:10+00,15,0,0,0,0,Yes,Yes,Yes,Yes,https://dc.lft.to/lastmile_qr_scan,https://dc.lft.to/lastmile_qr_scan,No,No,15,"CREDITCARD,KEY",42,2021/11/01 11:17:49+00,,"Washington, DC"
-77.0021322849506,38.905477789333,28468160,38.90547,-77.00213,3rd & M St NE,classic,210,active,2021/11/01 11:05:43+00,2,0,17,0,4,Yes,Yes,Yes,Yes,https://dc.lft.to/lastmile_qr_scan,https://dc.lft.to/lastmile_qr_scan,No,No,23,"CREDITCARD,KEY",42,2021/11/01 11:17:49+00,,"Washington, DC"
-77.0803213068754,38.8638407783084,28468801,38.863833,-77.080319,Columbia Pike & S Courthouse Rd,classic,211,active,2021/10/31 23:12:29+00,13,0,2,1,0,Yes,Yes,Yes,Yes,https://dc.lft.to/lastmile_qr_scan,https://dc.lft.to/lastmile_qr_scan,No,No,15,"CREDITCARD,KEY",41,2021/11/01 11:17:49+00,,"Arlington, VA"
-77.112552315214,38.847136773095,28468802,38.847129,-77.11255,Wakefield High School,classic,212,active,2021/11/01 08:40:02+00,6,0,5,2,0,Yes,Yes,Yes,Yes,https://dc.lft.to/lastmile_qr_scan,https://dc.lft.to/lastmile_qr_scan,No,No,11,"CREDITCARD,KEY",41,2021/11/01 11:17:49+00,,"Arlington, VA"
-77.0692773023798,38.8462297751834,28468803,38.846222,-77.069275,28th St & S Meade St,classic,213,active,2021/11/01 04:39:58+00,12,0,3,0,0,Yes,Yes,Yes,Yes,https://dc.lft.to/lastmile_qr_scan,https://dc.lft.to/lastmile_qr_scan,No,No,15,"CREDITCARD,KEY",41,2021/11/01 11:17:49+00,,"Arlington, VA"
-77.0415732980645,38.9188167908523,28468804,38.918809,-77.041571,18th St & Wyoming Ave NW,classic,214,active,2021/11/01 10:45:43+00,22,0,1,0,0,Yes,Yes,Yes,Yes,https://dc.lft.to/lastmile_qr_scan,https://dc.lft.to/lastmile_qr_scan,No,No,23,"CREDITCARD,KEY",42,2021/11/01 11:17:49+00,,"Washington, DC"
-77.0198162925907,38.9565637985803,28468805,38.956556,-77.019814,5th & Kennedy St NW,classic,215,active,2021/11/01 10:35:04+00,9,0,5,0,1,Yes,Yes,Yes,Yes,https://dc.lft.to/lastmile_qr_scan,https://dc.lft.to/lastmile_qr_scan,No,No,15,"CREDITCARD,KEY",42,2021/11/01 11:17:49+00,,"Washington, DC"
-77.0273352953024,38.9496697973156,28468806,38.949662,-77.027333,Georgia Ave & Emerson St NW,classic,216,active,2021/11/01 10:04:41+00,15,0,4,0,0,Yes,Yes,Yes,Yes,https://dc.lft.to/lastmile_qr_scan,https://dc.lft.to/lastmile_qr_scan,No,No,19,"CREDITCARD,KEY",42,2021/11/01 11:17:49+00,,"Washington, DC"
-77.032680296076,38.9424827957743,28468807,38.942475,-77.032678,14th & Upshur St NW,classic,217,active,2021/11/01 09:12:42+00,17,0,2,0,0,Yes,Yes,Yes,Yes,https://dc.lft.to/lastmile_qr_scan,https://dc.lft.to/lastmile_qr_scan,No,No,19,"CREDITCARD,KEY",42,2021/11/01 11:17:49+00,,"Washington, DC"
-77.0329492967149,38.9564397979982,28468808,38.956432,-77.032947,14th St & Colorado Ave NW,classic,218,active,2021/11/01 09:35:15+00,16,0,2,1,0,Yes,Yes,Yes,Yes,https://dc.lft.to/lastmile_qr_scan,https://dc.lft.to/lastmile_qr_scan,No,No,19,"CREDITCARD,KEY",42,2021/11/01 11:17:49+00,,"Washington, DC"
-77.0751063038947,38.8479847745557,28468809,38.847977,-77.075104,Troy St & 26th St S,classic,219,active,2021/11/01 04:45:04+00,2,0,9,4,0,Yes,Yes,Yes,Yes,https://dc.lft.to/lastmile_qr_scan,https://dc.lft.to/lastmile_qr_scan,No,No,11,"CREDITCARD,KEY",41,2021/11/01 11:17:49+00,,"Arlington, VA"
-77.0859333065172,38.8444077741304,28468810,38.8444,-77.085931,Four Mile Run Dr & S Shirlington Rd,classic,220,active,2021/11/01 04:45:05+00,0,0,9,0,2,Yes,Yes,Yes,Yes,https://dc.lft.to/lastmile_qr_scan,https://dc.lft.to/lastmile_qr_scan,No,No,11,"CREDITCARD,KEY",41,2021/11/01 11:17:49+00,,"Arlington, VA"
-77.0958623105624,38.8607967771281,28468811,38.860789,-77.09586,Columbia Pike & S Oakland St,classic,221,active,2021/11/01 04:45:01+00,9,0,2,0,0,Yes,Yes,Yes,Yes,https://dc.lft.to/lastmile_qr_scan,https://dc.lft.to/lastmile_qr_scan,No,No,11,"CREDITCARD,KEY",41,2021/11/01 11:17:49+00,,"Arlington, VA"
-77.0954333095195,38.8473677741027,28468812,38.84736,-77.095431,Four Mile Run Dr & S Walter Reed Dr,classic,222,active,2021/11/01 10:54:31+00,7,0,4,0,0,Yes,Yes,Yes,Yes,https://dc.lft.to/lastmile_qr_scan,https://dc.lft.to/lastmile_qr_scan,No,No,11,"CREDITCARD,KEY",41,2021/11/01 11:17:49+00,,"Arlington, VA"
-77.0895573081055,38.8423277730947,28468813,38.84232,-77.089555,S Arlington Mill Dr & Campbell Ave,classic,223,active,2021/11/01 08:48:18+00,2,0,13,0,0,Yes,Yes,Yes,Yes,https://dc.lft.to/lastmile_qr_scan,https://dc.lft.to/lastmile_qr_scan,No,No,15,"CREDITCARD,KEY",41,2021/11/01 11:17:49+00,,"Arlington, VA"
-77.0849203064866,38.8484617750785,28468814,38.848454,-77.084918,Kenmore St & 24th St S,classic,224,active,2021/11/01 09:04:35+00,5,0,6,2,0,Yes,Yes,Yes,Yes,https://dc.lft.to/lastmile_qr_scan,https://dc.lft.to/lastmile_qr_scan,No,No,11,"CREDITCARD,KEY",41,2021/11/01 11:17:49+00,,"Arlington, VA"
-77.0294192982329,38.9870078049018,28468815,38.987,-77.029417,13th St & Eastern Ave,classic,225,active,2021/11/01 04:45:06+00,14,0,1,0,0,Yes,Yes,Yes,Yes,https://dc.lft.to/lastmile_qr_scan,https://dc.lft.to/lastmile_qr_scan,No,No,15,"CREDITCARD,KEY",44,2021/11/01 11:17:49+00,,"Montgomery County, MD (South)"
-77.0635883041224,38.9084977877015,28468816,38.90849,-77.063586,Wisconsin Ave & O St NW,classic,226,active,2021/11/01 10:50:19+00,4,0,15,0,0,Yes,Yes,Yes,Yes,https://dc.lft.to/lastmile_qr_scan,https://dc.lft.to/lastmile_qr_scan,No,No,19,"CREDITCARD,KEY",42,2021/11/01 11:17:49+00,,"Washington, DC"
-77.0671423045089,38.896560785351,28468817,38.896553,-77.06714,Roosevelt Island,classic,227,active,2021/10/31 18:15:28+00,3,0,13,0,0,Yes,Yes,Yes,Yes,https://dc.lft.to/lastmile_qr_scan,https://dc.lft.to/lastmile_qr_scan,No,No,17,"CREDITCARD,KEY",41,2021/11/01 11:17:49+00,,"Arlington, VA"
-77.0699583085248,38.9550237963852,28468818,38.955016,-77.069956,Connecticut & Nebraska Ave NW,classic,228,active,2021/11/01 09:14:07+00,22,0,1,0,0,Yes,Yes,Yes,Yes,https://dc.lft.to/lastmile_qr_scan,https://dc.lft.to/lastmile_qr_scan,No,No,23,"CREDITCARD,KEY",42,2021/11/01 11:17:49+00,,"Washington, DC"
-77.0383612956956,38.9081497882709,28468819,38.908142,-77.038359,17th St & Massachusetts Ave NW,classic,229,active,2021/11/01 11:06:47+00,12,0,5,0,2,Yes,Yes,Yes,Yes,https://dc.lft.to/lastmile_qr_scan,https://dc.lft.to/lastmile_qr_scan,No,No,19,"CREDITCARD,KEY",42,2021/11/01 11:17:49+00,,"Washington, DC"
-77.0352022964905,38.9233377918872,28468820,38.92333,-77.0352,15th & Euclid St NW,classic,230,active,2021/11/01 09:33:25+00,14,0,1,0,0,Yes,Yes,Yes,Yes,https://dc.lft.to/lastmile_qr_scan,https://dc.lft.to/lastmile_qr_scan,No,No,15,"CREDITCARD,KEY",42,2021/11/01 11:17:49+00,,"Washington, DC"
-76.9951952812152,38.8899957863414,28468821,38.889988,-76.995193,8th & East Capitol St NE,classic,231,active,2021/11/01 09:57:27+00,4,0,7,0,0,Yes,Yes,Yes,Yes,https://dc.lft.to/lastmile_qr_scan,https://dc.lft.to/lastmile_qr_scan,No,No,11,"CREDITCARD,KEY",42,2021/11/01 11:17:49+00,,"Washington, DC"
-77.0176712892605,38.9126667904117,28468822,38.912659,-77.017669,New Jersey Ave & R St NW,classic,232,active,2021/11/01 10:42:37+00,15,0,0,0,0,Yes,Yes,Yes,Yes,https://dc.lft.to/lastmile_qr_scan,https://dc.lft.to/lastmile_qr_scan,No,No,15,"CREDITCARD,KEY",42,2021/11/01 11:17:49+00,,"Washington, DC"
-76.9833282779085,38.8899157867312,28468823,38.889908,-76.983326,15th & East Capitol St NE,classic,233,active,2021/11/01 09:19:22+00,8,0,3,0,0,Yes,Yes,Yes,Yes,https://dc.lft.to/lastmile_qr_scan,https://dc.lft.to/lastmile_qr_scan,No,No,11,"CREDITCARD,KEY",42,2021/11/01 11:17:49+00,,"Washington, DC"
-76.9947512821935,38.8972817877571,28468824,38.897274,-76.994749,8th & F St NE,classic,234,active,2021/11/01 11:06:48+00,20,0,3,0,0,Yes,Yes,Yes,Yes,https://dc.lft.to/lastmile_qr_scan,https://dc.lft.to/lastmile_qr_scan,No,No,23,"CREDITCARD,KEY",42,2021/11/01 11:17:49+00,,"Washington, DC"
-76.9789262782291,38.9271027948888,28468825,38.927095,-76.978924,18th St & Rhode Island Ave NE,classic,235,active,2021/11/01 04:50:04+00,15,0,0,0,0,Yes,Yes,Yes,Yes,https://dc.lft.to/lastmile_qr_scan,https://dc.lft.to/lastmile_qr_scan,No,No,15,"CREDITCARD,KEY",42,2021/11/01 11:17:49+00,,"Washington, DC"
-76.9835772781895,38.8972027886033,28468826,38.897195,-76.983575,15th & F St NE,classic,236,active,2021/11/01 10:32:16+00,12,0,7,0,0,Yes,Yes,Yes,Yes,https://dc.lft.to/lastmile_qr_scan,https://dc.lft.to/lastmile_qr_scan,No,No,19,"CREDITCARD,KEY",42,2021/11/01 11:17:49+00,,"Washington, DC"
-76.9909572825107,38.9286517939653,28468827,38.928644,-76.990955,12th & Irving St NE,classic,237,active,2021/11/01 10:38:28+00,10,0,5,2,0,Yes,Yes,Yes,Yes,https://dc.lft.to/lastmile_qr_scan,https://dc.lft.to/lastmile_qr_scan,No,No,15,"CREDITCARD,KEY",42,2021/11/01 11:17:49+00,,"Washington, DC"
-76.9993782804382,38.8432377766539,28468828,38.84323,-76.999376,Alabama & MLK Ave SE,classic,239,active,2021/11/01 04:50:05+00,9,0,2,0,0,Yes,Yes,Yes,Yes,https://dc.lft.to/lastmile_qr_scan,https://dc.lft.to/lastmile_qr_scan,No,No,11,"CREDITCARD,KEY",42,2021/11/01 11:17:49+00,,"Washington, DC"
-76.9900392783959,38.8639047816234,28468829,38.863897,-76.990037,Pleasant St & MLK Ave SE,classic,240,active,2021/11/01 08:08:43+00,6,0,5,0,0,Yes,Yes,Yes,Yes,https://dc.lft.to/lastmile_qr_scan,https://dc.lft.to/lastmile_qr_scan,No,No,11,"CREDITCARD,KEY",42,2021/11/01 11:17:49+00,,"Washington, DC"
-76.9872132802867,38.9037397890225,28468830,38.903732,-76.987211,Neal St & Trinidad Ave NE,classic,241,active,2021/11/01 08:44:26+00,11,0,3,1,1,Yes,Yes,Yes,Yes,https://dc.lft.to/lastmile_qr_scan,https://dc.lft.to/lastmile_qr_scan,No,No,15,"CREDITCARD,KEY",42,2021/11/01 11:17:49+00,,"Washington, DC"
-77.0281412937588,38.9167947906925,28468831,38.916787,-77.028139,12th & U St NW,classic,242,active,2021/11/01 11:10:36+00,27,0,1,0,2,Yes,Yes,Yes,Yes,https://dc.lft.to/lastmile_qr_scan,https://dc.lft.to/lastmile_qr_scan,No,No,31,"CREDITCARD,KEY",42,2021/11/01 11:17:49+00,,"Washington, DC"
-77.1050243128182,38.8522557743325,28468832,38.852248,-77.105022,S George Mason & Four Mile Run Dr,classic,243,active,2021/11/01 04:50:05+00,8,0,3,0,0,Yes,Yes,Yes,Yes,https://dc.lft.to/lastmile_qr_scan,https://dc.lft.to/lastmile_qr_scan,No,No,11,"CREDITCARD,KEY",41,2021/11/01 11:17:49+00,,"Arlington, VA"
-77.0395132932485,38.8650367792976,28468833,38.865029,-77.039511,Gravelly Point,classic,244,active,2021/11/01 10:30:50+00,8,0,9,0,0,Yes,Yes,Yes,Yes,https://dc.lft.to/lastmile_qr_scan,https://dc.lft.to/lastmile_qr_scan,No,No,17,"CREDITCARD,KEY",41,2021/11/01 11:17:49+00,,"Arlington, VA"
-77.0859623093188,38.8807127814397,28468834,38.880705,-77.08596,Pershing Dr & Wayne St,classic,245,active,2021/11/01 11:13:59+00,4,0,7,0,0,Yes,Yes,Yes,Yes,https://dc.lft.to/lastmile_qr_scan,https://dc.lft.to/lastmile_qr_scan,No,No,11,"CREDITCARD,KEY",41,2021/11/01 11:17:49+00,,"Arlington, VA"
-77.0723173045021,38.8672697787443,28468835,38.867262,-77.072315,Columbia Pike & S Orme St,classic,246,active,2021/11/01 04:50:06+00,9,0,2,0,0,Yes,Yes,Yes,Yes,https://dc.lft.to/lastmile_qr_scan,https://dc.lft.to/lastmile_qr_scan,No,No,11,"CREDITCARD,KEY",41,2021/11/01 11:17:49+00,,"Arlington, VA"
-77.0019572838165,38.8873857855977,28468836,38.887378,-77.001955,3rd St & Pennsylvania Ave SE,classic,247,active,2021/11/01 11:07:59+00,3,0,12,0,0,Yes,Yes,Yes,Yes,https://dc.lft.to/lastmile_qr_scan,https://dc.lft.to/lastmile_qr_scan,No,No,15,"CREDITCARD,KEY",42,2021/11/01 11:17:49+00,,"Washington, DC"
-77.0232422903941,38.8948587863045,28468837,38.894851,-77.02324,8th & D St NW,classic,248,active,2021/11/01 10:43:32+00,10,0,5,0,0,Yes,Yes,Yes,Yes,https://dc.lft.to/lastmile_qr_scan,https://dc.lft.to/lastmile_qr_scan,No,No,15,"CREDITCARD,KEY",42,2021/11/01 11:17:49+00,,"Washington, DC"
-77.0532322977412,38.8589787778744,28468838,38.858971,-77.05323,Eads St & 15th St S,classic,1,active,2021/11/01 11:16:08+00,6,0,9,0,0,Yes,Yes,Yes,Yes,https://dc.lft.to/lastmile_qr_scan,https://dc.lft.to/lastmile_qr_scan,No,No,15,"CREDITCARD,KEY",41,2021/11/01 11:17:49+00,,"Arlington, VA"
-77.0492342959218,38.8564327778712,28468839,38.856425,-77.049232,Crystal Dr & 20th St S,classic,3,active,2021/11/01 10:26:45+00,0,0,17,1,0,Yes,Yes,Yes,Yes,https://dc.lft.to/lastmile_qr_scan,https://dc.lft.to/lastmile_qr_scan,No,No,17,"CREDITCARD,KEY",41,2021/11/01 11:17:49+00,,"Arlington, VA"
-77.0494192970383,38.8610637782827,28468840,38.861056,-77.049417,Crystal Dr & 15th St S,classic,4,active,2021/11/01 09:03:14+00,5,0,11,0,0,Yes,Yes,Yes,Yes,https://dc.lft.to/lastmile_qr_scan,https://dc.lft.to/lastmile_qr_scan,No,No,16,"CREDITCARD,KEY",41,2021/11/01 11:17:49+00,,"Arlington, VA"
-77.0594922990823,38.857873777492,28468841,38.857866,-77.05949,Aurora Hills Cmty Ctr / 18th St & S Hayes St,classic,5,active,2021/11/01 10:01:32+00,9,0,3,0,0,Yes,Yes,Yes,Yes,https://dc.lft.to/lastmile_qr_scan,https://dc.lft.to/lastmile_qr_scan,No,No,12,"CREDITCARD,KEY",41,2021/11/01 11:17:49+00,,"Arlington, VA"
-77.0599383003343,38.8623107785478,28468842,38.862303,-77.059936,Pentagon City Metro / 12th St & S Hayes St,classic,6,active,2021/11/01 11:14:19+00,6,0,12,0,0,Yes,Yes,Yes,Yes,https://dc.lft.to/lastmile_qr_scan,https://dc.lft.to/lastmile_qr_scan,No,No,18,"CREDITCARD,KEY",41,2021/11/01 11:17:49+00,,"Arlington, VA"
-77.0634183010105,38.8633217785476,28468843,38.863314,-77.063416,Army Navy Dr & S Joyce St,classic,7,active,2021/11/01 10:08:11+00,7,0,9,1,0,Yes,Yes,Yes,Yes,https://dc.lft.to/lastmile_qr_scan,https://dc.lft.to/lastmile_qr_scan,No,No,16,"CREDITCARD,KEY",41,2021/11/01 11:17:49+00,,"Arlington, VA"
-77.0517002966725,38.8577927782021,28468844,38.857785,-77.051698,Crystal City Metro / 18th St & S Bell St,classic,8,active,2021/11/01 11:07:49+00,12,0,7,0,0,Yes,Yes,Yes,Yes,https://dc.lft.to/lastmile_qr_scan,https://dc.lft.to/lastmile_qr_scan,No,No,19,"CREDITCARD,KEY",41,2021/11/01 11:17:49+00,,"Arlington, VA"
-77.0515162967461,38.8484737756684,28468845,38.848466,-77.051514,Crystal Dr & 27th St S,classic,10,active,2021/11/01 10:36:54+00,5,0,5,1,0,Yes,Yes,Yes,Yes,https://dc.lft.to/lastmile_qr_scan,https://dc.lft.to/lastmile_qr_scan,No,No,11,"CREDITCARD,KEY",41,2021/11/01 11:17:49+00,,"Arlington, VA"
-77.0502022957886,38.8426077746293,28468846,38.8426,-77.0502,S Glebe Rd & Potomac Ave,classic,11,active,2021/11/01 10:29:56+00,3,0,8,0,0,Yes,Yes,Yes,Yes,https://dc.lft.to/lastmile_qr_scan,https://dc.lft.to/lastmile_qr_scan,No,No,11,"CREDITCARD,KEY",41,2021/11/01 11:17:49+00,,"Arlington, VA"
-77.0497252966898,38.8529367766007,28468847,38.852929,-77.049723,Crystal Dr & 23rd St S,classic,12,active,2021/11/01 10:43:51+00,6,0,11,0,0,Yes,Yes,Yes,Yes,https://dc.lft.to/lastmile_qr_scan,https://dc.lft.to/lastmile_qr_scan,No,No,17,"CREDITCARD,KEY",41,2021/11/01 11:17:49+00,,"Arlington, VA"
-77.0515222964894,38.8506957767103,28468848,38.850688,-77.05152,Clark St & 26th St S,classic,13,active,2021/11/01 10:45:58+00,1,0,9,0,1,Yes,Yes,Yes,Yes,https://dc.lft.to/lastmile_qr_scan,https://dc.lft.to/lastmile_qr_scan,No,No,11,"CREDITCARD,KEY",41,2021/11/01 11:17:49+00,,"Arlington, VA"
-77.0429022968057,38.900307786813,28468849,38.9003,-77.0429,19th St & Pennsylvania Ave NW,classic,14,active,2021/11/01 11:05:12+00,0,0,14,1,1,Yes,Yes,Yes,Yes,https://dc.lft.to/lastmile_qr_scan,https://dc.lft.to/lastmile_qr_scan,No,No,15,"CREDITCARD,KEY",42,2021/11/01 11:17:49+00,,"Washington, DC"
-77.0320982949569,38.9177727908399,28468850,38.917765,-77.032096,14th & V St NW,classic,15,active,2021/11/01 10:52:42+00,24,0,3,0,1,Yes,Yes,Yes,Yes,https://dc.lft.to/lastmile_qr_scan,https://dc.lft.to/lastmile_qr_scan,No,No,31,"CREDITCARD,KEY",42,2021/11/01 11:17:49+00,,"Washington, DC"
-77.0278242935343,38.9294717935055,28468851,38.929464,-77.027822,11th & Kenyon St NW,classic,16,active,2021/11/01 11:04:59+00,29,0,9,0,1,Yes,Yes,Yes,Yes,https://dc.lft.to/lastmile_qr_scan,https://dc.lft.to/lastmile_qr_scan,No,No,39,"CREDITCARD,KEY",42,2021/11/01 11:17:49+00,,"Washington, DC"
-77.0354232958291,38.9261317925466,28468852,38.926124,-77.035421,15th & Harvard St NW,classic,17,active,2021/11/01 11:16:42+00,21,0,2,0,0,Yes,Yes,Yes,Yes,https://dc.lft.to/lastmile_qr_scan,https://dc.lft.to/lastmile_qr_scan,No,No,23,"CREDITCARD,KEY",42,2021/11/01 11:17:49+00,,"Washington, DC"
-77.0425832978243,38.9229327911719,28468853,38.922925,-77.042581,Adams Mill & Columbia Rd NW,classic,18,active,2021/11/01 11:03:53+00,9,0,1,1,4,Yes,Yes,Yes,Yes,https://dc.lft.to/lastmile_qr_scan,https://dc.lft.to/lastmile_qr_scan,No,No,15,"CREDITCARD,KEY",42,2021/11/01 11:17:49+00,,"Washington, DC"
-77.0322022950548,38.9268077925001,28468854,38.9268,-77.0322,14th & Harvard St NW,classic,19,active,2021/11/01 11:01:35+00,19,0,0,0,0,Yes,Yes,Yes,Yes,https://dc.lft.to/lastmile_qr_scan,https://dc.lft.to/lastmile_qr_scan,No,No,19,"CREDITCARD,KEY",42,2021/11/01 11:17:49+00,,"Washington, DC"
-77.047639299696,38.9232107910251,28468855,38.923203,-77.047637,Calvert & Biltmore St NW,classic,20,active,2021/11/01 09:08:25+00,23,0,0,0,0,Yes,Yes,Yes,Yes,https://dc.lft.to/lastmile_qr_scan,https://dc.lft.to/lastmile_qr_scan,No,No,23,"CREDITCARD,KEY",42,2021/11/01 11:17:49+00,,"Washington, DC"
-77.0388022980119,38.9319077929852,28468856,38.9319,-77.0388,Lamont & Mt Pleasant NW,classic,21,active,2021/11/01 09:38:29+00,17,0,1,1,0,Yes,Yes,Yes,Yes,https://dc.lft.to/lastmile_qr_scan,https://dc.lft.to/lastmile_qr_scan,No,No,19,"CREDITCARD,KEY",42,2021/11/01 11:17:49+00,,"Washington, DC"
-77.0179002882544,38.8767047831638,28468857,38.876697,-77.017898,4th & M St SW,classic,22,active,2021/11/01 11:16:31+00,17,0,4,0,2,Yes,Yes,Yes,Yes,https://dc.lft.to/lastmile_qr_scan,https://dc.lft.to/lastmile_qr_scan,No,No,23,"CREDITCARD,KEY",42,2021/11/01 11:17:49+00,,"Washington, DC"
-77.0344292953915,38.9098087885209,28468858,38.909801,-77.034427,15th & P St NW,classic,23,active,2021/11/01 11:08:33+00,16,0,1,0,2,Yes,Yes,Yes,Yes,https://dc.lft.to/lastmile_qr_scan,https://dc.lft.to/lastmile_qr_scan,No,No,19,"CREDITCARD,KEY",42,2021/11/01 11:17:49+00,,"Washington, DC"
-77.0320102944616,38.9130537893427,28468859,38.913046,-77.032008,14th & R St NW,classic,24,active,2021/11/01 11:10:00+00,17,0,1,0,0,Yes,Yes,Yes,Yes,https://dc.lft.to/lastmile_qr_scan,https://dc.lft.to/lastmile_qr_scan,No,No,19,"CREDITCARD,KEY",42,2021/11/01 11:17:49+00,,"Washington, DC"
-77.032302294264,38.9086077889194,28468860,38.9086,-77.0323,14th & Rhode Island Ave NW,classic,25,active,2021/11/01 11:16:48+00,10,0,12,0,0,Yes,Yes,Yes,Yes,https://dc.lft.to/lastmile_qr_scan,https://dc.lft.to/lastmile_qr_scan,No,No,23,"CREDITCARD,KEY",42,2021/11/01 11:17:49+00,,"Washington, DC"
-77.0450022970883,38.8963077857035,28468861,38.8963,-77.045,20th & E St NW,classic,26,active,2021/11/01 11:04:57+00,6,0,9,0,0,Yes,Yes,Yes,Yes,https://dc.lft.to/lastmile_qr_scan,https://dc.lft.to/lastmile_qr_scan,No,No,15,"CREDITCARD,KEY",42,2021/11/01 11:17:49+00,,"Washington, DC"
-77.04645129759,38.9007187863238,28468862,38.900711,-77.046449,21st & I St NW,classic,27,active,2021/11/01 11:14:32+00,1,0,33,0,1,Yes,Yes,Yes,Yes,https://dc.lft.to/lastmile_qr_scan,https://dc.lft.to/lastmile_qr_scan,No,No,35,"CREDITCARD,KEY",42,2021/11/01 11:17:49+00,,"Washington, DC"
-77.0241832933893,38.9366917950278,28468863,38.936684,-77.024181,Georgia & New Hampshire Ave NW,classic,28,active,2021/11/01 09:52:58+00,18,0,1,1,0,Yes,Yes,Yes,Yes,https://dc.lft.to/lastmile_qr_scan,https://dc.lft.to/lastmile_qr_scan,No,No,19,"CREDITCARD,KEY",42,2021/11/01 11:17:49+00,,"Washington, DC"
-77.0328022960404,38.9375077942327,28468864,38.9375,-77.0328,14th St & Spring Rd NW,classic,29,active,2021/11/01 09:12:37+00,18,0,1,0,0,Yes,Yes,Yes,Yes,https://dc.lft.to/lastmile_qr_scan,https://dc.lft.to/lastmile_qr_scan,No,No,19,"CREDITCARD,KEY",42,2021/11/01 11:17:49+00,,"Washington, DC"
-77.010553284944,38.8662847812768,28468865,38.866277,-77.010551,Half & Water St SW,classic,636,active,2021/11/01 10:05:06+00,5,0,9,0,0,Yes,Yes,Yes,Yes,https://dc.lft.to/lastmile_qr_scan,https://dc.lft.to/lastmile_qr_scan,No,No,15,"CREDITCARD,KEY",42,2021/11/01 11:17:49+00,,"Washington, DC"
-77.0318822946121,38.9106817892954,28468866,38.910674,-77.03188,14th & Q St NW,classic,637,active,2021/11/01 11:03:31+00,13,0,5,0,1,Yes,Yes,Yes,Yes,https://dc.lft.to/lastmile_qr_scan,https://dc.lft.to/lastmile_qr_scan,No,No,19,"CREDITCARD,KEY",42,2021/11/01 11:17:49+00,,"Washington, DC"
-77.0296332940667,38.9169437907977,28468867,38.916936,-77.029631,13th & U St NW,classic,638,active,2021/11/01 11:06:11+00,12,0,5,0,1,Yes,Yes,Yes,Yes,https://dc.lft.to/lastmile_qr_scan,https://dc.lft.to/lastmile_qr_scan,No,No,19,"CREDITCARD,KEY",42,2021/11/01 11:17:49+00,,"Washington, DC"
-76.9771892753118,38.8854907860358,28468868,38.885483,-76.977187,Stadium Armory Metro,classic,639,active,2021/11/01 10:23:33+00,7,0,12,0,0,Yes,Yes,Yes,Yes,https://dc.lft.to/lastmile_qr_scan,https://dc.lft.to/lastmile_qr_scan,No,No,19,"CREDITCARD,KEY",42,2021/11/01 11:17:49+00,,"Washington, DC"
-77.0686283085301,38.9657827986964,28468869,38.965775,-77.068626,Broad Branch Rd & Northampton St NW,classic,640,active,2021/10/31 19:32:57+00,18,0,1,0,0,Yes,Yes,Yes,Yes,https://dc.lft.to/lastmile_qr_scan,https://dc.lft.to/lastmile_qr_scan,No,No,19,"CREDITCARD,KEY",42,2021/11/01 11:17:49+00,,"Washington, DC"
-77.0428192921889,38.8140387691225,28468870,38.814031,-77.042817,N Pitt St & Montgomery St,classic,641,active,2021/11/01 09:39:05+00,13,0,2,0,0,Yes,Yes,Yes,Yes,https://dc.lft.to/lastmile_qr_scan,https://dc.lft.to/lastmile_qr_scan,No,No,15,"CREDITCARD,KEY",40,2021/11/01 11:17:49+00,,"Alexandria, VA"
-77.0469152979038,38.8983097864515,28468871,38.898302,-77.046913,21st St & G st NW,classic,645,active,2021/11/01 11:06:31+00,1,0,18,1,0,Yes,Yes,Yes,Yes,https://dc.lft.to/lastmile_qr_scan,https://dc.lft.to/lastmile_qr_scan,No,No,19,"CREDITCARD,KEY",42,2021/11/01 11:17:49+00,,"Washington, DC"
-77.0176602880376,38.8811307841436,28468872,38.881123,-77.017658,4th St & G St SW,classic,646,active,2021/11/01 10:26:37+00,11,0,8,0,0,Yes,Yes,Yes,Yes,https://dc.lft.to/lastmile_qr_scan,https://dc.lft.to/lastmile_qr_scan,No,No,19,"CREDITCARD,KEY",42,2021/11/01 11:17:49+00,,"Washington, DC"
-77.0138232911704,38.9581057990419,28468873,38.958098,-77.013821,Kansas Ave & Longfellow St NW,classic,647,active,2021/11/01 09:13:42+00,6,0,12,0,0,Yes,Yes,Yes,Yes,https://dc.lft.to/lastmile_qr_scan,https://dc.lft.to/lastmile_qr_scan,No,No,19,"CREDITCARD,KEY",42,2021/11/01 11:17:49+00,,"Washington, DC"
-77.0459182943944,38.8529107765998,28468874,38.852903,-77.045916,National Airport,classic,648,active,2021/11/01 10:59:25+00,8,0,11,2,0,Yes,Yes,Yes,Yes,https://dc.lft.to/lastmile_qr_scan,https://dc.lft.to/lastmile_qr_scan,No,No,19,"CREDITCARD,KEY",41,2021/11/01 11:17:49+00,,"Arlington, VA"
-77.0568752986832,38.8648457790858,28468875,38.864838,-77.056873,Fern St & Army Navy Dr,classic,649,active,2021/11/01 09:26:01+00,2,0,13,1,0,Yes,Yes,Yes,Yes,https://dc.lft.to/lastmile_qr_scan,https://dc.lft.to/lastmile_qr_scan,No,No,15,"CREDITCARD,KEY",41,2021/11/01 11:17:49+00,,"Arlington, VA"
-77.0748953057729,38.8908707837752,28468876,38.890863,-77.074893,Arlington Blvd & Ft Myer Dr,classic,650,active,2021/11/01 09:06:09+00,0,0,15,0,0,Yes,Yes,Yes,Yes,https://dc.lft.to/lastmile_qr_scan,https://dc.lft.to/lastmile_qr_scan,No,No,15,"CREDITCARD,KEY",41,2021/11/01 11:17:49+00,,"Arlington, VA"
-77.0594982991557,38.8530097764143,28468877,38.853002,-77.059496,23rd St S & Hayes St,classic,651,active,2021/11/01 09:47:48+00,9,0,5,1,0,Yes,Yes,Yes,Yes,https://dc.lft.to/lastmile_qr_scan,https://dc.lft.to/lastmile_qr_scan,No,No,15,"CREDITCARD,KEY",41,2021/11/01 11:17:49+00,,"Arlington, VA"
-77.0738623060571,38.895075784171,28468878,38.895068,-77.07386,Wilson Blvd & N Oak St,classic,652,active,2021/11/01 10:49:57+00,9,0,6,1,2,Yes,Yes,Yes,Yes,https://dc.lft.to/lastmile_qr_scan,https://dc.lft.to/lastmile_qr_scan,No,No,17,"CREDITCARD,KEY",41,2021/11/01 11:17:49+00,,"Arlington, VA"
-77.0842643095042,38.8862637819397,28468879,38.886256,-77.084262,Arlington Blvd & Fairfax Dr,classic,653,active,2021/11/01 11:05:56+00,7,0,9,0,0,Yes,Yes,Yes,Yes,https://dc.lft.to/lastmile_qr_scan,https://dc.lft.to/lastmile_qr_scan,No,No,16,"CREDITCARD,KEY",41,2021/11/01 11:17:49+00,,"Arlington, VA"
-77.0138162857898,38.8637507807205,28468880,38.863743,-77.013814,2nd & V St SW / James Creek Marina,classic,654,active,2021/11/01 10:32:50+00,14,0,3,0,2,Yes,Yes,Yes,Yes,https://dc.lft.to/lastmile_qr_scan,https://dc.lft.to/lastmile_qr_scan,No,No,19,"CREDITCARD,KEY",42,2021/11/01 11:17:49+00,,"Washington, DC"
-77.0059122835669,38.8718487820881,28468881,38.871841,-77.00591,1st St & Potomac Ave SE,classic,655,active,2021/11/01 09:35:14+00,17,0,2,1,0,Yes,Yes,Yes,Yes,https://dc.lft.to/lastmile_qr_scan,https://dc.lft.to/lastmile_qr_scan,No,No,19,"CREDITCARD,KEY",42,2021/11/01 11:17:49+00,,"Washington, DC"
-77.0454892989403,38.9180437900317,28468882,38.918036,-77.045487,20th & Columbia Rd NW,classic,656,active,2021/11/01 10:30:19+00,17,0,0,0,2,Yes,Yes,Yes,Yes,https://dc.lft.to/lastmile_qr_scan,https://dc.lft.to/lastmile_qr_scan,No,No,19,"CREDITCARD,KEY",42,2021/11/01 11:17:49+00,,"Washington, DC"
-77.0021632828418,38.8768307835303,28468883,38.876823,-77.002161,3rd & M st SE,classic,657,active,2021/11/01 09:08:22+00,15,0,7,0,0,Yes,Yes,Yes,Yes,https://dc.lft.to/lastmile_qr_scan,https://dc.lft.to/lastmile_qr_scan,No,No,23,"CREDITCARD,KEY",42,2021/11/01 11:17:49+00,,"Washington, DC"
-76.9253172596794,38.8833257875446,28468884,38.883318,-76.925315,53rd & D St SE/C.W. Harris Elementary,classic,659,active,2021/10/31 04:59:34+00,18,0,1,0,0,Yes,Yes,Yes,Yes,https://dc.lft.to/lastmile_qr_scan,https://dc.lft.to/lastmile_qr_scan,No,No,19,"CREDITCARD,KEY",42,2021/11/01 11:17:49+00,,"Washington, DC"
-77.1061133131289,38.8373137713862,28468885,38.837306,-77.106111,N Hampton Dr & Ford Ave,classic,662,active,2021/11/01 04:39:58+00,10,0,1,0,0,Yes,Yes,Yes,Yes,https://dc.lft.to/lastmile_qr_scan,https://dc.lft.to/lastmile_qr_scan,No,No,11,"CREDITCARD,KEY",40,2021/11/01 11:17:49+00,,"Alexandria, VA"
-77.1357903204238,38.809716764675,28468886,38.809709,-77.135788,Whiting & Lane Dr,classic,663,active,2021/11/01 09:18:59+00,4,0,10,7,1,Yes,Yes,Yes,Yes,https://dc.lft.to/lastmile_qr_scan,https://dc.lft.to/lastmile_qr_scan,No,No,15,"CREDITCARD,KEY",40,2021/11/01 11:17:49+00,,"Alexandria, VA"
-77.1100163130133,38.815849767254,28468887,38.815842,-77.110014,N Howard St & Taney Ave,classic,664,active,2021/11/01 09:36:21+00,5,0,10,1,0,Yes,Yes,Yes,Yes,https://dc.lft.to/lastmile_qr_scan,https://dc.lft.to/lastmile_qr_scan,No,No,15,"CREDITCARD,KEY",40,2021/11/01 11:17:49+00,,"Alexandria, VA"
-76.9709322736279,38.8787787853663,28468888,38.878771,-76.97093,Anacostia Roller Skating Pavillion,classic,665,active,2021/10/31 14:46:34+00,13,0,6,0,0,Yes,Yes,Yes,Yes,https://dc.lft.to/lastmile_qr_scan,https://dc.lft.to/lastmile_qr_scan,No,No,19,"CREDITCARD,KEY",42,2021/11/01 11:17:49+00,,"Washington, DC"
-77.0519582968085,38.845035774758,28468889,38.845028,-77.051956,S Clark St & 33rd St,classic,667,active,2021/11/01 10:15:55+00,5,0,6,0,0,Yes,Yes,Yes,Yes,https://dc.lft.to/lastmile_qr_scan,https://dc.lft.to/lastmile_qr_scan,No,No,11,"CREDITCARD,KEY",41,2021/11/01 11:17:49+00,,"Arlington, VA"
-77.118108317262,38.85402677411,28468890,38.854019,-77.118106,Columbia Pike & S Greenbrier St,classic,668,active,2021/11/01 09:47:34+00,12,0,3,0,0,Yes,Yes,Yes,Yes,https://dc.lft.to/lastmile_qr_scan,https://dc.lft.to/lastmile_qr_scan,No,No,15,"CREDITCARD,KEY",41,2021/11/01 11:17:49+00,,"Arlington, VA"
-77.1105903132853,38.8288947695511,28468891,38.828887,-77.110588,Kenmore Ave & Seminary Rd,classic,669,active,2021/11/01 04:14:55+00,8,0,3,0,0,Yes,Yes,Yes,Yes,https://dc.lft.to/lastmile_qr_scan,https://dc.lft.to/lastmile_qr_scan,No,No,11,"CREDITCARD,KEY",40,2021/11/01 11:17:49+00,,"Alexandria, VA"
-77.0714543058207,38.8960947845825,28468892,38.896087,-77.071452,Rosslyn Metro / Wilson Blvd & N Moore St,classic,670,active,2021/11/01 10:25:30+00,14,0,5,2,2,Yes,Yes,Yes,Yes,https://dc.lft.to/lastmile_qr_scan,https://dc.lft.to/lastmile_qr_scan,No,No,21,"CREDITCARD,KEY",41,2021/11/01 11:17:49+00,,"Arlington, VA"
-77.1621223331948,38.8871577797244,28468893,38.88715,-77.16212,W&OD Trail & Langston Blvd,classic,671,active,2021/11/01 09:39:41+00,14,0,1,0,0,Yes,Yes,Yes,Yes,https://dc.lft.to/lastmile_qr_scan,https://dc.lft.to/lastmile_qr_scan,No,No,15,"CREDITCARD,KEY",41,2021/11/01 11:17:49+00,,"Arlington, VA"
-76.8780072510709,39.0003178131742,28468894,39.00031,-76.878005,Roosevelt Center & Crescent Rd,classic,672,active,2021/11/01 04:19:56+00,13,0,2,0,0,Yes,Yes,Yes,Yes,https://dc.lft.to/lastmile_qr_scan,https://dc.lft.to/lastmile_qr_scan,No,No,15,"CREDITCARD,KEY",133,2021/11/01 11:17:49+00,,Prince George's County
-76.8912492562919,39.0061988135977,28468895,39.006191,-76.891247,Crescent Rd & Ridge Rd,classic,673,active,2021/11/01 04:55:36+00,12,0,3,0,0,Yes,Yes,Yes,Yes,https://dc.lft.to/lastmile_qr_scan,https://dc.lft.to/lastmile_qr_scan,No,No,15,"CREDITCARD,KEY",133,2021/11/01 11:17:49+00,,Prince George's County
-76.9162452642662,39.0024668117148,28468896,39.002459,-76.916243,Greenbelt Station Parkway,classic,674,active,2021/11/01 09:02:00+00,4,0,7,0,0,Yes,Yes,Yes,Yes,https://dc.lft.to/lastmile_qr_scan,https://dc.lft.to/lastmile_qr_scan,No,No,11,"CREDITCARD,KEY",133,2021/11/01 11:17:49+00,,Prince George's County
-77.3593433995045,38.9663517881974,28468897,38.966344,-77.359341,Baron Cameron Ave & North Hampton Ave,classic,675,active,2021/10/31 15:55:34+00,7,0,5,0,0,Yes,Yes,Yes,Yes,https://dc.lft.to/lastmile_qr_scan,https://dc.lft.to/lastmile_qr_scan,No,No,12,"CREDITCARD,KEY",104,2021/11/01 11:17:49+00,,"Fairfax, VA"
-77.3377773910629,38.9360687826211,28468898,38.936061,-77.337775,Ridge Heights Rd & Seahawks Dr,classic,676,active,2021/11/01 09:33:56+00,8,0,4,1,0,Yes,Yes,Yes,Yes,https://dc.lft.to/lastmile_qr_scan,https://dc.lft.to/lastmile_qr_scan,No,No,12,"CREDITCARD,KEY",104,2021/11/01 11:17:49+00,,"Fairfax, VA"
-77.3292843898212,38.9668557891545,28468899,38.966848,-77.329282,Becontree Ln & Goldenrain Ct,classic,677,active,2021/10/31 13:01:26+00,5,0,7,0,0,Yes,No,No,Yes,https://dc.lft.to/lastmile_qr_scan,https://dc.lft.to/lastmile_qr_scan,No,No,12,"CREDITCARD,KEY",104,2021/11/01 11:17:49+00,,"Fairfax, VA"
-77.3267633898904,38.9708147898776,28468900,38.970807,-77.326761,Ring Rd & North Shore Dr,classic,678,active,2021/10/31 04:59:29+00,1,0,11,0,0,Yes,Yes,Yes,Yes,https://dc.lft.to/lastmile_qr_scan,https://dc.lft.to/lastmile_qr_scan,No,No,12,"CREDITCARD,KEY",104,2021/11/01 11:17:49+00,,"Fairfax, VA"
-77.3518393971812,38.9736327894114,28468901,38.973625,-77.351837,Reston Pkwy & Bennington Woods Rd,classic,679,active,2021/10/31 15:44:46+00,10,0,2,0,0,Yes,Yes,Yes,Yes,https://dc.lft.to/lastmile_qr_scan,https://dc.lft.to/lastmile_qr_scan,No,No,12,"CREDITCARD,KEY",104,2021/11/01 11:17:49+00,,"Fairfax, VA"
-77.3343613911345,38.9659867892349,28468902,38.965979,-77.334359,Inlet Ct & Wiehle Dr,classic,680,active,2021/10/31 04:59:32+00,9,0,3,0,0,Yes,Yes,Yes,Yes,https://dc.lft.to/lastmile_qr_scan,https://dc.lft.to/lastmile_qr_scan,No,No,12,"CREDITCARD,KEY",104,2021/11/01 11:17:49+00,,"Fairfax, VA"
-77.3425483937775,38.9633217881117,28468903,38.963314,-77.342546,Fairway Dr & Hook Rd,classic,681,active,2021/10/31 20:16:24+00,6,0,6,0,0,Yes,Yes,Yes,Yes,https://dc.lft.to/lastmile_qr_scan,https://dc.lft.to/lastmile_qr_scan,No,No,12,"CREDITCARD,KEY",104,2021/11/01 11:17:49+00,,"Fairfax, VA"
-77.3484893955294,38.9667077884913,28468904,38.9667,-77.348487,Vantage Hill Rd & Wainwright Dr,classic,682,active,2021/10/31 04:59:32+00,10,0,2,0,0,Yes,Yes,Yes,Yes,https://dc.lft.to/lastmile_qr_scan,https://dc.lft.to/lastmile_qr_scan,No,No,12,"CREDITCARD,KEY",104,2021/11/01 11:17:49+00,,"Fairfax, VA"
-77.3392973929464,38.9590327873583,28468905,38.959025,-77.339295,Links Dr & Wedge Dr,classic,684,active,2021/11/01 04:55:41+00,2,0,10,0,0,Yes,Yes,Yes,Yes,https://dc.lft.to/lastmile_qr_scan,https://dc.lft.to/lastmile_qr_scan,No,No,12,"CREDITCARD,KEY",104,2021/11/01 11:17:49+00,,"Fairfax, VA"
-77.3535543959922,38.9440207838491,28468906,38.944013,-77.353552,Golf Course Sq and Golf Course Dr,classic,685,active,2021/10/31 18:29:37+00,7,0,5,0,0,Yes,Yes,Yes,Yes,https://dc.lft.to/lastmile_qr_scan,https://dc.lft.to/lastmile_qr_scan,No,No,12,"CREDITCARD,KEY",104,2021/11/01 11:17:49+00,,"Fairfax, VA"
-77.3623063991733,38.9433577837507,28468907,38.94335,-77.362304,South Lakes Dr and Reston Pkwy,classic,686,active,2021/11/01 09:02:03+00,9,0,2,0,1,Yes,Yes,Yes,Yes,https://dc.lft.to/lastmile_qr_scan,https://dc.lft.to/lastmile_qr_scan,No,No,12,"CREDITCARD,KEY",104,2021/11/01 11:17:49+00,,"Fairfax, VA"
-77.354069396371,38.9388047824894,28468908,38.938797,-77.354067,Olde Crafts Dr and Cartwright Pl,classic,687,active,2021/10/31 04:59:37+00,11,0,1,0,0,Yes,Yes,Yes,Yes,https://dc.lft.to/lastmile_qr_scan,https://dc.lft.to/lastmile_qr_scan,No,No,12,"CREDITCARD,KEY",104,2021/11/01 11:17:49+00,,"Fairfax, VA"
-77.3678703997556,38.9371537817569,28468909,38.937146,-77.367868,Green Range Dr and Glade Dr,classic,688,active,2021/10/31 04:59:33+00,10,0,2,0,0,Yes,Yes,Yes,Yes,https://dc.lft.to/lastmile_qr_scan,https://dc.lft.to/lastmile_qr_scan,No,No,12,"CREDITCARD,KEY",104,2021/11/01 11:17:49+00,,"Fairfax, VA"
-77.3665013997803,38.9415037827464,28468910,38.941496,-77.366499,South Gate Community Center,classic,689,active,2021/10/31 17:09:36+00,1,0,11,0,0,Yes,Yes,Yes,Yes,https://dc.lft.to/lastmile_qr_scan,https://dc.lft.to/lastmile_qr_scan,No,No,12,"CREDITCARD,KEY",104,2021/11/01 11:17:49+00,,"Fairfax, VA"
-77.3534563979653,38.9785107905371,28468911,38.978503,-77.353454,Lake Newport Rd and Autumn Ridge Cir,classic,690,active,2021/10/31 21:28:16+00,9,0,3,1,0,Yes,Yes,Yes,Yes,https://dc.lft.to/lastmile_qr_scan,https://dc.lft.to/lastmile_qr_scan,No,No,12,"CREDITCARD,KEY",104,2021/11/01 11:17:49+00,,"Fairfax, VA"
-77.3316553886854,38.933930782623,28468912,38.933923,-77.331653,Ridge Heights and Owl Cove Ln,classic,691,active,2021/10/31 17:46:48+00,4,0,8,0,0,Yes,Yes,Yes,Yes,https://dc.lft.to/lastmile_qr_scan,https://dc.lft.to/lastmile_qr_scan,No,No,12,"CREDITCARD,KEY",104,2021/11/01 11:17:49+00,,"Fairfax, VA"
-77.3458763934795,38.9305177809512,28468913,38.93051,-77.345874,Soapstone Dr Convenience Center,classic,692,active,2021/10/31 14:49:06+00,3,0,9,0,0,Yes,Yes,Yes,Yes,https://dc.lft.to/lastmile_qr_scan,https://dc.lft.to/lastmile_qr_scan,No,No,12,"CREDITCARD,KEY",104,2021/11/01 11:17:49+00,,"Fairfax, VA"
-77.0772033058117,38.8635637782083,28468914,38.863556,-77.077201,Columbia Pike & S Scott St/12th St S,classic,693,active,2021/11/01 04:45:03+00,7,0,4,0,0,Yes,Yes,Yes,Yes,https://dc.lft.to/lastmile_qr_scan,https://dc.lft.to/lastmile_qr_scan,No,No,11,"CREDITCARD,KEY",41,2021/11/01 11:17:49+00,,"Arlington, VA"
-77.0051762824984,38.8531317783585,28468915,38.853124,-77.005174,St. Elizabeths West Campus/DHS ,classic,694,active,2021/11/01 07:45:59+00,8,0,11,0,0,Yes,Yes,Yes,Yes,https://dc.lft.to/lastmile_qr_scan,https://dc.lft.to/lastmile_qr_scan,No,No,19,"CREDITCARD,KEY",42,2021/11/01 11:17:49+00,,"Washington, DC"
-77.0440972956544,38.8705687802218,28468916,38.870561,-77.044095,Long Bridge Aquatic Center,classic,695,active,2021/11/01 06:57:37+00,5,0,7,0,0,Yes,Yes,Yes,Yes,https://dc.lft.to/lastmile_qr_scan,https://dc.lft.to/lastmile_qr_scan,No,No,12,"CREDITCARD,KEY",41,2021/11/01 11:17:49+00,,"Arlington, VA"
-77.1163413172571,38.8570567748715,28468917,38.857049,-77.116339,8th Rd & S Frederick St,classic,696,active,2021/10/31 13:00:31+00,10,0,1,0,1,Yes,Yes,Yes,Yes,https://dc.lft.to/lastmile_qr_scan,https://dc.lft.to/lastmile_qr_scan,No,No,12,"CREDITCARD,KEY",41,2021/11/01 11:17:49+00,,"Arlington, VA"
-76.9960252836905,38.9224117924912,28468918,38.922404,-76.996023,MBT & Bryant St NE,classic,697,active,2021/11/01 11:04:32+00,14,0,4,0,1,Yes,Yes,Yes,Yes,https://dc.lft.to/lastmile_qr_scan,https://dc.lft.to/lastmile_qr_scan,No,No,19,"CREDITCARD,KEY",42,2021/11/01 11:17:49+00,,"Washington, DC"
-77.1055663115217,38.8185167681501,28468919,38.818509,-77.105564,N Howard St & N Imboden St,classic,698,active,2021/11/01 04:09:55+00,14,0,1,0,0,Yes,Yes,Yes,Yes,https://dc.lft.to/lastmile_qr_scan,https://dc.lft.to/lastmile_qr_scan,No,No,15,"CREDITCARD,KEY",40,2021/11/01 11:17:49+00,,"Alexandria, VA"
-77.2228103516183,38.8786087754491,28468920,38.878601,-77.222808,Hartland Rd & Harte Pl,classic,701,active,2021/10/31 04:59:33+00,8,0,3,0,0,Yes,Yes,Yes,Yes,https://dc.lft.to/lastmile_qr_scan,https://dc.lft.to/lastmile_qr_scan,No,No,11,"CREDITCARD,KEY",104,2021/11/01 11:17:49+00,,"Fairfax, VA"
-77.3418253951234,38.9832067918873,28468921,38.983199,-77.341823,North Village and Park Garden,classic,702,active,2021/10/31 04:59:38+00,9,0,3,0,0,Yes,Yes,Yes,Yes,https://dc.lft.to/lastmile_qr_scan,https://dc.lft.to/lastmile_qr_scan,No,No,12,"CREDITCARD,KEY",104,2021/11/01 11:17:49+00,,"Fairfax, VA"
-77.0226862913681,38.9177237912713,28468922,38.917716,-77.022684,8th & V St NW,classic,704,active,2021/11/01 09:18:59+00,18,0,1,0,0,Yes,Yes,Yes,Yes,https://dc.lft.to/lastmile_qr_scan,https://dc.lft.to/lastmile_qr_scan,No,No,19,"CREDITCARD,KEY",42,2021/11/01 11:17:49+00,,"Washington, DC"
-77.0385682963957,38.9098657884982,28468923,38.909858,-77.038566,17th & P St NW,classic,705,active,2021/11/01 10:56:03+00,14,0,5,1,0,Yes,Yes,Yes,Yes,https://dc.lft.to/lastmile_qr_scan,https://dc.lft.to/lastmile_qr_scan,No,No,19,"CREDITCARD,KEY",42,2021/11/01 11:17:49+00,,"Washington, DC"
-77.1036643170591,38.9273017901462,28468924,38.927294,-77.103662,Arizona Ave & MacArthur Blvd NW,classic,706,active,2021/11/01 10:56:44+00,12,0,7,0,0,Yes,Yes,Yes,Yes,https://dc.lft.to/lastmile_qr_scan,https://dc.lft.to/lastmile_qr_scan,No,No,19,"CREDITCARD,KEY",42,2021/11/01 11:17:49+00,,"Washington, DC"
-77.0271732929698,38.918206791206,28468925,38.918199,-77.027171,11th & V st NW,classic,707,active,2021/11/01 11:07:53+00,10,0,9,0,0,Yes,Yes,Yes,Yes,https://dc.lft.to/lastmile_qr_scan,https://dc.lft.to/lastmile_qr_scan,No,No,19,"CREDITCARD,KEY",42,2021/11/01 11:17:49+00,,"Washington, DC"
-77.0431842967445,38.8984197860007,28468926,38.898412,-77.043182,19th & G St NW,classic,357,active,2021/11/01 11:16:38+00,5,0,18,2,0,Yes,Yes,Yes,Yes,https://dc.lft.to/lastmile_qr_scan,https://dc.lft.to/lastmile_qr_scan,No,No,23,"CREDITCARD,KEY",42,2021/11/01 11:17:49+00,,"Washington, DC"
-77.0035622855347,38.9147587907588,28468927,38.914751,-77.00356,2nd St & Seaton Pl NE,classic,358,active,2021/11/01 10:52:41+00,14,0,3,0,2,Yes,Yes,Yes,Yes,https://dc.lft.to/lastmile_qr_scan,https://dc.lft.to/lastmile_qr_scan,No,No,19,"CREDITCARD,KEY",42,2021/11/01 11:17:49+00,,"Washington, DC"
-77.1271223216406,38.8765357789328,28468928,38.876528,-77.12712,Wilson Blvd & N Illinois St ,classic,359,active,2021/11/01 10:25:02+00,6,0,9,1,0,Yes,Yes,Yes,Yes,https://dc.lft.to/lastmile_qr_scan,https://dc.lft.to/lastmile_qr_scan,No,No,15,"CREDITCARD,KEY",41,2021/11/01 11:17:49+00,,"Arlington, VA"
-77.0681233025134,38.8621577778891,28468929,38.86215,-77.068121,Army Navy Dr & S Nash St,classic,364,active,2021/11/01 10:41:24+00,10,0,1,1,0,Yes,Yes,Yes,Yes,https://dc.lft.to/lastmile_qr_scan,https://dc.lft.to/lastmile_qr_scan,No,No,11,"CREDITCARD,KEY",41,2021/11/01 11:17:49+00,,"Arlington, VA"
-77.0601753023068,38.9028337863549,28468930,38.902826,-77.060173,Thomas Jefferson St NW & Water/K St NW,classic,365,active,2021/11/01 09:37:49+00,0,0,19,1,0,Yes,Yes,Yes,Yes,https://dc.lft.to/lastmile_qr_scan,https://dc.lft.to/lastmile_qr_scan,No,No,19,"CREDITCARD,KEY",42,2021/11/01 11:17:49+00,,"Washington, DC"
-77.0270272929681,38.9137687897842,28468931,38.913761,-77.027025,11th & S St NW,classic,367,active,2021/11/01 11:03:13+00,16,0,6,1,1,Yes,Yes,Yes,Yes,https://dc.lft.to/lastmile_qr_scan,https://dc.lft.to/lastmile_qr_scan,No,No,23,"CREDITCARD,KEY",42,2021/11/01 11:17:49+00,,"Washington, DC"
-77.0878723086052,38.8661277779388,28468932,38.86612,-77.08787,Walter Reed Dr & 8th St S,classic,368,active,2021/11/01 07:17:53+00,8,0,7,1,0,Yes,Yes,Yes,Yes,https://dc.lft.to/lastmile_qr_scan,https://dc.lft.to/lastmile_qr_scan,No,No,15,"CREDITCARD,KEY",41,2021/11/01 11:17:49+00,,"Arlington, VA"
-77.0036682849004,38.8996777877445,28468933,38.89967,-77.003666,2nd & G St NE,classic,369,active,2021/11/01 10:59:01+00,11,0,12,0,0,Yes,Yes,Yes,Yes,https://dc.lft.to/lastmile_qr_scan,https://dc.lft.to/lastmile_qr_scan,No,No,23,"CREDITCARD,KEY",42,2021/11/01 11:17:49+00,,"Washington, DC"
-77.0227722905871,38.9086477891709,28468934,38.90864,-77.02277,8th & O St NW,classic,370,active,2021/11/01 11:04:42+00,15,0,3,0,1,Yes,Yes,Yes,Yes,https://dc.lft.to/lastmile_qr_scan,https://dc.lft.to/lastmile_qr_scan,No,No,19,"CREDITCARD,KEY",42,2021/11/01 11:17:49+00,,"Washington, DC"
-77.0278572956753,38.9613467995111,28468935,38.961339,-77.027855,Georgia & Missouri Ave NW,classic,371,active,2021/11/01 10:11:00+00,17,0,2,0,0,Yes,Yes,Yes,Yes,https://dc.lft.to/lastmile_qr_scan,https://dc.lft.to/lastmile_qr_scan,No,No,19,"CREDITCARD,KEY",42,2021/11/01 11:17:49+00,,"Washington, DC"
-76.974830275165,38.8944817883883,28468936,38.894474,-76.974828,Oklahoma Ave & D St NE,classic,373,active,2021/11/01 10:00:37+00,9,0,10,2,0,Yes,Yes,Yes,Yes,https://dc.lft.to/lastmile_qr_scan,https://dc.lft.to/lastmile_qr_scan,No,No,19,"CREDITCARD,KEY",42,2021/11/01 11:17:49+00,,"Washington, DC"
-76.992788281593,38.8962337876823,28468937,38.896226,-76.992786,Maryland Ave & E St NE,classic,374,active,2021/11/01 11:16:21+00,8,0,9,0,2,Yes,Yes,Yes,Yes,https://dc.lft.to/lastmile_qr_scan,https://dc.lft.to/lastmile_qr_scan,No,No,19,"CREDITCARD,KEY",42,2021/11/01 11:17:49+00,,"Washington, DC"
-76.9836852796733,38.9156117921621,28468938,38.915604,-76.983683,New York Ave & Hecht Ave NE,classic,375,active,2021/11/01 10:44:48+00,10,0,13,2,0,Yes,Yes,Yes,Yes,https://dc.lft.to/lastmile_qr_scan,https://dc.lft.to/lastmile_qr_scan,No,No,23,"CREDITCARD,KEY",42,2021/11/01 11:17:49+00,,"Washington, DC"
-77.0805923118677,38.9461897940655,28468939,38.946182,-77.08059,Yuma St & Tenley Circle NW,classic,376,active,2021/11/01 04:55:30+00,19,0,0,0,0,Yes,Yes,Yes,Yes,https://dc.lft.to/lastmile_qr_scan,https://dc.lft.to/lastmile_qr_scan,No,No,19,"CREDITCARD,KEY",42,2021/11/01 11:17:49+00,,"Washington, DC"
-77.0769883130587,38.9941208040896,28468940,38.994113,-77.076986,Connecticut Ave & Chevy Chase Lake Dr,classic,377,active,2021/11/01 07:02:08+00,5,0,10,5,0,Yes,Yes,Yes,Yes,https://dc.lft.to/lastmile_qr_scan,https://dc.lft.to/lastmile_qr_scan,No,No,15,"CREDITCARD,KEY",44,2021/11/01 11:17:49+00,,"Montgomery County, MD (South)"
-77.1947763571939,39.1053028223187,28468941,39.105295,-77.194774,Key West Ave & Siesta Key Way,classic,378,active,2021/11/01 04:55:30+00,13,0,2,0,0,Yes,Yes,Yes,Yes,https://dc.lft.to/lastmile_qr_scan,https://dc.lft.to/lastmile_qr_scan,No,No,15,"CREDITCARD,KEY",43,2021/11/01 11:17:49+00,,"Montgomery County, MD (North)"
-77.1180113203113,38.898308783709,28468942,38.898301,-77.118009,Langston Blvd & N Woodstock St,classic,379,active,2021/11/01 04:55:34+00,10,0,9,0,0,Yes,Yes,Yes,Yes,https://dc.lft.to/lastmile_qr_scan,https://dc.lft.to/lastmile_qr_scan,No,No,19,"CREDITCARD,KEY",41,2021/11/01 11:17:49+00,,"Arlington, VA"
-77.0440992919419,38.8127257687539,28468943,38.812718,-77.044097,Saint Asaph St & Madison St,classic,380,active,2021/11/01 10:09:55+00,2,0,13,0,0,Yes,Yes,Yes,Yes,https://dc.lft.to/lastmile_qr_scan,https://dc.lft.to/lastmile_qr_scan,No,No,15,"CREDITCARD,KEY",40,2021/11/01 11:17:49+00,,"Alexandria, VA"
-77.0598192967339,38.8070477673226,28468944,38.80704,-77.059817,King St Metro North / Cameron St,classic,381,active,2021/11/01 10:38:09+00,6,0,9,0,0,Yes,Yes,Yes,Yes,https://dc.lft.to/lastmile_qr_scan,https://dc.lft.to/lastmile_qr_scan,No,No,15,"CREDITCARD,KEY",40,2021/11/01 11:17:49+00,,"Alexandria, VA"
-77.0494702942199,38.8134927690644,28468945,38.813485,-77.049468,Madison St & N Henry St,classic,382,active,2021/11/01 11:14:53+00,10,0,5,1,0,Yes,Yes,Yes,Yes,https://dc.lft.to/lastmile_qr_scan,https://dc.lft.to/lastmile_qr_scan,No,No,15,"CREDITCARD,KEY",40,2021/11/01 11:17:49+00,,"Alexandria, VA"
-77.0978843202859,38.9993858043246,28468946,38.999378,-77.097882,Medical Center Metro ,classic,383,active,2021/11/01 07:49:30+00,11,0,8,3,0,Yes,Yes,Yes,Yes,https://dc.lft.to/lastmile_qr_scan,https://dc.lft.to/lastmile_qr_scan,No,No,19,"CREDITCARD,KEY",44,2021/11/01 11:17:49+00,,"Montgomery County, MD (South)"
-77.1276733220035,38.8848367803519,28468947,38.884829,-77.127671,Washington Blvd & N Frederick St,classic,384,active,2021/11/01 08:25:39+00,11,0,0,0,0,Yes,Yes,Yes,Yes,https://dc.lft.to/lastmile_qr_scan,https://dc.lft.to/lastmile_qr_scan,No,No,11,"CREDITCARD,KEY",41,2021/11/01 11:17:49+00,,"Arlington, VA"
-77.084638313464,38.9582747971512,28468948,38.958267,-77.084636,Wisconsin Ave & Ingomar St NW,classic,385,active,2021/11/01 04:55:32+00,18,0,1,0,0,Yes,Yes,Yes,Yes,https://dc.lft.to/lastmile_qr_scan,https://dc.lft.to/lastmile_qr_scan,No,No,19,"CREDITCARD,KEY",42,2021/11/01 11:17:49+00,,"Washington, DC"
-77.0362522966734,38.9289007927116,28468949,38.928893,-77.03625,16th & Irving St NW,classic,386,active,2021/11/01 10:48:21+00,18,0,1,1,0,Yes,Yes,Yes,Yes,https://dc.lft.to/lastmile_qr_scan,https://dc.lft.to/lastmile_qr_scan,No,No,19,"CREDITCARD,KEY",42,2021/11/01 11:17:49+00,,"Washington, DC"
-77.0362802955625,38.9126597895475,28468950,38.912652,-77.036278,16th & R St NW,classic,387,active,2021/11/01 08:47:15+00,17,0,0,0,2,Yes,Yes,Yes,Yes,https://dc.lft.to/lastmile_qr_scan,https://dc.lft.to/lastmile_qr_scan,No,No,19,"CREDITCARD,KEY",42,2021/11/01 11:17:49+00,,"Washington, DC"
-77.0511703060843,38.9996868059988,28468951,38.999679,-77.051168,Lyttonsville Rd & Lyttonsville Pl,classic,388,active,2021/11/01 10:12:49+00,10,0,5,0,0,Yes,Yes,Yes,Yes,https://dc.lft.to/lastmile_qr_scan,https://dc.lft.to/lastmile_qr_scan,No,No,15,"CREDITCARD,KEY",44,2021/11/01 11:17:49+00,,"Montgomery County, MD (South)"
-77.0935243172314,38.9798828010127,28468952,38.979875,-77.093522,Woodmont Ave & Strathmore St,classic,389,active,2021/11/01 04:55:34+00,8,0,3,0,0,Yes,Yes,Yes,Yes,https://dc.lft.to/lastmile_qr_scan,https://dc.lft.to/lastmile_qr_scan,No,No,11,"CREDITCARD,KEY",44,2021/11/01 11:17:49+00,,"Montgomery County, MD (South)"
-77.0317392935592,38.9036657880713,28468953,38.903658,-77.031737,14th & L St NW,classic,390,active,2021/11/01 11:01:10+00,5,0,14,0,0,Yes,Yes,Yes,Yes,https://dc.lft.to/lastmile_qr_scan,https://dc.lft.to/lastmile_qr_scan,No,No,19,"CREDITCARD,KEY",42,2021/11/01 11:17:49+00,,"Washington, DC"
-77.0123672875964,38.9086507890582,28468954,38.908643,-77.012365,1st & O St NW,classic,391,active,2021/11/01 11:13:23+00,13,0,2,0,0,Yes,Yes,Yes,Yes,https://dc.lft.to/lastmile_qr_scan,https://dc.lft.to/lastmile_qr_scan,No,No,15,"CREDITCARD,KEY",42,2021/11/01 11:17:49+00,,"Washington, DC"
-77.0081352814119,38.8315237741553,28468955,38.831516,-77.008133,South Capitol & Atlantic St SW,classic,392,active,2021/11/01 05:38:48+00,14,0,5,0,0,Yes,Yes,Yes,Yes,https://dc.lft.to/lastmile_qr_scan,https://dc.lft.to/lastmile_qr_scan,No,No,19,"CREDITCARD,KEY",42,2021/11/01 11:17:49+00,,"Washington, DC"
-77.0415462960434,38.8935187857528,28468956,38.893511,-77.041544,18th & C St NW,classic,393,active,2021/11/01 09:28:43+00,15,0,4,2,0,Yes,Yes,Yes,Yes,https://dc.lft.to/lastmile_qr_scan,https://dc.lft.to/lastmile_qr_scan,No,No,19,"CREDITCARD,KEY",42,2021/11/01 11:17:49+00,,"Washington, DC"
-77.0487302991936,38.9094017880248,28468957,38.909394,-77.048728,22nd & P ST NW,classic,394,active,2021/11/01 11:15:56+00,8,0,10,1,1,Yes,Yes,Yes,Yes,https://dc.lft.to/lastmile_qr_scan,https://dc.lft.to/lastmile_qr_scan,No,No,19,"CREDITCARD,KEY",42,2021/11/01 11:17:49+00,,"Washington, DC"
-77.0387233016735,38.9956888061049,28468958,38.995681,-77.038721,East West Hwy & 16th St,classic,395,active,2021/11/01 06:21:25+00,19,0,0,0,0,Yes,Yes,Yes,Yes,https://dc.lft.to/lastmile_qr_scan,https://dc.lft.to/lastmile_qr_scan,No,No,19,"CREDITCARD,KEY",44,2021/11/01 11:17:49+00,,"Montgomery County, MD (South)"
-77.0447022916331,38.7992747664325,28468959,38.799267,-77.0447,Royal St & Wilkes St,classic,396,active,2021/11/01 10:12:49+00,0,0,15,0,0,Yes,Yes,Yes,Yes,https://dc.lft.to/lastmile_qr_scan,https://dc.lft.to/lastmile_qr_scan,No,No,15,"CREDITCARD,KEY",40,2021/11/01 11:17:49+00,,"Alexandria, VA"
-77.0323772955346,38.9252917919799,28468960,38.925284,-77.032375,14th & Girard St NW,classic,397,active,2021/11/01 11:11:18+00,19,0,1,0,2,Yes,Yes,Yes,Yes,https://dc.lft.to/lastmile_qr_scan,https://dc.lft.to/lastmile_qr_scan,No,No,23,"CREDITCARD,KEY",42,2021/11/01 11:17:49+00,,"Washington, DC"
-77.0492672943619,38.8227457711762,28468961,38.822738,-77.049265,Potomac Ave & Main Line Blvd,classic,398,active,2021/11/01 06:51:47+00,11,0,8,0,0,Yes,Yes,Yes,Yes,https://dc.lft.to/lastmile_qr_scan,https://dc.lft.to/lastmile_qr_scan,No,No,19,"CREDITCARD,KEY",40,2021/11/01 11:17:49+00,,"Alexandria, VA"
-77.0271422920229,38.9084377890235,28468962,38.90843,-77.02714,11th & O St NW,classic,399,active,2021/11/01 11:14:42+00,14,0,3,0,2,Yes,Yes,Yes,Yes,https://dc.lft.to/lastmile_qr_scan,https://dc.lft.to/lastmile_qr_scan,No,No,19,"CREDITCARD,KEY",42,2021/11/01 11:17:49+00,,"Washington, DC"
-77.0260122903324,38.8843307837689,28468963,38.884323,-77.02601,10th St & L'Enfant Plaza SW,classic,400,active,2021/11/01 09:22:06+00,14,0,9,0,0,Yes,Yes,Yes,Yes,https://dc.lft.to/lastmile_qr_scan,https://dc.lft.to/lastmile_qr_scan,No,No,23,"CREDITCARD,KEY",42,2021/11/01 11:17:49+00,,"Washington, DC"
-77.0651173065664,38.9471637953262,28468964,38.947156,-77.065115,Connecticut Ave & Yuma St NW,classic,401,active,2021/11/01 11:03:30+00,19,0,0,0,0,Yes,Yes,Yes,Yes,https://dc.lft.to/lastmile_qr_scan,https://dc.lft.to/lastmile_qr_scan,No,No,19,"CREDITCARD,KEY",42,2021/11/01 11:17:49+00,,"Washington, DC"
-77.0031372843965,38.8949797870411,28468965,38.894972,-77.003135,2nd St & Massachusetts Ave NE,classic,402,active,2021/11/01 10:44:29+00,0,0,23,0,0,Yes,Yes,Yes,Yes,https://dc.lft.to/lastmile_qr_scan,https://dc.lft.to/lastmile_qr_scan,No,No,23,"CREDITCARD,KEY",42,2021/11/01 11:17:49+00,,"Washington, DC"
-77.0860333056682,38.8284447701264,28468966,38.828437,-77.086031,Radford St & Osage St,classic,403,active,2021/11/01 04:55:32+00,16,0,7,1,0,Yes,Yes,Yes,Yes,https://dc.lft.to/lastmile_qr_scan,https://dc.lft.to/lastmile_qr_scan,No,No,23,"CREDITCARD,KEY",40,2021/11/01 11:17:49+00,,"Alexandria, VA"
-77.1564293315542,38.8853287798081,28468967,38.885321,-77.156427,East Falls Church Metro / Sycamore St & 19th St N,classic,404,active,2021/11/01 10:12:25+00,6,0,13,1,0,Yes,Yes,Yes,Yes,https://dc.lft.to/lastmile_qr_scan,https://dc.lft.to/lastmile_qr_scan,No,No,19,"CREDITCARD,KEY",41,2021/11/01 11:17:49+00,,"Arlington, VA"
-77.1352733247722,38.8809997789882,28468968,38.880992,-77.135271,Kennebec St & 11th St N,classic,405,active,2021/11/01 07:59:12+00,9,0,5,0,1,Yes,Yes,Yes,Yes,https://dc.lft.to/lastmile_qr_scan,https://dc.lft.to/lastmile_qr_scan,No,No,15,"CREDITCARD,KEY",41,2021/11/01 11:17:49+00,,"Arlington, VA"
-77.0617172978177,38.8127187686909,28468969,38.812711,-77.061715,Commonwealth Ave & Oak St,classic,406,active,2021/11/01 08:24:36+00,6,0,9,4,0,Yes,Yes,Yes,Yes,https://dc.lft.to/lastmile_qr_scan,https://dc.lft.to/lastmile_qr_scan,No,No,15,"CREDITCARD,KEY",40,2021/11/01 11:17:49+00,,"Alexandria, VA"
-77.0628232980435,38.8200657694527,28468970,38.820058,-77.062821,Commonwealth Ave & E Monroe Ave,classic,407,active,2021/11/01 04:55:35+00,6,0,9,0,0,Yes,Yes,Yes,Yes,https://dc.lft.to/lastmile_qr_scan,https://dc.lft.to/lastmile_qr_scan,No,No,15,"CREDITCARD,KEY",40,2021/11/01 11:17:49+00,,"Alexandria, VA"
-77.0172492877619,38.8905037852757,28468971,38.890496,-77.017247,4th St & Madison Dr NW,classic,408,active,2021/11/01 10:53:14+00,18,0,8,1,5,Yes,Yes,Yes,Yes,https://dc.lft.to/lastmile_qr_scan,https://dc.lft.to/lastmile_qr_scan,No,No,31,"CREDITCARD,KEY",42,2021/11/01 11:17:49+00,,"Washington, DC"
-77.0493852983517,38.8905467842316,28468972,38.890539,-77.049383,Henry Bacon Dr & Lincoln Memorial Circle NW,classic,409,active,2021/11/01 11:08:50+00,11,0,7,0,0,Yes,Yes,Yes,Yes,https://dc.lft.to/lastmile_qr_scan,https://dc.lft.to/lastmile_qr_scan,No,No,19,"CREDITCARD,KEY",42,2021/11/01 11:17:49+00,,"Washington, DC"
-77.0383272942717,38.8881047840981,28468973,38.888097,-77.038325,17th St & Independence Ave SW,classic,410,active,2021/11/01 11:12:38+00,10,0,9,0,0,Yes,Yes,Yes,Yes,https://dc.lft.to/lastmile_qr_scan,https://dc.lft.to/lastmile_qr_scan,No,No,19,"CREDITCARD,KEY",42,2021/11/01 11:17:49+00,,"Washington, DC"
-77.048702292417,38.7981407654596,28468974,38.798133,-77.0487,Franklin St & S Washington St,classic,411,active,2021/11/01 10:13:48+00,4,0,14,2,1,Yes,Yes,Yes,Yes,https://dc.lft.to/lastmile_qr_scan,https://dc.lft.to/lastmile_qr_scan,No,No,19,"CREDITCARD,KEY",40,2021/11/01 11:17:49+00,,"Alexandria, VA"
-77.0640182995385,38.8434297742027,28468975,38.843422,-77.064016,Mount Vernon Ave & Four Mile Run Park,classic,412,active,2021/11/01 08:10:04+00,10,0,5,0,0,Yes,Yes,Yes,Yes,https://dc.lft.to/lastmile_qr_scan,https://dc.lft.to/lastmile_qr_scan,No,No,15,"CREDITCARD,KEY",40,2021/11/01 11:17:49+00,,"Alexandria, VA"
-77.0160082891025,38.9024137876761,28468976,38.902406,-77.016006,4th St & K St NW,classic,413,active,2021/11/01 11:16:55+00,15,0,7,0,1,Yes,Yes,Yes,Yes,https://dc.lft.to/lastmile_qr_scan,https://dc.lft.to/lastmile_qr_scan,No,No,23,"CREDITCARD,KEY",42,2021/11/01 11:17:49+00,,"Washington, DC"
-77.0630953000042,38.841298773696,28468977,38.841291,-77.063093,Mount Vernon Ave & Bruce St,classic,414,active,2021/11/01 04:55:36+00,2,0,13,0,0,Yes,Yes,Yes,Yes,https://dc.lft.to/lastmile_qr_scan,https://dc.lft.to/lastmile_qr_scan,No,No,15,"CREDITCARD,KEY",40,2021/11/01 11:17:49+00,,"Alexandria, VA"
-77.0537682935461,38.7975647656991,28468978,38.797557,-77.053766,Lee Center,classic,415,active,2021/11/01 04:55:36+00,13,0,2,1,0,Yes,Yes,Yes,Yes,https://dc.lft.to/lastmile_qr_scan,https://dc.lft.to/lastmile_qr_scan,No,No,15,"CREDITCARD,KEY",40,2021/11/01 11:17:49+00,,"Alexandria, VA"
-77.0477852935403,38.8187557701213,28468979,38.818748,-77.047783,Powhatan St & Bashford Ln,classic,416,active,2021/11/01 10:56:47+00,5,0,8,2,2,Yes,Yes,Yes,Yes,https://dc.lft.to/lastmile_qr_scan,https://dc.lft.to/lastmile_qr_scan,No,No,15,"CREDITCARD,KEY",40,2021/11/01 11:17:49+00,,"Alexandria, VA"
-77.0478462936163,38.8295527720493,28468980,38.829545,-77.047844,Potomac Ave & Swann Ave,classic,417,active,2021/11/01 10:13:53+00,9,0,10,0,0,Yes,Yes,Yes,Yes,https://dc.lft.to/lastmile_qr_scan,https://dc.lft.to/lastmile_qr_scan,No,No,19,"CREDITCARD,KEY",40,2021/11/01 11:17:49+00,,"Alexandria, VA"
-77.0322262949576,38.9285597923758,28468981,38.928552,-77.032224,14th & Irving St NW,classic,418,active,2021/11/01 11:13:26+00,25,0,5,0,1,Yes,Yes,Yes,Yes,https://dc.lft.to/lastmile_qr_scan,https://dc.lft.to/lastmile_qr_scan,No,No,31,"CREDITCARD,KEY",42,2021/11/01 11:17:49+00,,"Washington, DC"
-77.0344532940785,38.9011437872399,28468982,38.901136,-77.034451,Vermont Ave & I St NW,classic,419,active,2021/11/01 11:14:01+00,5,0,20,2,0,Yes,Yes,Yes,Yes,https://dc.lft.to/lastmile_qr_scan,https://dc.lft.to/lastmile_qr_scan,No,No,25,"CREDITCARD,KEY",42,2021/11/01 11:17:49+00,,"Washington, DC"
-77.0802193118679,38.9498207950103,28468983,38.949813,-77.080217,Wisconsin Ave & Brandywine St NW,classic,420,active,2021/10/31 19:04:01+00,25,0,0,0,0,Yes,Yes,Yes,Yes,https://dc.lft.to/lastmile_qr_scan,https://dc.lft.to/lastmile_qr_scan,No,No,25,"CREDITCARD,KEY",42,2021/11/01 11:17:49+00,,"Washington, DC"
-76.9719252759948,38.9126377918328,28468984,38.91263,-76.971923,24th & R St NE / National Arboretum,classic,421,active,2021/11/01 11:06:38+00,9,0,8,0,2,Yes,Yes,Yes,Yes,https://dc.lft.to/lastmile_qr_scan,https://dc.lft.to/lastmile_qr_scan,No,No,19,"CREDITCARD,KEY",42,2021/11/01 11:17:49+00,,"Washington, DC"
-76.9259092601544,38.8974147904343,28468985,38.897407,-76.925907,Division Ave & Foote St NE,classic,422,active,2021/11/01 04:55:37+00,8,0,7,0,0,Yes,Yes,Yes,Yes,https://dc.lft.to/lastmile_qr_scan,https://dc.lft.to/lastmile_qr_scan,No,No,15,"CREDITCARD,KEY",42,2021/11/01 11:17:49+00,,"Washington, DC"
-76.9823612768122,38.8707027830221,28468986,38.870695,-76.982359,16th & Q St SE / Anacostia HS,classic,423,active,2021/11/01 08:54:28+00,13,0,10,0,0,Yes,Yes,Yes,Yes,https://dc.lft.to/lastmile_qr_scan,https://dc.lft.to/lastmile_qr_scan,No,No,23,"CREDITCARD,KEY",42,2021/11/01 11:17:49+00,,"Washington, DC"
-77.2406563598221,38.9292687852357,28468987,38.929261,-77.240654,Spring Hill Metro,classic,424,active,2021/10/31 14:31:32+00,13,0,2,0,0,Yes,Yes,Yes,Yes,https://dc.lft.to/lastmile_qr_scan,https://dc.lft.to/lastmile_qr_scan,No,No,15,"CREDITCARD,KEY",104,2021/11/01 11:17:49+00,,"Fairfax, VA"
-77.2359573583339,38.9240377837659,28468988,38.92403,-77.235955,Westpark Dr & Leesburg Pike,classic,425,active,2021/11/01 04:55:35+00,7,0,4,1,0,Yes,Yes,Yes,Yes,https://dc.lft.to/lastmile_qr_scan,https://dc.lft.to/lastmile_qr_scan,No,No,11,"CREDITCARD,KEY",104,2021/11/01 11:17:49+00,,"Fairfax, VA"
-77.2211813541413,38.9194827836137,28468989,38.919475,-77.221179,Tysons One Pl & Chain Bridge Rd,classic,427,active,2021/10/31 10:43:45+00,2,0,8,1,1,Yes,Yes,Yes,Yes,https://dc.lft.to/lastmile_qr_scan,https://dc.lft.to/lastmile_qr_scan,No,No,11,"CREDITCARD,KEY",104,2021/11/01 11:17:49+00,,"Fairfax, VA"
-77.2221173541546,38.9209467844861,28468990,38.920939,-77.222115,Tysons Corner Station,classic,428,active,2021/11/01 09:16:53+00,1,0,9,0,1,Yes,Yes,Yes,Yes,https://dc.lft.to/lastmile_qr_scan,https://dc.lft.to/lastmile_qr_scan,No,No,11,"CREDITCARD,KEY",104,2021/11/01 11:17:49+00,,"Fairfax, VA"
-77.2176663524272,38.9244447852293,28468991,38.924437,-77.217664,Westpark & Jones Branch Dr,classic,429,active,2021/10/31 20:09:31+00,4,0,7,0,0,Yes,Yes,Yes,Yes,https://dc.lft.to/lastmile_qr_scan,https://dc.lft.to/lastmile_qr_scan,No,No,11,"CREDITCARD,KEY",104,2021/11/01 11:17:49+00,,"Fairfax, VA"
-77.2192633540614,38.9319187866033,28468992,38.931911,-77.219261,Jones Branch & Westbranch Dr,classic,430,active,2021/10/31 14:23:35+00,5,0,8,0,0,Yes,Yes,Yes,Yes,https://dc.lft.to/lastmile_qr_scan,https://dc.lft.to/lastmile_qr_scan,No,No,13,"CREDITCARD,KEY",104,2021/11/01 11:17:49+00,,"Fairfax, VA"
-77.2253963556033,38.9289267853653,28468993,38.928919,-77.225394,Westpark & Park Run Dr,classic,431,active,2021/11/01 10:51:41+00,10,0,1,0,0,Yes,Yes,Yes,Yes,https://dc.lft.to/lastmile_qr_scan,https://dc.lft.to/lastmile_qr_scan,No,No,11,"CREDITCARD,KEY",104,2021/11/01 11:17:49+00,,"Fairfax, VA"
-77.2318273571711,38.9326437865206,28468994,38.932636,-77.231825,Tysons West Transit Center,classic,432,active,2021/11/01 04:55:37+00,11,0,0,0,0,Yes,Yes,Yes,Yes,https://dc.lft.to/lastmile_qr_scan,https://dc.lft.to/lastmile_qr_scan,No,No,11,"CREDITCARD,KEY",104,2021/11/01 11:17:49+00,,"Fairfax, VA"
-77.3386883928026,38.9700537892533,28468995,38.970046,-77.338686,North Shore & Cameron Crescent Dr/Crescent Apartments,classic,433,active,2021/10/31 04:59:17+00,8,0,3,0,0,Yes,Yes,Yes,Yes,https://dc.lft.to/lastmile_qr_scan,https://dc.lft.to/lastmile_qr_scan,No,No,11,"CREDITCARD,KEY",104,2021/11/01 11:17:49+00,,"Fairfax, VA"
-77.3619043999736,38.9625317872877,28468996,38.962524,-77.361902,Town Center Pkwy & Bowman Towne Dr,classic,434,active,2021/10/31 15:36:53+00,5,0,10,0,0,Yes,Yes,Yes,Yes,https://dc.lft.to/lastmile_qr_scan,https://dc.lft.to/lastmile_qr_scan,No,No,15,"CREDITCARD,KEY",104,2021/11/01 11:17:49+00,,"Fairfax, VA"
-77.3588173993919,38.9621027868472,28468997,38.962095,-77.358815,Reston Regional Library,classic,435,active,2021/10/31 04:59:19+00,9,0,6,0,0,Yes,Yes,Yes,Yes,https://dc.lft.to/lastmile_qr_scan,https://dc.lft.to/lastmile_qr_scan,No,No,15,"CREDITCARD,KEY",104,2021/11/01 11:17:49+00,,"Fairfax, VA"
-77.3563263981971,38.9605817873766,28468998,38.960574,-77.356324,New Dominion Pkwy & Fountain Dr,classic,436,active,2021/10/31 20:07:34+00,14,0,1,0,0,Yes,Yes,Yes,Yes,https://dc.lft.to/lastmile_qr_scan,https://dc.lft.to/lastmile_qr_scan,No,No,15,"CREDITCARD,KEY",104,2021/11/01 11:17:49+00,,"Fairfax, VA"
-77.3516513967337,38.9550867856615,28468999,38.955079,-77.351649,Sunset Hills & Old Reston Ave,classic,437,active,2021/11/01 04:55:35+00,6,0,9,0,0,Yes,Yes,Yes,Yes,https://dc.lft.to/lastmile_qr_scan,https://dc.lft.to/lastmile_qr_scan,No,No,15,"CREDITCARD,KEY",104,2021/11/01 11:17:49+00,,"Fairfax, VA"
-77.3597203991559,38.9570447865315,28469000,38.957037,-77.359718,Reston Town Center Transit Station,classic,438,active,2021/10/31 19:19:53+00,0,0,17,0,0,Yes,Yes,Yes,Yes,https://dc.lft.to/lastmile_qr_scan,https://dc.lft.to/lastmile_qr_scan,No,No,17,"CREDITCARD,KEY",104,2021/11/01 11:17:49+00,,"Fairfax, VA"
-77.005967284883,38.8849237847073,28469001,38.884916,-77.005965,1st & D St SE,classic,439,active,2021/11/01 11:15:06+00,10,0,8,1,1,Yes,Yes,Yes,Yes,https://dc.lft.to/lastmile_qr_scan,https://dc.lft.to/lastmile_qr_scan,No,No,19,"CREDITCARD,KEY",42,2021/11/01 11:17:49+00,,"Washington, DC"
-77.3393933916727,38.946615784916,28469002,38.946608,-77.339391,Wiehle Ave & Reston Station Blvd,classic,440,active,2021/11/01 04:55:39+00,19,0,0,0,0,Yes,Yes,Yes,Yes,https://dc.lft.to/lastmile_qr_scan,https://dc.lft.to/lastmile_qr_scan,No,No,19,"CREDITCARD,KEY",104,2021/11/01 11:17:49+00,,"Fairfax, VA"
-77.3587433991238,38.9596407869352,28469003,38.959633,-77.358741,Library St & Freedom Dr,classic,441,active,2021/11/01 11:14:19+00,14,0,4,0,1,Yes,Yes,Yes,Yes,https://dc.lft.to/lastmile_qr_scan,https://dc.lft.to/lastmile_qr_scan,No,No,19,"CREDITCARD,KEY",104,2021/11/01 11:17:49+00,,"Fairfax, VA"
-77.3576133985454,38.9553477858431,28469004,38.95534,-77.357611,Sunset Hills Rd & Discovery Square,classic,442,active,2021/11/01 08:23:26+00,13,0,2,0,0,Yes,Yes,Yes,Yes,https://dc.lft.to/lastmile_qr_scan,https://dc.lft.to/lastmile_qr_scan,No,No,15,"CREDITCARD,KEY",104,2021/11/01 11:17:49+00,,"Fairfax, VA"
-77.0489492988256,38.8924487844057,28469005,38.892441,-77.048947,22nd St & Constitution Ave NW,classic,443,active,2021/11/01 09:24:33+00,4,0,18,0,0,Yes,Yes,Yes,Yes,https://dc.lft.to/lastmile_qr_scan,https://dc.lft.to/lastmile_qr_scan,No,No,23,"CREDITCARD,KEY",42,2021/11/01 11:17:49+00,,"Washington, DC"
-76.913565255862,38.8918127900178,28469006,38.891805,-76.913563,61st St & Banks Pl NE,classic,444,active,2021/10/31 04:59:18+00,2,0,17,0,0,Yes,Yes,Yes,Yes,https://dc.lft.to/lastmile_qr_scan,https://dc.lft.to/lastmile_qr_scan,No,No,19,"CREDITCARD,KEY",42,2021/11/01 11:17:49+00,,"Washington, DC"
-77.3534163973769,38.9600917870416,28469007,38.960084,-77.353414,Temporary Rd & Old Reston Ave,classic,445,active,2021/11/01 07:34:39+00,13,0,2,0,0,Yes,Yes,Yes,Yes,https://dc.lft.to/lastmile_qr_scan,https://dc.lft.to/lastmile_qr_scan,No,No,15,"CREDITCARD,KEY",104,2021/11/01 11:17:49+00,,"Fairfax, VA"
-77.36841840209,38.9553217856365,28469008,38.955314,-77.368416,Reston YMCA,classic,446,active,2021/11/01 04:55:36+00,11,0,4,1,0,Yes,Yes,Yes,Yes,https://dc.lft.to/lastmile_qr_scan,https://dc.lft.to/lastmile_qr_scan,No,No,15,"CREDITCARD,KEY",104,2021/11/01 11:17:49+00,,"Fairfax, VA"
-77.3403793929572,38.9514507861288,28469009,38.951443,-77.340377,Sunset Hills Rd & Isaac Newton Square,classic,447,active,2021/11/01 08:15:43+00,6,0,4,1,1,Yes,Yes,Yes,Yes,https://dc.lft.to/lastmile_qr_scan,https://dc.lft.to/lastmile_qr_scan,No,No,11,"CREDITCARD,KEY",104,2021/11/01 11:17:49+00,,"Fairfax, VA"
-77.0708643051965,38.8938677846083,28469010,38.89386,-77.070862,N Lynn St & Fairfax Dr,classic,448,active,2021/11/01 09:19:01+00,1,0,14,0,0,Yes,Yes,Yes,Yes,https://dc.lft.to/lastmile_qr_scan,https://dc.lft.to/lastmile_qr_scan,No,No,15,"CREDITCARD,KEY",41,2021/11/01 11:17:49+00,,"Arlington, VA"
-77.0279782958949,38.96751280046,28469011,38.967505,-77.027976,Georgia Ave & Piney Branch Rd NW,classic,449,active,2021/11/01 09:21:23+00,14,0,1,1,0,Yes,Yes,Yes,Yes,https://dc.lft.to/lastmile_qr_scan,https://dc.lft.to/lastmile_qr_scan,No,No,15,"CREDITCARD,KEY",42,2021/11/01 11:17:49+00,,"Washington, DC"
-77.2274193562942,38.923090784248,28469012,38.923083,-77.227417,Greensboro & International Dr,classic,450,active,2021/10/31 12:21:54+00,9,0,2,0,0,Yes,Yes,Yes,Yes,https://dc.lft.to/lastmile_qr_scan,https://dc.lft.to/lastmile_qr_scan,No,No,11,"CREDITCARD,KEY",104,2021/11/01 11:17:49+00,,"Fairfax, VA"
-77.0406932909619,38.8123587689914,28469013,38.812351,-77.040691,Madison St & Fairfax St,classic,451,active,2021/10/31 18:39:18+00,0,0,15,1,0,Yes,Yes,Yes,Yes,https://dc.lft.to/lastmile_qr_scan,https://dc.lft.to/lastmile_qr_scan,No,No,15,"CREDITCARD,KEY",40,2021/11/01 11:17:49+00,,"Alexandria, VA"
-77.0163132939016,38.9908818059443,28469014,38.990874,-77.016311,Sligo Ave & Carroll Ln,classic,452,active,2021/11/01 04:55:23+00,12,0,3,0,0,Yes,Yes,Yes,Yes,https://dc.lft.to/lastmile_qr_scan,https://dc.lft.to/lastmile_qr_scan,No,No,15,"CREDITCARD,KEY",44,2021/11/01 11:17:49+00,,"Montgomery County, MD (South)"
-77.0344512953207,38.9190267911677,28469015,38.919019,-77.034449,15th & W St NW,classic,453,active,2021/11/01 11:16:08+00,10,0,4,0,3,Yes,Yes,Yes,Yes,https://dc.lft.to/lastmile_qr_scan,https://dc.lft.to/lastmile_qr_scan,No,No,19,"CREDITCARD,KEY",42,2021/11/01 11:17:49+00,,"Washington, DC"
-76.9901232793602,38.8824967848828,28469016,38.882489,-76.990121,12th St & Pennsylvania Ave SE,classic,454,active,2021/11/01 10:18:06+00,17,0,2,1,0,Yes,Yes,Yes,Yes,https://dc.lft.to/lastmile_qr_scan,https://dc.lft.to/lastmile_qr_scan,No,No,19,"CREDITCARD,KEY",42,2021/11/01 11:17:49+00,,"Washington, DC"
-77.0022412882043,38.9574707998592,28469017,38.957463,-77.002239,3rd St & Riggs Rd NE,classic,455,active,2021/11/01 06:55:38+00,14,0,0,0,1,Yes,Yes,Yes,Yes,https://dc.lft.to/lastmile_qr_scan,https://dc.lft.to/lastmile_qr_scan,No,No,15,"CREDITCARD,KEY",42,2021/11/01 11:17:49+00,,"Washington, DC"
-77.1129843169126,38.8767027791958,28469018,38.876695,-77.112982,Carlin Springs Rd & N Thomas St,classic,456,active,2021/11/01 08:51:04+00,7,0,8,1,0,Yes,Yes,Yes,Yes,https://dc.lft.to/lastmile_qr_scan,https://dc.lft.to/lastmile_qr_scan,No,No,15,"CREDITCARD,KEY",41,2021/11/01 11:17:49+00,,"Arlington, VA"
-77.220159352455,38.915253783274,28469019,38.915246,-77.220157,Towers Crescent Dr & Tysons One Pl,classic,457,active,2021/10/31 09:37:02+00,9,0,2,1,0,Yes,Yes,Yes,Yes,https://dc.lft.to/lastmile_qr_scan,https://dc.lft.to/lastmile_qr_scan,No,No,11,"CREDITCARD,KEY",104,2021/11/01 11:17:49+00,,"Fairfax, VA"
-76.9984072829604,38.9029397889956,28469020,38.902932,-76.998405,6th & K St NE,classic,458,active,2021/11/01 10:38:25+00,8,0,11,0,0,Yes,Yes,Yes,Yes,https://dc.lft.to/lastmile_qr_scan,https://dc.lft.to/lastmile_qr_scan,No,No,19,"CREDITCARD,KEY",42,2021/11/01 11:17:49+00,,"Washington, DC"
-77.1071453243295,39.0147238075269,28469021,39.014716,-77.107143,Pooks Hill Rd & Linden Ave,classic,459,active,2021/11/01 08:01:37+00,13,0,2,2,0,Yes,Yes,Yes,Yes,https://dc.lft.to/lastmile_qr_scan,https://dc.lft.to/lastmile_qr_scan,No,No,15,"CREDITCARD,KEY",44,2021/11/01 11:17:49+00,,"Montgomery County, MD (South)"
-76.9883132853853,38.9826578049637,28469022,38.98265,-76.988311,Takoma Park Rec Center,classic,460,active,2021/10/31 08:39:23+00,13,0,1,0,0,Yes,Yes,Yes,Yes,https://dc.lft.to/lastmile_qr_scan,https://dc.lft.to/lastmile_qr_scan,No,No,15,"CREDITCARD,KEY",44,2021/11/01 11:17:49+00,,"Montgomery County, MD (South)"
-76.9884242850752,38.9881088061491,28469023,38.988101,-76.988422,New Hampshire & Kirklynn Ave,classic,461,active,2021/10/31 11:48:07+00,8,0,7,1,0,Yes,Yes,Yes,Yes,https://dc.lft.to/lastmile_qr_scan,https://dc.lft.to/lastmile_qr_scan,No,No,15,"CREDITCARD,KEY",44,2021/11/01 11:17:49+00,,"Montgomery County, MD (South)"
-77.0510223082518,39.0384318145496,28469024,39.038424,-77.05102,Wheaton Metro / Georgia Ave & Reedie Dr,classic,462,active,2021/11/01 11:16:30+00,16,0,3,2,0,Yes,Yes,Yes,Yes,https://dc.lft.to/lastmile_qr_scan,https://dc.lft.to/lastmile_qr_scan,No,No,19,"CREDITCARD,KEY",44,2021/11/01 11:17:49+00,,"Montgomery County, MD (South)"
-77.047790307363,39.0448948152793,28469025,39.044887,-77.047788,Amherst Ave & Elkins St,classic,463,active,2021/10/31 04:59:21+00,11,0,4,0,0,Yes,Yes,Yes,Yes,https://dc.lft.to/lastmile_qr_scan,https://dc.lft.to/lastmile_qr_scan,No,No,15,"CREDITCARD,KEY",44,2021/11/01 11:17:49+00,,"Montgomery County, MD (South)"
-77.0483973065606,39.0359728133391,28469026,39.035965,-77.048395,Amherst Ave & Prichard Rd,classic,464,active,2021/11/01 04:55:39+00,15,0,0,0,0,Yes,Yes,Yes,Yes,https://dc.lft.to/lastmile_qr_scan,https://dc.lft.to/lastmile_qr_scan,No,No,15,"CREDITCARD,KEY",44,2021/11/01 11:17:49+00,,"Montgomery County, MD (South)"
-77.0530873092196,39.0432798153233,28469027,39.043272,-77.053085,Grandview & Blueridge Ave,classic,465,active,2021/10/31 04:59:20+00,15,0,0,0,0,Yes,Yes,Yes,Yes,https://dc.lft.to/lastmile_qr_scan,https://dc.lft.to/lastmile_qr_scan,No,No,15,"CREDITCARD,KEY",44,2021/11/01 11:17:49+00,,"Montgomery County, MD (South)"
-77.0473523061622,39.0320368127674,28469028,39.032029,-77.04735,Windham Ln & Amherst Ave,classic,466,active,2021/10/31 04:59:22+00,13,0,2,0,0,Yes,Yes,Yes,Yes,https://dc.lft.to/lastmile_qr_scan,https://dc.lft.to/lastmile_qr_scan,No,No,15,"CREDITCARD,KEY",44,2021/11/01 11:17:49+00,,"Montgomery County, MD (South)"
-77.3407893938421,38.9704197894578,28469029,38.970412,-77.340787,North Shore Dr & Village Rd,classic,467,active,2021/10/31 15:21:12+00,9,0,2,0,0,Yes,Yes,Yes,Yes,https://dc.lft.to/lastmile_qr_scan,https://dc.lft.to/lastmile_qr_scan,No,No,11,"CREDITCARD,KEY",104,2021/11/01 11:17:49+00,,"Fairfax, VA"
-77.3630963996588,38.9551787857087,28469030,38.955171,-77.363094,Town Center Pkwy & Sunset Hills Rd,classic,468,active,2021/10/31 15:03:43+00,8,0,3,0,0,Yes,Yes,Yes,Yes,https://dc.lft.to/lastmile_qr_scan,https://dc.lft.to/lastmile_qr_scan,No,No,11,"CREDITCARD,KEY",104,2021/11/01 11:17:49+00,,"Fairfax, VA"
-77.0162602929006,38.9688418018426,28469031,38.968834,-77.016258,3rd & Underwood St NW,classic,469,active,2021/10/31 17:54:53+00,16,0,3,0,0,Yes,Yes,Yes,Yes,https://dc.lft.to/lastmile_qr_scan,https://dc.lft.to/lastmile_qr_scan,No,No,19,"CREDITCARD,KEY",42,2021/11/01 11:17:49+00,,"Washington, DC"
-76.9795192786672,38.9329377958325,28469032,38.93293,-76.979517,18th & Monroe St NE,classic,470,active,2021/11/01 07:58:24+00,12,0,7,0,0,Yes,Yes,Yes,Yes,https://dc.lft.to/lastmile_qr_scan,https://dc.lft.to/lastmile_qr_scan,No,No,19,"CREDITCARD,KEY",42,2021/11/01 11:17:49+00,,"Washington, DC"
-77.0217432895005,38.8834577836706,28469033,38.88345,-77.021741,7th & E St SW,classic,471,active,2021/11/01 11:04:11+00,14,0,5,0,0,Yes,Yes,Yes,Yes,https://dc.lft.to/lastmile_qr_scan,https://dc.lft.to/lastmile_qr_scan,No,No,19,"CREDITCARD,KEY",42,2021/11/01 11:17:49+00,,"Washington, DC"
-77.1649713488056,39.1213348262701,28469034,39.121327,-77.164969,Shady Grove Metro East,classic,472,active,2021/10/31 04:59:21+00,16,0,3,0,0,Yes,Yes,Yes,Yes,https://dc.lft.to/lastmile_qr_scan,https://dc.lft.to/lastmile_qr_scan,No,No,19,"CREDITCARD,KEY",43,2021/11/01 11:17:49+00,,"Montgomery County, MD (North)"
-77.0651513041641,38.905375786867,28469035,38.905368,-77.065149,Potomac & M St NW,classic,473,active,2021/11/01 10:35:26+00,0,0,17,0,1,Yes,Yes,Yes,Yes,https://dc.lft.to/lastmile_qr_scan,https://dc.lft.to/lastmile_qr_scan,No,No,19,"CREDITCARD,KEY",42,2021/11/01 11:17:49+00,,"Washington, DC"
-77.040789297886,38.9240957912149,28469036,38.924088,-77.040787,Columbia & Ontario Rd NW,classic,474,active,2021/11/01 10:53:13+00,20,0,1,0,2,Yes,Yes,Yes,Yes,https://dc.lft.to/lastmile_qr_scan,https://dc.lft.to/lastmile_qr_scan,No,No,23,"CREDITCARD,KEY",42,2021/11/01 11:17:49+00,,"Washington, DC"
-77.1110683173233,38.8882897812624,28469037,38.888282,-77.111066,Washington-Liberty High School / N Stafford St & Generals Way,classic,475,active,2021/11/01 08:14:48+00,11,0,4,1,0,Yes,Yes,Yes,Yes,https://dc.lft.to/lastmile_qr_scan,https://dc.lft.to/lastmile_qr_scan,No,No,15,"CREDITCARD,KEY",41,2021/11/01 11:17:49+00,,"Arlington, VA"
-77.1423193268175,38.8860557804826,28469038,38.886048,-77.142317,Westover Library / Washington Blvd & N McKinley Rd,classic,476,active,2021/11/01 04:55:31+00,12,0,3,0,0,Yes,Yes,Yes,Yes,https://dc.lft.to/lastmile_qr_scan,https://dc.lft.to/lastmile_qr_scan,No,No,15,"CREDITCARD,KEY",41,2021/11/01 11:17:49+00,,"Arlington, VA"
-77.1020213125038,38.8593137765692,28469039,38.859306,-77.102019,Columbia Pike & George Mason Dr,classic,477,active,2021/11/01 08:02:30+00,5,0,10,0,0,Yes,Yes,Yes,Yes,https://dc.lft.to/lastmile_qr_scan,https://dc.lft.to/lastmile_qr_scan,No,No,15,"CREDITCARD,KEY",41,2021/11/01 11:17:49+00,,"Arlington, VA"
-77.1670613489569,39.1258358276878,28469040,39.125828,-77.167059,Columbus Ave & Tribeca St,classic,478,active,2021/11/01 04:55:30+00,7,0,4,4,0,Yes,Yes,Yes,Yes,https://dc.lft.to/lastmile_qr_scan,https://dc.lft.to/lastmile_qr_scan,No,No,11,"CREDITCARD,KEY",43,2021/11/01 11:17:49+00,,"Montgomery County, MD (North)"
-77.16486234882,39.1233378267096,28469041,39.12333,-77.16486,Columbus Ave & Gramercy Blvd,classic,479,active,2021/11/01 11:13:15+00,7,0,2,0,2,Yes,Yes,Yes,Yes,https://dc.lft.to/lastmile_qr_scan,https://dc.lft.to/lastmile_qr_scan,No,No,11,"CREDITCARD,KEY",43,2021/11/01 11:17:49+00,,"Montgomery County, MD (North)"
-77.3542823981676,38.9642157877854,28469042,38.964208,-77.35428,Reston Pkwy & Spectrum Dr,classic,480,active,2021/10/31 04:59:21+00,12,0,3,0,0,Yes,Yes,Yes,Yes,https://dc.lft.to/lastmile_qr_scan,https://dc.lft.to/lastmile_qr_scan,No,No,15,"CREDITCARD,KEY",104,2021/11/01 11:17:49+00,,"Fairfax, VA"
-77.2038623592455,39.1056498217375,28469043,39.105642,-77.20386,Key West Ave & Great Seneca Hwy,classic,481,active,2021/10/31 16:19:14+00,6,0,5,0,0,Yes,Yes,Yes,Yes,https://dc.lft.to/lastmile_qr_scan,https://dc.lft.to/lastmile_qr_scan,No,No,11,"CREDITCARD,KEY",43,2021/11/01 11:17:49+00,,"Montgomery County, MD (North)"
-77.0541572998512,38.8995077863328,28469044,38.8995,-77.054155,Virginia Ave & 25th St NW,classic,482,active,2021/11/01 11:14:18+00,14,0,5,0,0,Yes,Yes,Yes,Yes,https://dc.lft.to/lastmile_qr_scan,https://dc.lft.to/lastmile_qr_scan,No,No,19,"CREDITCARD,KEY",42,2021/11/01 11:17:49+00,,"Washington, DC"
-77.0346762947222,38.905431787716,28469045,38.905424,-77.034674,15th & M St NW,classic,483,active,2021/11/01 10:15:36+00,15,0,4,0,0,Yes,Yes,Yes,Yes,https://dc.lft.to/lastmile_qr_scan,https://dc.lft.to/lastmile_qr_scan,No,No,19,"CREDITCARD,KEY",42,2021/11/01 11:17:49+00,,"Washington, DC"
-77.027114293062,38.9256437921783,28469046,38.925636,-77.027112,11th & Girard St NW,classic,484,active,2021/11/01 10:51:45+00,18,0,1,0,0,Yes,Yes,Yes,Yes,https://dc.lft.to/lastmile_qr_scan,https://dc.lft.to/lastmile_qr_scan,No,No,19,"CREDITCARD,KEY",42,2021/11/01 11:17:49+00,,"Washington, DC"
-77.0456422986049,38.912651788857,28469047,38.912644,-77.04564,Connecticut Ave & R St NW,classic,485,active,2021/11/01 11:12:30+00,14,0,4,0,1,Yes,Yes,Yes,Yes,https://dc.lft.to/lastmile_qr_scan,https://dc.lft.to/lastmile_qr_scan,No,No,19,"CREDITCARD,KEY",42,2021/11/01 11:17:49+00,,"Washington, DC"
-77.0820913084043,38.8925637839447,28469048,38.892556,-77.082089,Wilson Blvd & N Troy St,classic,486,active,2021/11/01 10:57:24+00,2,0,13,0,0,Yes,Yes,Yes,Yes,https://dc.lft.to/lastmile_qr_scan,https://dc.lft.to/lastmile_qr_scan,No,No,15,"CREDITCARD,KEY",41,2021/11/01 11:17:49+00,,"Arlington, VA"
-77.0871303133906,38.936305792566,28469049,38.936298,-77.087128,American University East Campus,classic,487,active,2021/11/01 08:29:10+00,18,0,1,1,0,Yes,Yes,Yes,Yes,https://dc.lft.to/lastmile_qr_scan,https://dc.lft.to/lastmile_qr_scan,No,No,19,"CREDITCARD,KEY",42,2021/11/01 11:17:49+00,,"Washington, DC"
-77.0332362936516,38.8922517851785,28469050,38.892244,-77.033234,15th St & Constitution Ave NW,classic,488,active,2021/11/01 09:00:29+00,9,0,7,0,3,Yes,Yes,Yes,Yes,https://dc.lft.to/lastmile_qr_scan,https://dc.lft.to/lastmile_qr_scan,No,No,19,"CREDITCARD,KEY",42,2021/11/01 11:17:49+00,,"Washington, DC"
-77.0502662998867,38.9053107870923,28469051,38.905303,-77.050264,23rd & M St NW,classic,490,active,2021/11/01 11:08:00+00,5,0,14,0,0,Yes,Yes,Yes,Yes,https://dc.lft.to/lastmile_qr_scan,https://dc.lft.to/lastmile_qr_scan,No,No,19,"CREDITCARD,KEY",42,2021/11/01 11:17:49+00,,"Washington, DC"
-77.1926473567553,39.1069788223136,28469052,39.106971,-77.192645,Corporate Blvd & Omega Dr,classic,491,active,2021/10/31 14:21:18+00,9,0,6,1,0,Yes,Yes,Yes,Yes,https://dc.lft.to/lastmile_qr_scan,https://dc.lft.to/lastmile_qr_scan,No,No,15,"CREDITCARD,KEY",43,2021/11/01 11:17:49+00,,"Montgomery County, MD (North)"
-77.2023563591926,39.1061598219898,28469053,39.106152,-77.202354,Key West Ave & Diamondback Dr,classic,492,active,2021/11/01 03:29:16+00,6,0,5,1,0,Yes,Yes,Yes,Yes,https://dc.lft.to/lastmile_qr_scan,https://dc.lft.to/lastmile_qr_scan,No,No,11,"CREDITCARD,KEY",43,2021/11/01 11:17:49+00,,"Montgomery County, MD (North)"
-76.9818522744313,38.8462777776464,28469054,38.84627,-76.98185,Alabama Ave & Stanton Rd SE / Shops at Park Village,classic,493,active,2021/10/31 12:57:06+00,19,0,0,0,0,Yes,Yes,Yes,Yes,https://dc.lft.to/lastmile_qr_scan,https://dc.lft.to/lastmile_qr_scan,No,No,19,"CREDITCARD,KEY",42,2021/11/01 11:17:49+00,,"Washington, DC"
-76.9755722727087,38.8437777781339,28469055,38.84377,-76.97557,Mississippi Ave & 19th St SE / THEARC,classic,494,active,2021/10/31 12:12:03+00,11,0,8,0,0,Yes,Yes,Yes,Yes,https://dc.lft.to/lastmile_qr_scan,https://dc.lft.to/lastmile_qr_scan,No,No,19,"CREDITCARD,KEY",42,2021/11/01 11:17:49+00,,"Washington, DC"
-76.9770322735555,38.8462377782055,28469056,38.84623,-76.97703,19th & Savannah St SE,classic,495,active,2021/11/01 04:55:36+00,3,0,8,0,0,Yes,Yes,Yes,Yes,https://dc.lft.to/lastmile_qr_scan,https://dc.lft.to/lastmile_qr_scan,No,No,11,"CREDITCARD,KEY",42,2021/11/01 11:17:49+00,,"Washington, DC"
-77.0009022796872,38.8360077753329,28469057,38.836,-77.0009,4th St & Mississippi Ave SE,classic,496,active,2021/11/01 04:55:36+00,15,0,4,0,0,Yes,Yes,Yes,Yes,https://dc.lft.to/lastmile_qr_scan,https://dc.lft.to/lastmile_qr_scan,No,No,19,"CREDITCARD,KEY",42,2021/11/01 11:17:49+00,,"Washington, DC"
-77.0054992803994,38.8244887730475,28469058,38.824481,-77.005497,1st & S Capitol St SE / Oxon Run Trail,classic,497,active,2021/11/01 11:13:19+00,10,0,9,1,0,Yes,Yes,Yes,Yes,https://dc.lft.to/lastmile_qr_scan,https://dc.lft.to/lastmile_qr_scan,No,No,19,"CREDITCARD,KEY",42,2021/11/01 11:17:49+00,,"Washington, DC"
-77.002232279139,38.8237377727138,28469059,38.82373,-77.00223,Livingston Rd & 3rd St SE,classic,498,active,2021/11/01 05:31:09+00,15,0,0,0,0,Yes,Yes,Yes,Yes,https://dc.lft.to/lastmile_qr_scan,https://dc.lft.to/lastmile_qr_scan,No,No,15,"CREDITCARD,KEY",42,2021/11/01 11:17:49+00,,"Washington, DC"
-77.0103322823141,38.8190977718199,28469060,38.81909,-77.01033,Joliet St & MLK Ave SW/Bald Eagle Rec Ctr,classic,499,active,2021/10/31 04:59:25+00,15,0,4,0,0,Yes,Yes,Yes,Yes,https://dc.lft.to/lastmile_qr_scan,https://dc.lft.to/lastmile_qr_scan,No,No,19,"CREDITCARD,KEY",42,2021/11/01 11:17:49+00,,"Washington, DC"
-76.9497112672133,38.8830187869286,28469061,38.883011,-76.949709,37th & Ely Pl SE,classic,500,active,2021/10/31 05:20:59+00,4,0,11,1,0,Yes,Yes,Yes,Yes,https://dc.lft.to/lastmile_qr_scan,https://dc.lft.to/lastmile_qr_scan,No,No,15,"CREDITCARD,KEY",42,2021/11/01 11:17:49+00,,"Washington, DC"
-77.0333832939996,38.8964727861543,28469062,38.896465,-77.033381,15th St & Pennsylvania Ave NW,classic,501,active,2021/11/01 11:15:35+00,12,0,6,0,1,Yes,Yes,Yes,Yes,https://dc.lft.to/lastmile_qr_scan,https://dc.lft.to/lastmile_qr_scan,No,No,19,"CREDITCARD,KEY",42,2021/11/01 11:17:49+00,,"Washington, DC"
-77.0252382903765,38.8804477831838,28469063,38.88044,-77.025236,Maine Ave & 9th St SW,classic,505,active,2021/11/01 10:57:31+00,12,0,3,0,0,Yes,Yes,Yes,Yes,https://dc.lft.to/lastmile_qr_scan,https://dc.lft.to/lastmile_qr_scan,No,No,15,"CREDITCARD,KEY",42,2021/11/01 11:17:49+00,,"Washington, DC"
-77.0078022872256,38.9150077911015,28469064,38.915,-77.0078,Lincoln Rd & Seaton Pl NE/Harry Thomas Rec Center,classic,506,active,2021/11/01 08:01:09+00,19,0,0,0,0,Yes,Yes,Yes,Yes,https://dc.lft.to/lastmile_qr_scan,https://dc.lft.to/lastmile_qr_scan,No,No,19,"CREDITCARD,KEY",42,2021/11/01 11:17:49+00,,"Washington, DC"
-77.0500623080362,39.043137814796,28469065,39.04313,-77.05006,Blueridge Ave & Elkin St,classic,507,active,2021/10/31 21:04:55+00,14,0,1,1,0,Yes,Yes,Yes,Yes,https://dc.lft.to/lastmile_qr_scan,https://dc.lft.to/lastmile_qr_scan,No,No,15,"CREDITCARD,KEY",44,2021/11/01 11:17:49+00,,"Montgomery County, MD (South)"
-77.0279122954476,38.9567477981802,28469066,38.95674,-77.02791,Georgia Ave & Kennedy St NW,classic,508,active,2021/11/01 07:05:22+00,10,0,9,1,0,Yes,Yes,Yes,Yes,https://dc.lft.to/lastmile_qr_scan,https://dc.lft.to/lastmile_qr_scan,No,No,19,"CREDITCARD,KEY",42,2021/11/01 11:17:49+00,,"Washington, DC"
-76.9960222822222,38.8922277863413,28469067,38.89222,-76.99602,7th St & Massachusetts Ave NE,classic,509,active,2021/11/01 11:01:33+00,12,0,7,0,0,Yes,Yes,Yes,Yes,https://dc.lft.to/lastmile_qr_scan,https://dc.lft.to/lastmile_qr_scan,No,No,19,"CREDITCARD,KEY",42,2021/11/01 11:17:49+00,,"Washington, DC"
-76.9834022767116,38.8733577835759,28469068,38.87335,-76.9834,Anacostia Park,classic,510,active,2021/11/01 04:24:57+00,14,0,5,0,0,Yes,Yes,Yes,Yes,https://dc.lft.to/lastmile_qr_scan,https://dc.lft.to/lastmile_qr_scan,No,No,19,"CREDITCARD,KEY",42,2021/11/01 11:17:49+00,,"Washington, DC"
-77.1207783311715,39.0620488161557,28469069,39.062041,-77.120776,Twinbrook Metro,classic,511,active,2021/10/31 16:13:28+00,13,0,1,0,0,Yes,Yes,Yes,Yes,https://dc.lft.to/lastmile_qr_scan,https://dc.lft.to/lastmile_qr_scan,No,No,14,"CREDITCARD,KEY",43,2021/11/01 11:17:49+00,,"Montgomery County, MD (North)"
-77.112872327379,39.0475378141138,28469070,39.04753,-77.11287,White Flint Metro,classic,512,active,2021/11/01 04:55:35+00,25,0,0,0,0,Yes,Yes,Yes,Yes,https://dc.lft.to/lastmile_qr_scan,https://dc.lft.to/lastmile_qr_scan,No,No,25,"CREDITCARD,KEY",43,2021/11/01 11:17:49+00,,"Montgomery County, MD (North)"
-77.1093323265071,39.0490078144953,28469071,39.049,-77.10933,Citadel Ave & McGrath Blvd,classic,513,active,1970/01/01 20:00:00+00,0,0,0,0,0,Yes,Yes,Yes,Yes,https://dc.lft.to/lastmile_qr_scan,https://dc.lft.to/lastmile_qr_scan,No,No,0,"CREDITCARD,KEY",43,2021/11/01 11:17:49+00,,"Montgomery County, MD (North)"
-77.1136823278359,39.0497728139079,28469072,39.049765,-77.11368,Rockville Pike & Old Georgetown Rd,classic,514,active,2021/10/31 04:59:26+00,12,0,3,0,0,Yes,Yes,Yes,Yes,https://dc.lft.to/lastmile_qr_scan,https://dc.lft.to/lastmile_qr_scan,No,No,15,"CREDITCARD,KEY",43,2021/11/01 11:17:49+00,,"Montgomery County, MD (North)"
-77.1135023279524,39.0431778124756,28469073,39.04317,-77.1135,Woodglen Dr & Executive Blvd,classic,515,active,2021/10/31 21:12:09+00,16,0,0,0,0,Yes,Yes,Yes,Yes,https://dc.lft.to/lastmile_qr_scan,https://dc.lft.to/lastmile_qr_scan,No,No,16,"CREDITCARD,KEY",43,2021/11/01 11:17:49+00,,"Montgomery County, MD (North)"
-77.1257023315446,39.0487378138573,28469074,39.04873,-77.1257,Executive Blvd & E Jefferson St,classic,516,active,2021/10/31 21:19:05+00,11,0,4,4,0,Yes,Yes,Yes,Yes,https://dc.lft.to/lastmile_qr_scan,https://dc.lft.to/lastmile_qr_scan,No,No,15,"CREDITCARD,KEY",43,2021/11/01 11:17:49+00,,"Montgomery County, MD (North)"
-77.1134563288255,39.0629078166416,28469075,39.0629,-77.113454,Fishers Ln & Rock Creek Mill Rd,classic,517,active,2021/10/31 09:50:30+00,14,0,1,0,0,Yes,Yes,Yes,Yes,https://dc.lft.to/lastmile_qr_scan,https://dc.lft.to/lastmile_qr_scan,No,No,15,"CREDITCARD,KEY",43,2021/11/01 11:17:49+00,,"Montgomery County, MD (North)"
-77.1292373335011,39.0621978156765,28469076,39.06219,-77.129235,Congressional Ln & E Jefferson St,classic,518,active,2021/10/31 16:20:07+00,12,0,3,0,0,Yes,Yes,Yes,Yes,https://dc.lft.to/lastmile_qr_scan,https://dc.lft.to/lastmile_qr_scan,No,No,15,"CREDITCARD,KEY",43,2021/11/01 11:17:49+00,,"Montgomery County, MD (North)"
-77.0007722900141,39.0004878084228,28469077,39.00048,-77.00077,Garland Ave & Walden Rd,classic,519,active,2021/11/01 09:46:31+00,11,0,3,1,0,Yes,Yes,Yes,Yes,https://dc.lft.to/lastmile_qr_scan,https://dc.lft.to/lastmile_qr_scan,No,No,15,"CREDITCARD,KEY",44,2021/11/01 11:17:49+00,,"Montgomery County, MD (South)"
-77.2303423563011,38.922457784396,28469078,38.92245,-77.23034,Greensboro & Pinnacle Dr,classic,520,active,2021/10/31 14:46:37+00,12,0,1,0,0,Yes,Yes,Yes,Yes,https://dc.lft.to/lastmile_qr_scan,https://dc.lft.to/lastmile_qr_scan,No,No,13,"CREDITCARD,KEY",104,2021/11/01 11:17:49+00,,"Fairfax, VA"
-76.843265234847,38.9083987955359,28469079,38.908391,-76.843263,1301 McCormick Dr / Wayne K. Curry Admin Bldg,classic,521,active,2021/10/31 04:59:27+00,10,0,5,0,0,Yes,Yes,Yes,Yes,https://dc.lft.to/lastmile_qr_scan,https://dc.lft.to/lastmile_qr_scan,No,No,15,"CREDITCARD,KEY",133,2021/11/01 11:17:49+00,,Prince George's County
-76.8446062351844,38.8998187941388,28469080,38.899811,-76.844604,Largo Town Center Metro,classic,522,active,2021/11/01 00:14:27+00,8,0,9,0,0,Yes,Yes,Yes,Yes,https://dc.lft.to/lastmile_qr_scan,https://dc.lft.to/lastmile_qr_scan,No,No,17,"CREDITCARD,KEY",133,2021/11/01 11:17:49+00,,Prince George's County
-76.9373512684848,38.9695888043325,28469081,38.969581,-76.937349,Baltimore Ave & Van Buren St / Riverdale Park Station,classic,523,active,2021/11/01 10:52:14+00,14,0,2,0,0,Yes,Yes,Yes,Yes,https://dc.lft.to/lastmile_qr_scan,https://dc.lft.to/lastmile_qr_scan,No,No,17,"CREDITCARD,KEY",133,2021/11/01 11:17:49+00,,Prince George's County
-76.9401352678693,38.9554878019329,28469082,38.95548,-76.940133,Baltimore Ave & Jefferson St,classic,524,active,2021/10/31 18:45:41+00,12,0,3,1,0,Yes,Yes,Yes,Yes,https://dc.lft.to/lastmile_qr_scan,https://dc.lft.to/lastmile_qr_scan,No,No,15,"CREDITCARD,KEY",133,2021/11/01 11:17:49+00,,Prince George's County
-76.9600562728714,38.9362207968993,28469083,38.936213,-76.960054,Perry & 35th St,classic,525,active,2021/11/01 05:13:01+00,11,0,3,0,1,Yes,Yes,Yes,Yes,https://dc.lft.to/lastmile_qr_scan,https://dc.lft.to/lastmile_qr_scan,No,No,15,"CREDITCARD,KEY",133,2021/11/01 11:17:49+00,,Prince George's County
-77.0108172850789,38.8696907813086,28469084,38.869683,-77.010815,Potomac Ave & Half St SW,classic,527,active,2021/11/01 08:39:13+00,20,0,3,0,0,Yes,Yes,Yes,Yes,https://dc.lft.to/lastmile_qr_scan,https://dc.lft.to/lastmile_qr_scan,No,No,23,"CREDITCARD,KEY",42,2021/11/01 11:17:49+00,,"Washington, DC"
-76.8255372284453,38.8899477922182,28469085,38.88994,-76.825535,Largo Rd & Campus Way / Prince Georges's Comm Col,classic,530,active,2021/11/01 11:09:02+00,12,0,3,0,0,Yes,Yes,Yes,Yes,https://dc.lft.to/lastmile_qr_scan,https://dc.lft.to/lastmile_qr_scan,No,No,15,"CREDITCARD,KEY",133,2021/11/01 11:17:49+00,,Prince George's County
-76.9845142760218,38.8550117801103,28469086,38.855004,-76.984512,Stanton Square SE,classic,531,active,2021/10/31 04:59:27+00,17,0,2,0,0,Yes,Yes,Yes,Yes,https://dc.lft.to/lastmile_qr_scan,https://dc.lft.to/lastmile_qr_scan,No,No,19,"CREDITCARD,KEY",42,2021/11/01 11:17:49+00,,"Washington, DC"
-77.0329582957231,38.9319987937234,28469087,38.931991,-77.032956,14th & Newton St NW,classic,532,active,2021/11/01 08:06:15+00,17,0,0,0,1,Yes,Yes,Yes,Yes,https://dc.lft.to/lastmile_qr_scan,https://dc.lft.to/lastmile_qr_scan,No,No,19,"CREDITCARD,KEY",42,2021/11/01 11:17:49+00,,"Washington, DC"
-77.0957843143604,38.9170437884772,28469088,38.917036,-77.095782,48th Pl & MacArthur Blvd NW,classic,533,active,2021/11/01 10:35:40+00,4,0,15,0,0,Yes,Yes,Yes,Yes,https://dc.lft.to/lastmile_qr_scan,https://dc.lft.to/lastmile_qr_scan,No,No,19,"CREDITCARD,KEY",42,2021/11/01 11:17:49+00,,"Washington, DC"
-77.0335112984058,38.9694968013237,28469089,38.969489,-77.033509,14th & Luzon St NW,classic,534,active,2021/11/01 04:55:39+00,14,0,5,1,0,Yes,Yes,Yes,Yes,https://dc.lft.to/lastmile_qr_scan,https://dc.lft.to/lastmile_qr_scan,No,No,19,"CREDITCARD,KEY",42,2021/11/01 11:17:49+00,,"Washington, DC"
-77.006074284487,38.8769007831048,28469090,38.876893,-77.006072,1st & M St SE,classic,535,active,2021/11/01 11:12:43+00,4,0,14,0,1,Yes,Yes,Yes,Yes,https://dc.lft.to/lastmile_qr_scan,https://dc.lft.to/lastmile_qr_scan,No,No,19,"CREDITCARD,KEY",42,2021/11/01 11:17:49+00,,"Washington, DC"
-77.0160612810373,38.7826407636548,28469091,38.782633,-77.016059,Fleet St & Waterfront St,classic,536,active,2021/10/31 04:59:27+00,13,0,2,0,0,Yes,Yes,Yes,Yes,https://dc.lft.to/lastmile_qr_scan,https://dc.lft.to/lastmile_qr_scan,No,No,15,"CREDITCARD,KEY",133,2021/11/01 11:17:49+00,,Prince George's County
-77.0010322777468,38.79875676747,28469092,38.798749,-77.00103,Oxon Hill Park & Ride,classic,537,active,2021/10/31 04:59:27+00,12,0,2,0,1,Yes,Yes,Yes,Yes,https://dc.lft.to/lastmile_qr_scan,https://dc.lft.to/lastmile_qr_scan,No,No,15,"CREDITCARD,KEY",133,2021/11/01 11:17:49+00,,Prince George's County
-77.0282492938576,38.9313297933923,28469093,38.931322,-77.028247,11th & Park Rd NW,classic,538,active,2021/11/01 10:05:12+00,18,0,0,0,1,Yes,Yes,Yes,Yes,https://dc.lft.to/lastmile_qr_scan,https://dc.lft.to/lastmile_qr_scan,No,No,19,"CREDITCARD,KEY",42,2021/11/01 11:17:49+00,,"Washington, DC"
-77.0007382824424,38.876758783628,28469094,38.876751,-77.000736,4th & M St SE,classic,539,active,2021/11/01 10:58:22+00,13,0,6,0,0,Yes,Yes,Yes,Yes,https://dc.lft.to/lastmile_qr_scan,https://dc.lft.to/lastmile_qr_scan,No,No,19,"CREDITCARD,KEY",42,2021/11/01 11:17:49+00,,"Washington, DC"
-77.0215522930239,38.9479697967862,28469095,38.947962,-77.02155,Kansas Ave & Sherman Cr NW,classic,540,active,2021/11/01 10:35:25+00,18,0,1,0,0,Yes,Yes,Yes,Yes,https://dc.lft.to/lastmile_qr_scan,https://dc.lft.to/lastmile_qr_scan,No,No,19,"CREDITCARD,KEY",42,2021/11/01 11:17:49+00,,"Washington, DC"
-77.33542739095,38.9447147848167,28469096,38.944707,-77.335425,Campus Commons,classic,541,active,2021/10/31 04:59:25+00,6,0,5,0,0,Yes,Yes,Yes,Yes,https://dc.lft.to/lastmile_qr_scan,https://dc.lft.to/lastmile_qr_scan,No,No,11,"CREDITCARD,KEY",104,2021/11/01 11:17:49+00,,"Fairfax, VA"
-77.2266463554243,38.9275577854286,28469097,38.92755,-77.226644,Park Run & Onyx Dr,classic,542,active,2021/11/01 07:54:15+00,10,0,1,0,0,Yes,Yes,Yes,Yes,https://dc.lft.to/lastmile_qr_scan,https://dc.lft.to/lastmile_qr_scan,No,No,11,"CREDITCARD,KEY",104,2021/11/01 11:17:49+00,,"Fairfax, VA"
-77.0213942906109,38.9026817879185,28469098,38.902674,-77.021392,7th & K St NW,classic,543,active,2021/11/01 11:12:44+00,10,0,9,0,0,Yes,Yes,Yes,Yes,https://dc.lft.to/lastmile_qr_scan,https://dc.lft.to/lastmile_qr_scan,No,No,19,"CREDITCARD,KEY",42,2021/11/01 11:17:49+00,,"Washington, DC"
-77.0124452865095,38.8762187826676,28469099,38.876211,-77.012443,King Greenleaf Rec Center,classic,544,active,2021/11/01 10:38:22+00,11,0,7,0,1,Yes,Yes,Yes,Yes,https://dc.lft.to/lastmile_qr_scan,https://dc.lft.to/lastmile_qr_scan,No,No,19,"CREDITCARD,KEY",42,2021/11/01 11:17:49+00,,"Washington, DC"
-76.9868152795537,38.9074517899934,28469100,38.907444,-76.986813,Montello Ave & Holbrook Terr NE,classic,545,active,2021/11/01 10:28:58+00,17,0,1,1,1,Yes,Yes,Yes,Yes,https://dc.lft.to/lastmile_qr_scan,https://dc.lft.to/lastmile_qr_scan,No,No,19,"CREDITCARD,KEY",42,2021/11/01 11:17:49+00,,"Washington, DC"
-77.0116182872095,38.8971157872068,28469101,38.897108,-77.011616,New Jersey Ave & F St NW,classic,546,active,2021/11/01 11:05:49+00,2,0,31,0,0,Yes,Yes,Yes,Yes,https://dc.lft.to/lastmile_qr_scan,https://dc.lft.to/lastmile_qr_scan,No,No,33,"CREDITCARD,KEY",42,2021/11/01 11:17:49+00,,"Washington, DC"
-76.9786292771534,38.9019427897369,28469102,38.901935,-76.978627,Maryland Ave & 17th St NE,classic,547,active,2021/11/01 09:10:26+00,14,0,5,0,0,Yes,Yes,Yes,Yes,https://dc.lft.to/lastmile_qr_scan,https://dc.lft.to/lastmile_qr_scan,No,No,19,"CREDITCARD,KEY",42,2021/11/01 11:17:49+00,,"Washington, DC"
-76.998275282492,38.8929417872201,28469103,38.892934,-76.998273,Massachusetts Ave & 6th St NE,classic,548,active,2021/11/01 10:42:01+00,3,0,15,0,1,Yes,Yes,Yes,Yes,https://dc.lft.to/lastmile_qr_scan,https://dc.lft.to/lastmile_qr_scan,No,No,19,"CREDITCARD,KEY",42,2021/11/01 11:17:49+00,,"Washington, DC"
-77.0518353011551,38.9233967908168,28469104,38.923389,-77.051833,Woodley Park Metro / Calvert St & Connecticut Ave NW,classic,549,active,2021/11/01 10:42:07+00,19,0,0,0,4,Yes,Yes,Yes,Yes,https://dc.lft.to/lastmile_qr_scan,https://dc.lft.to/lastmile_qr_scan,No,No,23,"CREDITCARD,KEY",42,2021/11/01 11:17:49+00,,"Washington, DC"
-77.2081293493961,38.9240097856605,28469105,38.924002,-77.208127,McLean Metro,classic,550,active,2021/10/31 19:56:15+00,16,0,3,1,0,Yes,Yes,Yes,Yes,https://dc.lft.to/lastmile_qr_scan,https://dc.lft.to/lastmile_qr_scan,No,No,19,"CREDITCARD,KEY",104,2021/11/01 11:17:49+00,,"Fairfax, VA"
-76.9832232784236,38.9063067898885,28469106,38.906299,-76.983221,Trinidad Rec Center,classic,551,active,2021/11/01 09:59:55+00,18,0,1,1,0,Yes,Yes,Yes,Yes,https://dc.lft.to/lastmile_qr_scan,https://dc.lft.to/lastmile_qr_scan,No,No,19,"CREDITCARD,KEY",42,2021/11/01 11:17:49+00,,"Washington, DC"
-76.9796362772899,38.8978157882256,28469107,38.897808,-76.979634,Rosedale Rec Center,classic,552,active,2021/11/01 10:21:53+00,13,0,5,0,1,Yes,Yes,Yes,Yes,https://dc.lft.to/lastmile_qr_scan,https://dc.lft.to/lastmile_qr_scan,No,No,19,"CREDITCARD,KEY",42,2021/11/01 11:17:49+00,,"Washington, DC"
-76.9914782796708,38.885915785567,28469108,38.885908,-76.991476,11th & C St SE,classic,553,active,2021/11/01 10:34:50+00,18,0,1,1,0,Yes,Yes,Yes,Yes,https://dc.lft.to/lastmile_qr_scan,https://dc.lft.to/lastmile_qr_scan,No,No,19,"CREDITCARD,KEY",42,2021/11/01 11:17:49+00,,"Washington, DC"
-77.0128102904518,38.9516037981285,28469109,38.951596,-77.012808,New Hampshire & Gallatin St NW,classic,554,active,2021/11/01 10:17:08+00,16,0,3,1,0,Yes,Yes,Yes,Yes,https://dc.lft.to/lastmile_qr_scan,https://dc.lft.to/lastmile_qr_scan,No,No,19,"CREDITCARD,KEY",42,2021/11/01 11:17:49+00,,"Washington, DC"
-76.9831462740812,38.8357447756218,28469110,38.835737,-76.983144,United Medical Center,classic,555,active,2021/10/31 04:59:24+00,14,0,5,0,0,Yes,Yes,Yes,Yes,https://dc.lft.to/lastmile_qr_scan,https://dc.lft.to/lastmile_qr_scan,No,No,19,"CREDITCARD,KEY",42,2021/11/01 11:17:49+00,,"Washington, DC"
-77.0418312967048,38.9112757886405,28469111,38.911268,-77.041829,18th & New Hampshire Ave NW,classic,556,active,2021/11/01 11:12:56+00,19,0,0,0,0,Yes,Yes,Yes,Yes,https://dc.lft.to/lastmile_qr_scan,https://dc.lft.to/lastmile_qr_scan,No,No,19,"CREDITCARD,KEY",42,2021/11/01 11:17:49+00,,"Washington, DC"
-77.2283023540878,38.8828077766054,28469112,38.8828,-77.2283,Dunn Loring Metro,classic,560,active,2021/10/31 04:59:24+00,19,0,0,0,0,Yes,Yes,Yes,Yes,https://dc.lft.to/lastmile_qr_scan,https://dc.lft.to/lastmile_qr_scan,No,No,19,"CREDITCARD,KEY",104,2021/11/01 11:17:49+00,,"Fairfax, VA"
-76.9463632705286,38.9593688017391,28469113,38.959361,-76.946361,Oglethorpe St & 42nd Ave,classic,561,active,2021/11/01 04:55:37+00,10,0,5,0,0,Yes,Yes,Yes,Yes,https://dc.lft.to/lastmile_qr_scan,https://dc.lft.to/lastmile_qr_scan,No,No,15,"CREDITCARD,KEY",133,2021/11/01 11:17:49+00,,Prince George's County
-76.9753022726695,38.8401147766902,28469114,38.840107,-76.9753,Southern Ave Metro,classic,562,active,2021/10/31 04:59:26+00,8,0,7,0,0,Yes,Yes,Yes,Yes,https://dc.lft.to/lastmile_qr_scan,https://dc.lft.to/lastmile_qr_scan,No,No,15,"CREDITCARD,KEY",133,2021/11/01 11:17:49+00,,Prince George's County
-76.9595022745177,38.9546078006156,28469115,38.9546,-76.9595,Queens Chapel & Hamilton St,classic,563,active,2021/10/31 15:49:36+00,11,0,4,0,0,Yes,Yes,Yes,Yes,https://dc.lft.to/lastmile_qr_scan,https://dc.lft.to/lastmile_qr_scan,No,No,15,"CREDITCARD,KEY",133,2021/11/01 11:17:49+00,,Prince George's County
-76.9522012733182,38.9755128054234,28469116,38.975505,-76.952199,Northwestern High School,classic,564,active,2021/11/01 07:29:47+00,14,0,1,1,0,Yes,Yes,Yes,Yes,https://dc.lft.to/lastmile_qr_scan,https://dc.lft.to/lastmile_qr_scan,No,No,15,"CREDITCARD,KEY",133,2021/11/01 11:17:49+00,,Prince George's County
-76.9952292863006,38.9742128036395,28469117,38.974205,-76.995227,New Hampshire Ave & East-West Hwy,classic,565,active,2021/10/31 12:03:14+00,13,0,2,1,0,Yes,Yes,Yes,Yes,https://dc.lft.to/lastmile_qr_scan,https://dc.lft.to/lastmile_qr_scan,No,No,15,"CREDITCARD,KEY",133,2021/11/01 11:17:49+00,,Prince George's County
-76.9550492719055,38.9392787976937,28469118,38.939271,-76.955047,Rhode Island Ave & 39th St / Brentwood Arts Exchange,classic,566,active,2021/10/31 20:31:10+00,8,0,7,0,0,Yes,Yes,Yes,Yes,https://dc.lft.to/lastmile_qr_scan,https://dc.lft.to/lastmile_qr_scan,No,No,15,"CREDITCARD,KEY",133,2021/11/01 11:17:49+00,,Prince George's County
-76.980702281482,38.9725078031913,28469119,38.9725,-76.9807,Riggs Rd & East West Hwy,classic,567,active,2021/10/31 04:59:13+00,16,0,1,0,0,Yes,Yes,Yes,Yes,https://dc.lft.to/lastmile_qr_scan,https://dc.lft.to/lastmile_qr_scan,No,No,17,"CREDITCARD,KEY",133,2021/11/01 11:17:49+00,,Prince George's County
-77.002602277769,38.7968077669704,28469120,38.7968,-77.0026,Tanger Outlets,classic,568,active,2021/11/01 10:39:15+00,11,0,4,1,0,Yes,Yes,Yes,Yes,https://dc.lft.to/lastmile_qr_scan,https://dc.lft.to/lastmile_qr_scan,No,No,15,"CREDITCARD,KEY",133,2021/11/01 11:17:49+00,,Prince George's County
-76.9959242863962,38.9617448009913,28469121,38.961737,-76.995922,Chillum Rd & Riggs Rd / Riggs Plaza,classic,569,active,2021/11/01 06:26:11+00,12,0,3,0,0,Yes,Yes,Yes,Yes,https://dc.lft.to/lastmile_qr_scan,https://dc.lft.to/lastmile_qr_scan,No,No,15,"CREDITCARD,KEY",133,2021/11/01 11:17:49+00,,Prince George's County
-76.9493022718608,38.9698078040054,28469122,38.9698,-76.9493,Hyattsville Library / Adelphi Rd & Toledo Rd,classic,570,active,2021/10/31 04:59:26+00,10,0,5,0,0,Yes,Yes,Yes,Yes,https://dc.lft.to/lastmile_qr_scan,https://dc.lft.to/lastmile_qr_scan,No,No,15,"CREDITCARD,KEY",133,2021/11/01 11:17:49+00,,Prince George's County
-77.1902773425231,38.8951797803642,28469123,38.895172,-77.190275,Meridian High School / Haycock Rd & Leesburg Pike,classic,571,active,2021/10/31 15:27:24+00,6,0,6,3,0,Yes,Yes,Yes,Yes,https://dc.lft.to/lastmile_qr_scan,https://dc.lft.to/lastmile_qr_scan,No,No,12,"CREDITCARD,KEY",152,2021/11/01 11:17:49+00,,"Falls Church, VA"
-77.1700343350904,38.8827537780958,28469124,38.882746,-77.170032,State Theatre / Park Pl & N Washington St,classic,572,active,2021/10/31 04:59:30+00,12,0,0,0,0,Yes,Yes,Yes,Yes,https://dc.lft.to/lastmile_qr_scan,https://dc.lft.to/lastmile_qr_scan,No,No,12,"CREDITCARD,KEY",152,2021/11/01 11:17:49+00,,"Falls Church, VA"
-77.1798343386518,38.8883777792478,28469125,38.88837,-77.179832,N Oak St & W Broad St,classic,573,active,2021/11/01 10:02:30+00,6,0,6,1,0,Yes,Yes,Yes,Yes,https://dc.lft.to/lastmile_qr_scan,https://dc.lft.to/lastmile_qr_scan,No,No,12,"CREDITCARD,KEY",152,2021/11/01 11:17:49+00,,"Falls Church, VA"
-77.176994338256,38.8874107788232,28469126,38.887403,-77.176992,Pennsylvania Ave & Park Ave,classic,574,active,2021/11/01 04:55:37+00,4,0,7,0,1,Yes,Yes,Yes,Yes,https://dc.lft.to/lastmile_qr_scan,https://dc.lft.to/lastmile_qr_scan,No,No,12,"CREDITCARD,KEY",152,2021/11/01 11:17:49+00,,"Falls Church, VA"
-77.1718933353538,38.8806197780701,28469127,38.880612,-77.171891,E Fairfax St & S Washington St,classic,575,active,2021/10/31 04:59:30+00,11,0,1,0,0,Yes,Yes,Yes,Yes,https://dc.lft.to/lastmile_qr_scan,https://dc.lft.to/lastmile_qr_scan,No,No,12,"CREDITCARD,KEY",152,2021/11/01 11:17:49+00,,"Falls Church, VA"
-77.1539553295715,38.8780927781871,28469128,38.878085,-77.153953,N Roosevelt St & Roosevelt Blvd,classic,576,active,2021/11/01 08:49:11+00,10,0,2,0,0,Yes,Yes,Yes,Yes,https://dc.lft.to/lastmile_qr_scan,https://dc.lft.to/lastmile_qr_scan,No,No,12,"CREDITCARD,KEY",152,2021/11/01 11:17:49+00,,"Falls Church, VA"
-77.1734403359679,38.8836087786432,28469129,38.883601,-77.173438,W Broad St & Little Falls St,classic,577,active,2021/11/01 04:55:37+00,9,0,3,0,0,Yes,Yes,Yes,Yes,https://dc.lft.to/lastmile_qr_scan,https://dc.lft.to/lastmile_qr_scan,No,No,12,"CREDITCARD,KEY",152,2021/11/01 11:17:49+00,,"Falls Church, VA"
-77.1784103374893,38.8797277776185,28469130,38.87972,-77.178408,S Maple Ave & S Washington St,classic,578,active,2021/10/31 04:59:26+00,10,0,2,0,0,Yes,Yes,Yes,Yes,https://dc.lft.to/lastmile_qr_scan,https://dc.lft.to/lastmile_qr_scan,No,No,12,"CREDITCARD,KEY",152,2021/11/01 11:17:49+00,,"Falls Church, VA"
-77.1736073364373,38.8854417789132,28469131,38.885434,-77.173605,Falls Church City Hall / Park Ave & Little Falls St,classic,579,active,2021/11/01 04:55:37+00,7,0,5,0,0,Yes,Yes,Yes,Yes,https://dc.lft.to/lastmile_qr_scan,https://dc.lft.to/lastmile_qr_scan,No,No,12,"CREDITCARD,KEY",152,2021/11/01 11:17:49+00,,"Falls Church, VA"
-77.1669193340743,38.8856287794387,28469132,38.885621,-77.166917,W Columbia St & N Washington St,classic,580,active,2021/10/31 11:09:34+00,10,0,2,0,0,Yes,Yes,Yes,Yes,https://dc.lft.to/lastmile_qr_scan,https://dc.lft.to/lastmile_qr_scan,No,No,12,"CREDITCARD,KEY",152,2021/11/01 11:17:49+00,,"Falls Church, VA"
-77.1887023426256,38.9001077814286,28469133,38.9001,-77.1887,West Falls Church Metro,classic,581,active,2021/10/31 11:51:52+00,15,0,4,0,0,Yes,Yes,Yes,Yes,https://dc.lft.to/lastmile_qr_scan,https://dc.lft.to/lastmile_qr_scan,No,No,19,"CREDITCARD,KEY",104,2021/11/01 11:17:49+00,,"Fairfax, VA"
-77.2156263522668,38.9285097860701,28469134,38.928502,-77.215624,Jones Branch Drive & Scotts Crossing Rd,classic,582,active,2021/10/31 04:59:30+00,4,0,7,1,0,Yes,Yes,Yes,Yes,https://dc.lft.to/lastmile_qr_scan,https://dc.lft.to/lastmile_qr_scan,No,No,11,"CREDITCARD,KEY",104,2021/11/01 11:17:49+00,,"Fairfax, VA"
-77.0235022928645,38.9321357935139,28469135,38.932128,-77.0235,Georgia Ave & Morton St NW,classic,583,active,2021/11/01 10:21:14+00,9,0,10,0,0,Yes,Yes,Yes,Yes,https://dc.lft.to/lastmile_qr_scan,https://dc.lft.to/lastmile_qr_scan,No,No,19,"CREDITCARD,KEY",42,2021/11/01 11:17:49+00,,"Washington, DC"
-77.2306833540948,38.8793627756405,28469136,38.879355,-77.230681,Merrilee Dr & Lauren Elizabeth Lane,classic,584,active,2021/11/01 09:15:23+00,6,0,5,0,0,Yes,Yes,Yes,Yes,https://dc.lft.to/lastmile_qr_scan,https://dc.lft.to/lastmile_qr_scan,No,No,11,"CREDITCARD,KEY",104,2021/11/01 11:17:49+00,,"Fairfax, VA"
-77.2299723529445,38.8701007736379,28469137,38.870093,-77.22997,Merrifield Cinema & Merrifield Town Center,classic,585,active,2021/11/01 09:20:39+00,0,0,11,0,0,Yes,Yes,Yes,Yes,https://dc.lft.to/lastmile_qr_scan,https://dc.lft.to/lastmile_qr_scan,No,No,11,"CREDITCARD,KEY",104,2021/11/01 11:17:49+00,,"Fairfax, VA"
-76.9859022811395,38.9243077931794,28469138,38.9243,-76.9859,Rhode Island & Montana Ave NE,classic,586,active,2021/11/01 09:12:04+00,14,0,5,1,0,Yes,Yes,Yes,Yes,https://dc.lft.to/lastmile_qr_scan,https://dc.lft.to/lastmile_qr_scan,No,No,19,"CREDITCARD,KEY",42,2021/11/01 11:17:49+00,,"Washington, DC"
-77.0221772916725,38.9142117898225,28469139,38.914204,-77.022175,7th & S St NW,classic,587,active,2021/11/01 08:49:20+00,19,0,0,0,0,Yes,Yes,Yes,Yes,https://dc.lft.to/lastmile_qr_scan,https://dc.lft.to/lastmile_qr_scan,No,No,19,"CREDITCARD,KEY",42,2021/11/01 11:17:49+00,,"Washington, DC"
-77.0088002866656,38.9125317902338,28469140,38.912524,-77.008798,North Capitol & R St NE,classic,588,active,2021/11/01 11:04:08+00,15,0,0,0,0,Yes,Yes,Yes,Yes,https://dc.lft.to/lastmile_qr_scan,https://dc.lft.to/lastmile_qr_scan,No,No,15,"CREDITCARD,KEY",42,2021/11/01 11:17:49+00,,"Washington, DC"
-77.0386862982039,38.9421537955774,28469141,38.942146,-77.038684,17th & Upshur St NW,classic,589,active,2021/11/01 04:55:23+00,17,0,2,2,0,Yes,Yes,Yes,Yes,https://dc.lft.to/lastmile_qr_scan,https://dc.lft.to/lastmile_qr_scan,No,No,19,"CREDITCARD,KEY",42,2021/11/01 11:17:49+00,,"Washington, DC"
-77.0182232918028,38.9420327961928,28469142,38.942025,-77.018221,Grant Circle,classic,590,active,2021/11/01 10:41:13+00,7,0,12,0,0,Yes,Yes,Yes,Yes,https://dc.lft.to/lastmile_qr_scan,https://dc.lft.to/lastmile_qr_scan,No,No,19,"CREDITCARD,KEY",42,2021/11/01 11:17:49+00,,"Washington, DC"
-77.0326892956187,38.9344127943461,28469143,38.934405,-77.032687,14th & Otis Pl NW,classic,591,active,2021/11/01 11:12:50+00,10,0,17,0,0,Yes,Yes,Yes,Yes,https://dc.lft.to/lastmile_qr_scan,https://dc.lft.to/lastmile_qr_scan,No,No,27,"CREDITCARD,KEY",42,2021/11/01 11:17:49+00,,"Washington, DC"
-76.9972282850386,38.9388967957924,28469144,38.938889,-76.997226,John McCormack Rd NE,classic,592,active,2021/11/01 08:27:11+00,1,0,17,0,1,Yes,Yes,Yes,Yes,https://dc.lft.to/lastmile_qr_scan,https://dc.lft.to/lastmile_qr_scan,No,No,19,"CREDITCARD,KEY",42,2021/11/01 11:17:49+00,,"Washington, DC"
-76.9680862770825,38.9553568009374,28469145,38.955349,-76.968084,West Hyattsville Metro,classic,593,active,2021/11/01 04:55:40+00,13,0,4,2,0,Yes,Yes,Yes,Yes,https://dc.lft.to/lastmile_qr_scan,https://dc.lft.to/lastmile_qr_scan,No,No,17,"CREDITCARD,KEY",133,2021/11/01 11:17:49+00,,Prince George's County
-76.9131902558709,38.8885317887294,28469146,38.888524,-76.913188,Capitol Heights Metro,classic,594,active,2021/11/01 10:43:42+00,16,0,3,1,0,Yes,Yes,Yes,Yes,https://dc.lft.to/lastmile_qr_scan,https://dc.lft.to/lastmile_qr_scan,No,No,19,"CREDITCARD,KEY",133,2021/11/01 11:17:49+00,,Prince George's County
-76.9548052732641,38.965749803309,28469147,38.965742,-76.954803,Prince George's Plaza Metro,classic,595,active,2021/11/01 04:55:41+00,17,0,0,0,0,Yes,Yes,Yes,Yes,https://dc.lft.to/lastmile_qr_scan,https://dc.lft.to/lastmile_qr_scan,No,No,17,"CREDITCARD,KEY",133,2021/11/01 11:17:49+00,,Prince George's County
-76.9355802670709,38.9621268029776,28469148,38.962119,-76.935578,Riverdale Park Town Center,classic,596,active,2021/11/01 04:55:23+00,4,0,13,2,0,Yes,Yes,Yes,Yes,https://dc.lft.to/lastmile_qr_scan,https://dc.lft.to/lastmile_qr_scan,No,No,17,"CREDITCARD,KEY",133,2021/11/01 11:17:49+00,,Prince George's County
-76.9541732736061,38.9688498039737,28469149,38.968842,-76.954171,The Mall at Prince Georges,classic,597,active,2021/11/01 06:47:57+00,6,0,11,0,0,Yes,Yes,Yes,Yes,https://dc.lft.to/lastmile_qr_scan,https://dc.lft.to/lastmile_qr_scan,No,No,17,"CREDITCARD,KEY",133,2021/11/01 11:17:49+00,,Prince George's County
-77.0510993080909,39.0473308157737,28469150,39.047323,-77.051097,Wheaton Library & Community Rec Center,classic,598,active,2021/11/01 04:55:38+00,7,0,4,0,0,Yes,Yes,Yes,Yes,https://dc.lft.to/lastmile_qr_scan,https://dc.lft.to/lastmile_qr_scan,No,No,11,"CREDITCARD,KEY",44,2021/11/01 11:17:49+00,,"Montgomery County, MD (South)"
-77.0021002852969,38.9241517930913,28469151,38.924144,-77.002098,Edgewood Rec Center,classic,599,active,2021/11/01 10:13:23+00,11,0,4,1,0,Yes,Yes,Yes,Yes,https://dc.lft.to/lastmile_qr_scan,https://dc.lft.to/lastmile_qr_scan,No,No,15,"CREDITCARD,KEY",42,2021/11/01 11:17:49+00,,"Washington, DC"
-76.9951522825546,38.9027397886064,28469152,38.902732,-76.99515,8th & K St NE,classic,601,active,2021/11/01 11:16:49+00,5,0,9,0,0,Yes,Yes,Yes,Yes,https://dc.lft.to/lastmile_qr_scan,https://dc.lft.to/lastmile_qr_scan,No,No,15,"CREDITCARD,KEY",42,2021/11/01 11:17:49+00,,"Washington, DC"
-76.9678472729941,38.8959627886895,28469153,38.895955,-76.967845,Kingman Island/The Fields at RFK,classic,602,active,2021/11/01 09:36:13+00,14,0,5,0,0,Yes,Yes,Yes,Yes,https://dc.lft.to/lastmile_qr_scan,https://dc.lft.to/lastmile_qr_scan,No,No,19,"CREDITCARD,KEY",42,2021/11/01 11:17:49+00,,"Washington, DC"
-76.9472892670124,38.9004757902865,28469154,38.900468,-76.947287,Kenilworth Terrace & Hayes St. NE,classic,603,active,2021/11/01 04:55:41+00,16,0,3,0,0,Yes,Yes,Yes,Yes,https://dc.lft.to/lastmile_qr_scan,https://dc.lft.to/lastmile_qr_scan,No,No,19,"CREDITCARD,KEY",42,2021/11/01 11:17:49+00,,"Washington, DC"
-77.0167022819436,38.7859077643114,28469155,38.7859,-77.0167,National Harbor Carousel,classic,604,active,2021/11/01 08:40:02+00,6,0,9,0,0,Yes,Yes,Yes,Yes,https://dc.lft.to/lastmile_qr_scan,https://dc.lft.to/lastmile_qr_scan,No,No,15,"CREDITCARD,KEY",133,2021/11/01 11:17:49+00,,Prince George's County
-76.9935912778272,38.8366537760567,28469156,38.836646,-76.993589,Valley Ave & Wheeler Rd SE,classic,605,active,2021/11/01 04:55:40+00,6,0,11,2,1,Yes,Yes,Yes,Yes,https://dc.lft.to/lastmile_qr_scan,https://dc.lft.to/lastmile_qr_scan,No,No,19,"CREDITCARD,KEY",42,2021/11/01 11:17:49+00,,"Washington, DC"
-76.9409832640471,38.8762347852827,28469157,38.876227,-76.940981,Ridge Rd Community Center,classic,606,active,2021/11/01 04:55:29+00,11,0,8,0,0,Yes,Yes,Yes,Yes,https://dc.lft.to/lastmile_qr_scan,https://dc.lft.to/lastmile_qr_scan,No,No,19,"CREDITCARD,KEY",42,2021/11/01 11:17:49+00,,"Washington, DC"
-76.9776902744179,38.8573767808707,28469158,38.857369,-76.977688,Fort Stanton Rec Center,classic,607,active,2021/11/01 11:01:05+00,18,0,1,0,0,Yes,Yes,Yes,Yes,https://dc.lft.to/lastmile_qr_scan,https://dc.lft.to/lastmile_qr_scan,No,No,19,"CREDITCARD,KEY",42,2021/11/01 11:17:49+00,,"Washington, DC"
-77.0743253072279,38.9126217881135,28469159,38.912614,-77.074323,Reservoir Rd & 38th St NW,classic,608,active,2021/11/01 11:00:19+00,12,0,5,0,0,Yes,Yes,Yes,Yes,https://dc.lft.to/lastmile_qr_scan,https://dc.lft.to/lastmile_qr_scan,No,No,19,"CREDITCARD,KEY",42,2021/11/01 11:17:49+00,,"Washington, DC"
-77.0488542982565,38.8989327865854,28469160,38.898925,-77.048852,22nd & H St NW,classic,609,active,2021/11/01 11:08:45+00,1,0,14,2,1,Yes,Yes,Yes,Yes,https://dc.lft.to/lastmile_qr_scan,https://dc.lft.to/lastmile_qr_scan,No,No,17,"CREDITCARD,KEY",42,2021/11/01 11:17:49+00,,"Washington, DC"
-76.9948992819606,38.8999497884312,28469161,38.899942,-76.994897,8th & H St NE,classic,610,active,2021/11/01 10:50:09+00,12,0,6,0,1,Yes,Yes,Yes,Yes,https://dc.lft.to/lastmile_qr_scan,https://dc.lft.to/lastmile_qr_scan,No,No,19,"CREDITCARD,KEY",42,2021/11/01 11:17:49+00,,"Washington, DC"
-77.0856483105607,38.9097087865196,28469162,38.909701,-77.085646,Hardy Rec Center,classic,611,active,2021/11/01 09:52:39+00,9,0,8,1,0,Yes,Yes,Yes,Yes,https://dc.lft.to/lastmile_qr_scan,https://dc.lft.to/lastmile_qr_scan,No,No,17,"CREDITCARD,KEY",42,2021/11/01 11:17:49+00,,"Washington, DC"
-77.0041242928337,39.0313218141295,28469163,39.031314,-77.004122,The Shoppes @ Burnt Mills,classic,612,active,2021/11/01 08:12:04+00,7,0,12,1,0,Yes,Yes,Yes,Yes,https://dc.lft.to/lastmile_qr_scan,https://dc.lft.to/lastmile_qr_scan,No,No,19,"CREDITCARD,KEY",44,2021/11/01 11:17:49+00,,"Montgomery County, MD (South)"
-76.9454972777141,39.0816458264976,28469164,39.081638,-76.945495,Briggs Chaney & Castle Dr,classic,613,active,2021/11/01 08:46:27+00,16,0,2,1,1,Yes,Yes,Yes,Yes,https://dc.lft.to/lastmile_qr_scan,https://dc.lft.to/lastmile_qr_scan,No,No,19,"CREDITCARD,KEY",44,2021/11/01 11:17:49+00,,"Montgomery County, MD (South)"
-76.975725284682,39.046151818161,28469165,39.046144,-76.975723,White Oak Rec Center,classic,614,active,2021/11/01 04:55:27+00,10,0,5,0,0,Yes,Yes,Yes,Yes,https://dc.lft.to/lastmile_qr_scan,https://dc.lft.to/lastmile_qr_scan,No,No,15,"CREDITCARD,KEY",44,2021/11/01 11:17:49+00,,"Montgomery County, MD (South)"
-76.9418692758153,39.0778828261275,28469166,39.077875,-76.941867,Briggs Chaney Park & Ride,classic,615,active,2021/11/01 04:55:42+00,19,0,4,0,0,Yes,Yes,Yes,Yes,https://dc.lft.to/lastmile_qr_scan,https://dc.lft.to/lastmile_qr_scan,No,No,23,"CREDITCARD,KEY",44,2021/11/01 11:17:49+00,,"Montgomery County, MD (South)"
-76.9811572861925,39.0449518184358,28469167,39.044944,-76.981155,Stewart & April,classic,616,active,2021/11/01 04:55:43+00,12,0,7,2,0,Yes,Yes,Yes,Yes,https://dc.lft.to/lastmile_qr_scan,https://dc.lft.to/lastmile_qr_scan,No,No,19,"CREDITCARD,KEY",44,2021/11/01 11:17:49+00,,"Montgomery County, MD (South)"
-76.985440287594,39.045659818137,28469168,39.045652,-76.985438,Stewart Ln & Old Columbia Pike,classic,617,active,2021/11/01 04:55:40+00,13,0,6,1,0,Yes,Yes,Yes,Yes,https://dc.lft.to/lastmile_qr_scan,https://dc.lft.to/lastmile_qr_scan,No,No,19,"CREDITCARD,KEY",44,2021/11/01 11:17:49+00,,"Montgomery County, MD (South)"
-76.9918262900804,39.0391098169247,28469169,39.039102,-76.991824,New Hampshire & Lockwood,classic,618,active,2021/11/01 04:55:43+00,17,0,2,0,0,Yes,Yes,Yes,Yes,https://dc.lft.to/lastmile_qr_scan,https://dc.lft.to/lastmile_qr_scan,No,No,19,"CREDITCARD,KEY",44,2021/11/01 11:17:49+00,,"Montgomery County, MD (South)"
-76.940549276227,39.0853218274262,28469170,39.085314,-76.940547,Castle Blvd & Castle Ln,classic,619,active,2021/10/31 04:59:27+00,17,0,2,0,0,Yes,Yes,Yes,Yes,https://dc.lft.to/lastmile_qr_scan,https://dc.lft.to/lastmile_qr_scan,No,No,19,"CREDITCARD,KEY",44,2021/11/01 11:17:49+00,,"Montgomery County, MD (South)"
-76.9945412908619,39.0379888165435,28469171,39.037981,-76.994539,Oak Leaf & Lockwood,classic,620,active,2021/10/31 04:59:28+00,16,0,3,0,0,Yes,Yes,Yes,Yes,https://dc.lft.to/lastmile_qr_scan,https://dc.lft.to/lastmile_qr_scan,No,No,19,"CREDITCARD,KEY",44,2021/11/01 11:17:49+00,,"Montgomery County, MD (South)"
-76.9871272879171,39.0410478167786,28469172,39.04104,-76.987125,White Oak Transit Center,classic,621,active,2021/10/31 15:08:10+00,14,0,5,1,0,Yes,Yes,Yes,Yes,https://dc.lft.to/lastmile_qr_scan,https://dc.lft.to/lastmile_qr_scan,No,No,19,"CREDITCARD,KEY",44,2021/11/01 11:17:49+00,,"Montgomery County, MD (South)"
-77.1145653177069,38.8794847802098,28469173,38.879477,-77.114563,Wilson Blvd. & N. Vermont St.,classic,622,active,2021/11/01 10:04:01+00,10,0,2,0,0,Yes,Yes,Yes,Yes,https://dc.lft.to/lastmile_qr_scan,https://dc.lft.to/lastmile_qr_scan,No,No,12,"CREDITCARD,KEY",41,2021/11/01 11:17:49+00,,"Arlington, VA"
-76.9695112741616,38.897507788531,28469174,38.8975,-76.969509,Oklahoma Ave & Benning Rd NE,classic,623,active,2021/11/01 08:18:08+00,14,0,4,0,1,Yes,Yes,Yes,Yes,https://dc.lft.to/lastmile_qr_scan,https://dc.lft.to/lastmile_qr_scan,No,No,19,"CREDITCARD,KEY",42,2021/11/01 11:17:49+00,,"Washington, DC"
-76.9785212748918,38.8693447827869,28469175,38.869337,-76.978519,Minnesota Ave & R St SE,classic,624,active,2021/11/01 10:51:28+00,14,0,5,0,0,Yes,Yes,Yes,Yes,https://dc.lft.to/lastmile_qr_scan,https://dc.lft.to/lastmile_qr_scan,No,No,19,"CREDITCARD,KEY",42,2021/11/01 11:17:49+00,,"Washington, DC"
-77.355301396895,38.9490157844819,28469176,38.949008,-77.355299,Vy Reston Heights,classic,625,active,2021/10/31 12:28:01+00,9,0,2,0,0,Yes,Yes,Yes,Yes,https://dc.lft.to/lastmile_qr_scan,https://dc.lft.to/lastmile_qr_scan,No,No,11,"CREDITCARD,KEY",104,2021/11/01 11:17:49+00,,"Fairfax, VA"
-77.005651285426,38.9023937881968,28469177,38.902386,-77.005649,1st & K St NE,classic,626,active,2021/11/01 11:16:58+00,10,0,6,0,1,Yes,Yes,Yes,Yes,https://dc.lft.to/lastmile_qr_scan,https://dc.lft.to/lastmile_qr_scan,No,No,17,"CREDITCARD,KEY",42,2021/11/01 11:17:49+00,,"Washington, DC"
-77.100798309773,38.8081687656931,28469178,38.808161,-77.100796,Wheeler Ave & S. Floyd St.,classic,628,active,2021/10/31 23:28:26+00,7,0,5,1,0,Yes,Yes,Yes,Yes,https://dc.lft.to/lastmile_qr_scan,https://dc.lft.to/lastmile_qr_scan,No,No,12,"CREDITCARD,KEY",40,2021/11/01 11:17:49+00,,"Alexandria, VA"
-77.1089403141368,38.8408047720774,28469179,38.840797,-77.108938,N. Beauregard St. & Berkley St.,classic,629,active,2021/11/01 11:08:49+00,16,0,3,1,0,Yes,Yes,Yes,Yes,https://dc.lft.to/lastmile_qr_scan,https://dc.lft.to/lastmile_qr_scan,No,No,19,"CREDITCARD,KEY",40,2021/11/01 11:17:49+00,,"Alexandria, VA"
-77.0494382923307,38.7930727643365,28469180,38.793065,-77.049436,Mt Vernon Trail & S. Washington St.,classic,630,active,2021/11/01 10:56:32+00,7,0,7,0,0,Yes,Yes,Yes,Yes,https://dc.lft.to/lastmile_qr_scan,https://dc.lft.to/lastmile_qr_scan,No,No,15,"CREDITCARD,KEY",40,2021/11/01 11:17:49+00,,"Alexandria, VA"
-77.0824653031045,38.8027457654713,28469181,38.802738,-77.082463,Eisenhower Ave & Ike Dr,classic,632,active,2021/10/31 22:00:29+00,12,0,3,0,0,Yes,Yes,Yes,Yes,https://dc.lft.to/lastmile_qr_scan,https://dc.lft.to/lastmile_qr_scan,No,No,15,"CREDITCARD,KEY",40,2021/11/01 11:17:49+00,,"Alexandria, VA"
-76.9858562798802,38.9110007911781,28469182,38.910993,-76.985854,Capitol Ave & Kendall St NE,classic,633,active,2021/11/01 09:19:23+00,17,0,2,0,0,Yes,Yes,Yes,Yes,https://dc.lft.to/lastmile_qr_scan,https://dc.lft.to/lastmile_qr_scan,No,No,19,"CREDITCARD,KEY",42,2021/11/01 11:17:49+00,,"Washington, DC"
-76.9863872788958,38.8840657855822,28469183,38.884058,-76.986385,14th & D St SE,classic,634,active,2021/11/01 11:11:09+00,13,0,5,0,0,Yes,Yes,Yes,Yes,https://dc.lft.to/lastmile_qr_scan,https://dc.lft.to/lastmile_qr_scan,No,No,19,"CREDITCARD,KEY",42,2021/11/01 11:17:49+00,,"Washington, DC"
